{"type": "FeatureCollection", "features": [{"type": "Feature", "properties": {"nombre": "Rio Subachoque y Pantano de Arce", "Fuente": "Runap, Acuerdo No. 17 de 1997", "Categor\u00eda": "\u00c1reas protegidas", "Subcategor\u00eda": "\u00c1reas del SINAP", "Area": 42106023.46519476, "Area_ha": 4210.602346519476, "Perimetro": 53697.043919362935, "Shape_Length": 53664.64749194897, "Shape_Area": 42055362.298584}, "geometry": {"coordinates": [[[[-74.0936270649981, 5.06669103396402], [-74.09317538465791, 5.065797874096428], [-74.09317634458375, 5.064804685160485], [-74.09315974589428, 5.064397778888398], [-74.09319141284406, 5.0640781634151955], [-74.09323215072125, 5.063687272224634], [-74.09323514500893, 5.063669675794174], [-74.09330494841622, 5.063259557021565], [-74.09334804905492, 5.062921539122552], [-74.09335920163099, 5.062684721278185], [-74.09342063580485, 5.06233978553713], [-74.09348676193191, 5.062066108607511], [-74.09352766403852, 5.061799358450059], [-74.09355014928796, 5.0614705642287], [-74.09355191192972, 5.061077430584523], [-74.09356993465278, 5.060836009889029], [-74.09356518070808, 5.060709561996475], [-74.0935649532846, 5.060544030104055], [-74.09353727506999, 5.060419924686503], [-74.0934981891721, 5.06033720960514], [-74.09343151744227, 5.060199360040186], [-74.09336489921243, 5.060105187036656], [-74.09324319936592, 5.059965112976268], [-74.09301573974884, 5.059606770649446], [-74.09286867975878, 5.059363273989849], [-74.09270556751248, 5.05911749604872], [-74.09260432750253, 5.058853244141156], [-74.0925329847086, 5.058648720445995], [-74.09252378521788, 5.058632642121275], [-74.09244788622199, 5.058451122195576], [-74.09240874592143, 5.058329324372525], [-74.09235347292673, 5.058145472207542], [-74.09230277102759, 5.05795012693806], [-74.09225204169314, 5.057734082127255], [-74.09223129985372, 5.057655942616812], [-74.09217584365884, 5.057334157484507], [-74.09210883503755, 5.056948005580617], [-74.09205117955064, 5.056690589518753], [-74.09192894256343, 5.056152778326214], [-74.09187579532515, 5.055842478213918], [-74.09184567281076, 5.055610318316595], [-74.09181327825519, 5.055387354711923], [-74.09176925633828, 5.0550471598050555], [-74.09168845056051, 5.0546265449281185], [-74.09165827316941, 5.05435069842903], [-74.09164642959642, 5.054063330239135], [-74.09161145220604, 5.053626564220058], [-74.09157220516455, 5.053426598250038], [-74.09153748208212, 5.053178350362455], [-74.0915048145707, 5.052755365959944], [-74.0914699557369, 5.052405963944751], [-74.09147774980539, 5.052195350022128], [-74.09130783617204, 5.051968178406625], [-74.09053659911413, 5.051483672793843], [-74.09002791333648, 5.051207369630395], [-74.08975519052458, 5.050934138979526], [-74.08920974482352, 5.050216919042937], [-74.08873247668386, 5.049738775032269], [-74.088494179128, 5.048988431215125], [-74.088282992685, 5.048872037372487], [-74.08823247424448, 5.048812325202724], [-74.0881750472293, 5.048731934046773], [-74.08812682822297, 5.0486745199771805], [-74.08800964001895, 5.04854522438303], [-74.08767016868475, 5.048215646337304], [-74.0868930043167, 5.0473764542908715], [-74.08592326477272, 5.0465119490476695], [-74.08515297647855, 5.045746319538902], [-74.08432538109982, 5.044941604716967], [-74.08370410646346, 5.044410483389175], [-74.08334188713934, 5.044040318040703], [-74.08319975754311, 5.043874776850416], [-74.08293153146792, 5.043626466201499], [-74.08272520375509, 5.04348160662043], [-74.08247302098567, 5.043276981110307], [-74.08228045594825, 5.0430470629849795], [-74.08199617864413, 5.042840122637778], [-74.08177380905653, 5.042658484943012], [-74.08134052393973, 5.0422446309349755], [-74.08096914489002, 5.041800891797351], [-74.08076281942971, 5.041584764294177], [-74.08051752781219, 5.0412766768043875], [-74.08037310831548, 5.041108838342628], [-74.08008425259577, 5.040830630118324], [-74.07982061021535, 5.040616798018985], [-74.07956614734752, 5.040400669371786], [-74.07946527625371, 5.040311008251662], [-74.07943318221254, 5.040283417022636], [-74.07942860165363, 5.040246630132995], [-74.0794286024713, 5.040212141232239], [-74.07944694428555, 5.040166166304934], [-74.07948362742984, 5.040113283057913], [-74.07957763090565, 5.040037421541832], [-74.07963953628251, 5.039973054409652], [-74.07969915467798, 5.039881097239179], [-74.07976564371155, 5.039802938695139], [-74.07986653485732, 5.0396627009242865], [-74.07993990425014, 5.039540855871974], [-74.08000640253894, 5.0393776319350385], [-74.08009124356018, 5.039147732490103], [-74.08016233083562, 5.038904033183083], [-74.08020132544505, 5.038715514204521], [-74.08026324214899, 5.038515503392165], [-74.0803159783282, 5.038402854349019], [-74.08043292246666, 5.038126980647783], [-74.08056819827564, 5.037860295250226], [-74.08063011427961, 5.0377637438667096], [-74.08070807458382, 5.03762120869697], [-74.08078144300802, 5.037469476876971], [-74.08085231260064, 5.037329622830104], [-74.08086764477153, 5.037299366762896], [-74.08120687346089, 5.037047768589269], [-74.0819163209017, 5.035760332086195], [-74.08245686177418, 5.034879458115939], [-74.08299739370588, 5.03416797441347], [-74.08336900373821, 5.033795287243141], [-74.08363927248138, 5.033422599400932], [-74.08377439356478, 5.0328466435932135], [-74.08404466227539, 5.0321351776910905], [-74.0844807462734, 5.031684900421587], [-74.08448297376927, 5.031681961337506], [-74.08451798100391, 5.03164737167167], [-74.08453432896178, 5.03160459872724], [-74.08455345560174, 5.031548450901606], [-74.08457803642216, 5.031476260728485], [-74.08459173608921, 5.031430792987523], [-74.08460298038757, 5.031355817230845], [-74.08460859848499, 5.031318334788499], [-74.08460124872646, 5.031227144987354], [-74.08463381147907, 5.031160372512686], [-74.08463953730134, 5.0311094762033965], [-74.08464515630133, 5.0310719946647255], [-74.0846697814633, 5.030994442201715], [-74.08468953124387, 5.030852521385083], [-74.08470069493922, 5.030788271104181], [-74.08470106448668, 5.030737341185132], [-74.08471237308275, 5.030654335569804], [-74.08474493580393, 5.03058756128732], [-74.08474768551865, 5.03057685670528], [-74.08478280953639, 5.03052618743181], [-74.08480731060776, 5.030464713685399], [-74.08482356884768, 5.030435350959841], [-74.08483449794696, 5.030403266231456], [-74.08486984751171, 5.030320432325464], [-74.0849179699266, 5.0302874414279675], [-74.0849665619168, 5.030254129424532], [-74.08499645458313, 5.030187336963124], [-74.08507180618071, 5.030118194877838], [-74.08514180961092, 5.030049015546139], [-74.0852279544149, 5.029966562135036], [-74.08531417255217, 5.029873374208076], [-74.08537344340182, 5.029809484468666], [-74.08544361065154, 5.0297188559791985], [-74.08552706001936, 5.029639060997433], [-74.08559431365578, 5.029580588933905], [-74.08564813937727, 5.0295300486419565], [-74.08570737573645, 5.029471521158635], [-74.08576938079054, 5.029399602521275], [-74.08583124999244, 5.0293464482430466], [-74.08589303948705, 5.0293040085717715], [-74.08593088591668, 5.029245319458973], [-74.08602481412794, 5.029195086028504], [-74.08607848583998, 5.029165993927768], [-74.08613780359462, 5.0290967337099755], [-74.08620776245198, 5.029032916598711], [-74.0863072723693, 5.028950553931799], [-74.0863826581182, 5.028876057624504], [-74.08645001029045, 5.0288041834227], [-74.08647746017213, 5.028778763509963], [-74.08658845845638, 5.0286833679323335], [-74.08668357493454, 5.028587992488695], [-74.08671528036203, 5.028476708513444], [-74.08681040611148, 5.028333621464029], [-74.08684212031702, 5.02820642366047], [-74.08684212027119, 5.02812694326725], [-74.08687382467865, 5.027936155375727], [-74.08684211893822, 5.027793077114994], [-74.0868104047474, 5.027697683299965], [-74.08682627381522, 5.02753870781572], [-74.08682627376176, 5.027459211133006], [-74.08677869509813, 5.027220738869129], [-74.08676284269428, 5.02710944640944], [-74.08671527352325, 5.026902787264865], [-74.086715273318, 5.026807393050305], [-74.08696894677921, 5.026823289373924], [-74.08723848232222, 5.026855074766965], [-74.08750801000619, 5.027045862437068], [-74.08763484392156, 5.02725252948457], [-74.08777754086402, 5.027602283910735], [-74.08795194297068, 5.027888465848446], [-74.08814220535227, 5.028047440164643], [-74.0883324606309, 5.028270013539611], [-74.08850686267051, 5.028460801078631], [-74.08868126611186, 5.0288582481171735], [-74.08868126798504, 5.029160300926361], [-74.0887763903273, 5.029637272886756], [-74.08887151993407, 5.030050617625458], [-74.08890324435689, 5.03019369472288], [-74.08890324993206, 5.0308773167953085], [-74.08896667270078, 5.031099900849441], [-74.08909280453062, 5.031307272476245], [-74.08911202962429, 5.031327963473177], [-74.08959829739642, 5.031205969423273], [-74.0902061425858, 5.031449951752232], [-74.09105711634858, 5.031876907143114], [-74.09190811253673, 5.031937882979754], [-74.09251593694653, 5.031754890826583], [-74.09300221348529, 5.031144943784336], [-74.09391395235401, 5.030534973638684], [-74.09494727819795, 5.030229982162651], [-74.09544962193434, 5.03017506424509], [-74.09481833655124, 5.027100462918956], [-74.10158149559668, 5.025834298388737], [-74.102573469289, 5.02728114704719], [-74.1066313821513, 5.027190588449978], [-74.10906625959845, 5.030536400134892], [-74.1072629072414, 5.035419674023377], [-74.10563968676851, 5.034425003718974], [-74.10550399800297, 5.034421490761806], [-74.10547662953836, 5.03442149108938], [-74.10539453291692, 5.034435238631951], [-74.10546294632637, 5.034586409056256], [-74.10555874822994, 5.034778794410331], [-74.10572293847949, 5.034971179392723], [-74.10590084115003, 5.035287261130438], [-74.10599662259872, 5.035424666420159], [-74.10609242306724, 5.0355620879415275], [-74.10613346628398, 5.035672032435838], [-74.10614716014626, 5.035823201610428], [-74.10613347534681, 5.0359331287217515], [-74.1061061121504, 5.036098046390722], [-74.10601034177814, 5.036304184331368], [-74.10590088238031, 5.036496594431102], [-74.1058871991013, 5.036675248103302], [-74.10590089318279, 5.03681265622995], [-74.10595563410288, 5.036908863437313], [-74.10602404419286, 5.036963822145757], [-74.10606510311952, 5.037005049996049], [-74.10610614469248, 5.037060028973701], [-74.1061061484756, 5.037156209765868], [-74.10611982961234, 5.037211190914052], [-74.10611983275453, 5.037293645036083], [-74.10602405915868, 5.03741732888473], [-74.10585986111514, 5.037582251137703], [-74.10570935133411, 5.037747163675224], [-74.10564094358705, 5.037760911598392], [-74.10557253691324, 5.037815877535149], [-74.1055314832174, 5.037939558839245], [-74.10558621516516, 5.03803574707904], [-74.10561358799512, 5.038159436058998], [-74.10569569695008, 5.038241878225521], [-74.10575042653669, 5.038269376079636], [-74.10584620675033, 5.03835181760235], [-74.10590094578801, 5.038406780529228], [-74.10592831960628, 5.038530468571672], [-74.10587358818077, 5.038722859886009], [-74.10580518845123, 5.03895649607635], [-74.1059009733311, 5.039203853959317], [-74.10595571381059, 5.039286296442644], [-74.10606518354784, 5.039368756236683], [-74.10606518836383, 5.039519927852387], [-74.10603782564152, 5.039712317878283], [-74.10588730607921, 5.0398497582177635], [-74.10576416208748, 5.039945943923214], [-74.1055999571468, 5.039945948944518], [-74.10543577250156, 5.039973445238636], [-74.10527157265508, 5.040097131385722], [-74.10527157531457, 5.040207075970169], [-74.10532630549288, 5.040262046172984], [-74.10523052486626, 5.040399475708703], [-74.1050252951915, 5.040605616039223], [-74.10497054956147, 5.040660581388597], [-74.10491583434003, 5.040784272351416], [-74.10498424596122, 5.0408804699290215], [-74.10505265715928, 5.040949177048832], [-74.10506633812663, 5.040962912139706], [-74.10518949317319, 5.040976652978728], [-74.10531264571146, 5.041141557308465], [-74.1053810770746, 5.041251507701818], [-74.10547685777269, 5.041333949185685], [-74.10553159573334, 5.041361429794728], [-74.10560000955626, 5.041498853430006], [-74.10575054517962, 5.041801191307378], [-74.10586000611156, 5.0418973686796855], [-74.10598316411433, 5.0419660911003135], [-74.10607895930534, 5.041938605973367], [-74.1061610489633, 5.0419660843092355], [-74.10627118560818, 5.042021080439452], [-74.10345832364014, 5.043405343087134], [-74.10436923660988, 5.0441365296499745], [-74.10485555009043, 5.045295406814227], [-74.10507581835512, 5.046047115317443], [-74.10443009140644, 5.0465153087344445], [-74.10455166890218, 5.046759267561082], [-74.10570662632297, 5.047430172237587], [-74.10576741447423, 5.047674158195521], [-74.10601054940561, 5.047796121355334], [-74.1060105784597, 5.048650049352594], [-74.10552431262445, 5.049077029589079], [-74.10497723900245, 5.0492600416895215], [-74.10455175230152, 5.049382026573908], [-74.10436941125933, 5.049687024646127], [-74.10449098524299, 5.050113966133723], [-74.10479493515159, 5.050418940066423], [-74.10503810206042, 5.050967867020777], [-74.1060106868051, 5.051821763109929], [-74.10667936054215, 5.052431679178964], [-74.10728724250778, 5.052980611258343], [-74.10783432350318, 5.053407555164076], [-74.10874621468626, 5.055908290359925], [-74.10947569848479, 5.057067155715733], [-74.1102659210504, 5.057128136118283], [-74.11154245149491, 5.057250073238927], [-74.11172478079766, 5.0568840863417845], [-74.11202872093524, 5.056823088114874], [-74.11257580939147, 5.056884050296254], [-74.11263664678178, 5.058164938342536], [-74.11294065437811, 5.059811784713928], [-74.11294515473305, 5.060016328196835], [-74.1190773166317, 5.058026570685839], [-74.12178256321398, 5.055313527393278], [-74.12457789384621, 5.051424881943926], [-74.1272248414858, 5.049502899046658], [-74.12722481767358, 5.0491369480663835], [-74.12728559169574, 5.048770964802183], [-74.1274071330749, 5.048343994124118], [-74.12710318426218, 5.048039049164288], [-74.12710316821135, 5.047795060107802], [-74.12734629130317, 5.047429084231281], [-74.12746782871163, 5.047063106789458], [-74.12746779989342, 5.046636143625989], [-74.1273462238206, 5.046392181014093], [-74.12791410994244, 5.0452754450990485], [-74.1305285098008, 5.034423696237109], [-74.13014146316722, 5.034071084429939], [-74.12983752297953, 5.0338271361988065], [-74.129594367785, 5.033400197810301], [-74.12922963652676, 5.032973259262808], [-74.12880412254835, 5.032607311272106], [-74.12831779400139, 5.03199740496015], [-74.12807463359736, 5.031753432574041], [-74.12783148535478, 5.0313874980372795], [-74.12798210020748, 5.030883586073876], [-74.12801378917048, 5.0307775361926765], [-74.1283176448509, 5.029801598275163], [-74.12856076179875, 5.029435612544044], [-74.12910775259667, 5.028642651112728], [-74.12947243524383, 5.028276647353822], [-74.12962628564001, 5.027912819486891], [-74.12995868801846, 5.027971647610625], [-74.13032339540327, 5.0279716224326], [-74.13052804606626, 5.027912755450951], [-74.13064612346486, 5.027806166638527], [-74.13593821580453, 5.02302913981815], [-74.1356675767861, 5.021582285384299], [-74.13548680795637, 5.016246943992266], [-74.13591453898492, 5.015894287975337], [-74.13609684778349, 5.015467309065438], [-74.13633994471611, 5.01497933996812], [-74.13688694759986, 5.014613317904647], [-74.13706928786237, 5.014369322554871], [-74.13761627540663, 5.013820341795443], [-74.13925740725091, 5.013820205262573], [-74.1395613091201, 5.013698188987466], [-74.13980440370051, 5.013210200306545], [-74.13992590738997, 5.012600242187249], [-74.14035135190956, 5.012234253564965], [-74.14089836880683, 5.011868228205176], [-74.14138454628456, 5.01101425730257], [-74.14193153473369, 5.010343283884413], [-74.1425392971894, 5.009855261665103], [-74.14296478951857, 5.0098552223396755], [-74.14320792890081, 5.010099179995768], [-74.14369421170643, 5.010343125033305], [-74.14418048573954, 5.010587041590519], [-74.14448441468262, 5.010769998883636], [-74.1447883579001, 5.0110139488664736], [-74.14515307006646, 5.011257904448285], [-74.14551779892133, 5.011684832941941], [-74.14630800530978, 5.012111713882048], [-74.14649038689504, 5.012355666861331], [-74.14720920446541, 5.013442590806141], [-74.14630769704021, 5.015884280179133], [-74.14661228478099, 5.015954334453314], [-74.14715934221461, 5.0161982612291744], [-74.14807113052271, 5.016564150245028], [-74.14904366440902, 5.0166860257775685], [-74.15068479327228, 5.016685860716697], [-74.1507455521037, 5.016319903001371], [-74.15080629860766, 5.016014922690608], [-74.15080626705718, 5.015709948090519], [-74.15068465091586, 5.015283005728259], [-74.15062382676392, 5.014917033184954], [-74.1505629813856, 5.014246095912727], [-74.15045588212398, 5.013979140322642], [-74.15044139619845, 5.013941134351752], [-74.1504660821689, 5.013818645701006], [-74.1507256122871, 5.009734620439818], [-74.1550535261261, 5.005936113246138], [-74.15279883485185, 5.002409593538647], [-74.15329696356756, 5.002565352310117], [-74.15366166324388, 5.002626308219948], [-74.1540871181918, 5.002565268269968], [-74.15460227299619, 5.002318971820743], [-74.15469484937472, 5.001772269460871], [-74.15518106796446, 5.001528227933188], [-74.15536335034065, 5.000857282848426], [-74.15530250432055, 5.000369321007906], [-74.15554558144876, 4.999881344580459], [-74.156031803862, 4.999759301721475], [-74.15591021200875, 4.999393354680559], [-74.15572783489614, 4.999027396213117], [-74.15566702784646, 4.998905413076808], [-74.15554546250527, 4.998783436587509], [-74.15560620512218, 4.998478454752603], [-74.15566696122403, 4.998295472751356], [-74.15584927665714, 4.997929474865156], [-74.15609237904759, 4.99768548636696], [-74.15621391119795, 4.997502488597124], [-74.15615308938987, 4.997075540309582], [-74.15615302764134, 4.996526585488162], [-74.1565176631531, 4.99609958115906], [-74.15663919629412, 4.995855578960557], [-74.15645681351188, 4.995428635098988], [-74.1565165808232, 4.995039988834774], [-74.15657526339209, 4.995032150799638], [-74.15671756352657, 4.9953655585293495], [-74.15685984281195, 4.9955084219411], [-74.15709697273138, 4.995556034532711], [-74.15766605717572, 4.995508331640209], [-74.15799802570201, 4.995603571149137], [-74.15795062919109, 4.995746455071885], [-74.15814032753609, 4.995794072252592], [-74.15818774114418, 4.9957940681672826], [-74.15847228374801, 4.995698767314369], [-74.15861456342994, 4.99584163928735], [-74.15880428386532, 4.995984514272358], [-74.15923104867353, 4.995603429306809], [-74.1598475376286, 4.995412815276706], [-74.16041662305462, 4.995365138119093], [-74.16108053537782, 4.995269792163245], [-74.16141252630914, 4.99541263256134], [-74.1616971001537, 4.995650754061165], [-74.16207650494619, 4.99579361594351], [-74.16255074948525, 4.99584117914497], [-74.16283527481589, 4.995745886523275], [-74.163878574581, 4.99550760442705], [-74.16435279563561, 4.995364666933842], [-74.16482700610968, 4.995126453212934], [-74.16511155953594, 4.995269306119562], [-74.16558580907417, 4.995364514164599], [-74.16615487252666, 4.995078648739601], [-74.16672391163827, 4.994745154080558], [-74.16734042039816, 4.994792714273146], [-74.16795688135544, 4.994411591453388], [-74.16890532441526, 4.994078064080988], [-74.16933214429474, 4.9941732580662395], [-74.16999609353806, 4.994316060466068], [-74.17056518899783, 4.994363613532072], [-74.17127652964737, 4.994268270031122], [-74.17246206153013, 4.993839438067268], [-74.17317339574745, 4.99364882427952], [-74.17369508028597, 4.99383926979852], [-74.17402707160103, 4.99402974207363], [-74.17440647815864, 4.994172578323209], [-74.17469103941575, 4.994363055436753], [-74.17511785584867, 4.9943629969622165], [-74.17615238915968, 4.994539335393656], [-74.17694101155506, 4.994813678001397], [-74.1770407106676, 4.9949803706887845], [-74.17733973847797, 4.995180386351455], [-74.17753907697391, 4.995280400146252], [-74.17793774608087, 4.995246992757816], [-74.17856897358212, 4.995246901446646], [-74.17900087150765, 4.995280189721555], [-74.17949918551697, 4.995146752019371], [-74.17973174209254, 4.995180040767156], [-74.17983141262508, 4.9951467029676895], [-74.18059551537586, 4.995079898923849], [-74.18099416636, 4.994979798076185], [-74.18122666898049, 4.994646321889914], [-74.18139277256918, 4.994579623402529], [-74.18155888166251, 4.994546257141118], [-74.1819242776486, 4.994212761371133], [-74.18205713304505, 4.993945982471281], [-74.18222321107544, 4.993712558321383], [-74.182987321662, 4.993712442669624], [-74.1839839874451, 4.993678941716763], [-74.18537928714903, 4.993445328612149], [-74.18601049425719, 4.993378538998856], [-74.1865752474347, 4.993178392625341], [-74.18717320952926, 4.992944890671891], [-74.18760507035812, 4.992744764959534], [-74.18810335261254, 4.992444595510503], [-74.18876775697368, 4.992144390091862], [-74.18893384465152, 4.991977655490578], [-74.18915841586563, 4.991816600425075], [-74.190814762523, 4.991469832863598], [-74.19084981126711, 4.991462493546063], [-74.19548109051075, 4.992884986715945], [-74.19644069616785, 4.993179722618244], [-74.19631781265217, 4.993933340809464], [-74.19791682661783, 4.994657533130231], [-74.19857608617392, 4.994657418560889], [-74.198942241444, 4.994069407483026], [-74.2020189106229, 4.994583315252646], [-74.20464649326478, 4.994444279777015], [-74.2042899476144, 4.995832314619156], [-74.20399701155027, 4.99619984727816], [-74.20363094424297, 4.9973023237863705], [-74.20612257383677, 5.00303446930695], [-74.20410792436464, 5.0079183959296785], [-74.20654323651924, 5.011354268870184], [-74.20583757901629, 5.011329017416982], [-74.2057132947799, 5.011578427386118], [-74.20546466859963, 5.01182785124267], [-74.20496737104652, 5.012077330712059], [-74.20428350789507, 5.011952763698755], [-74.20341315214006, 5.011952922907509], [-74.20310229455555, 5.01189062941646], [-74.20272926882797, 5.011766002607357], [-74.20235624323126, 5.011641394552193], [-74.20198321770093, 5.011516769962873], [-74.20154806323676, 5.011641540907941], [-74.2012372608763, 5.01189096558935], [-74.20098861139849, 5.012015703949973], [-74.20042911311873, 5.012078155563526], [-74.19949663510509, 5.0123276891611575], [-74.19862633133548, 5.012577228858606], [-74.19825334122685, 5.012701969909642], [-74.19781827869488, 5.013325504230511], [-74.1976940230161, 5.013761931442923], [-74.19750759185767, 5.014198376674807], [-74.19732114978089, 5.0145724711190365], [-74.19694815733224, 5.014697228036819], [-74.19663730820615, 5.014634939765371], [-74.19657513111892, 5.014572599635626], [-74.19651292465899, 5.014385574185272], [-74.19645074514234, 5.014260910356206], [-74.19595340037056, 5.014260995407966], [-74.19595344357973, 5.014510364301216], [-74.19551825261584, 5.014448087627633], [-74.19526957002533, 5.0143857880752645], [-74.19508305207492, 5.014323467946733], [-74.19483437910328, 5.014323510910724], [-74.19446135326419, 5.014198898346414], [-74.19415053643107, 5.014323626070644], [-74.19352885825761, 5.014323731050509], [-74.19315581444528, 5.01419911861955], [-74.1924719723891, 5.014199232895018], [-74.19228547595577, 5.014261614600887], [-74.19209897762202, 5.014323969120349], [-74.19216118473635, 5.014511004337742], [-74.19216122652728, 5.014760372668203], [-74.19209908165732, 5.014947427511734], [-74.1916639021518, 5.014947499165956], [-74.19085573697282, 5.015072324279029], [-74.19042056440972, 5.015072396921261], [-74.18979889837138, 5.015197173302746], [-74.18955026548468, 5.0154466000875875], [-74.18923949652908, 5.015883064392245], [-74.1886178671637, 5.016194875623354], [-74.18818278611792, 5.0168184034934304], [-74.18805849286164, 5.01713013306965], [-74.18787204437287, 5.0174418833942385], [-74.18787206324522, 5.017566576340926], [-74.18749907689363, 5.017753662495835], [-74.18712610023152, 5.01794075661251], [-74.18681529906671, 5.018252526517497], [-74.18669097668077, 5.018314897174085], [-74.1864423325531, 5.01850197228447], [-74.18601555997289, 5.0184266113439735], [-74.18586284803845, 5.018364510468222], [-74.18572327558691, 5.018300671036963], [-74.18558850471697, 5.018333092446964], [-74.18548118677116, 5.018374616373177], [-74.18534645512608, 5.018420792924621], [-74.18523225426367, 5.0184531570275155], [-74.18510435663617, 5.018492441694868], [-74.18501300393305, 5.018520173182282], [-74.18486237220624, 5.018605345098538], [-74.18475740132783, 5.018672070578629], [-74.18471655248231, 5.018793650987563], [-74.18471002666699, 5.018928897239721], [-74.18468963076292, 5.018999997051596], [-74.18461213022262, 5.01908499463363], [-74.18449126840582, 5.019195310263918], [-74.18440459391302, 5.019266572833393], [-74.1842517090076, 5.019367796859318], [-74.18418553656088, 5.019413800021835], [-74.18404383662953, 5.0194141556317815], [-74.18388374282935, 5.019370999501027], [-74.18375800050804, 5.0193552662400105], [-74.18359124596726, 5.0193946374059335], [-74.18351595892953, 5.019449829322572], [-74.18342025660677, 5.019566960550661], [-74.18331761346447, 5.0196543127375755], [-74.18321499118797, 5.0197462496638545], [-74.18310325395602, 5.019849663709487], [-74.1829595886024, 5.019980664229857], [-74.1827975322077, 5.020072736857377], [-74.18273597745772, 5.020134772422264], [-74.18267443599461, 5.020203689213596], [-74.1826311513211, 5.020261090599326], [-74.18254223447737, 5.020352999014199], [-74.18245780301777, 5.020405922715816], [-74.18239393125565, 5.020456500036335], [-74.18223638757797, 5.020523360272944], [-74.1821563836088, 5.020516680007304], [-74.18208566776677, 5.020574150050169], [-74.18192841246116, 5.020755611335361], [-74.18179128409874, 5.020760533987489], [-74.18164282541262, 5.0207998562578835], [-74.18153759506622, 5.020763447148349], [-74.18133412021339, 5.020736439697767], [-74.18123137243, 5.020777952996562], [-74.18115156108452, 5.020853781299029], [-74.18105807244476, 5.020943401383362], [-74.18103301713936, 5.020980137710963], [-74.18095038123468, 5.021040720143923], [-74.18072242464991, 5.021079458577337], [-74.18053715142976, 5.02102032623736], [-74.18040695317221, 5.02105272763707], [-74.1802836359514, 5.021094289773692], [-74.18022193901484, 5.021099028656561], [-74.18007348110189, 5.021142934495169], [-74.17990677349559, 5.021198358350041], [-74.17981770333364, 5.0212283752553875], [-74.17974255359825, 5.021244827056717], [-74.17970120098414, 5.021253875037837], [-74.17962358355966, 5.021288439725727], [-74.17955530197108, 5.021407798511798], [-74.17945060809795, 5.021589126402917], [-74.17939149876092, 5.0217153290591705], [-74.17931408327507, 5.021834698916445], [-74.17922531839119, 5.021988486539744], [-74.17913877831043, 5.0221170542281355], [-74.1790270969829, 5.022245680005551], [-74.17884709583701, 5.022473028058042], [-74.17873993788808, 5.022578728908572], [-74.17858250848668, 5.022693715478581], [-74.1784273320834, 5.0227926498157975], [-74.17833836496756, 5.022861633081175], [-74.1782013798523, 5.0229215633193585], [-74.17803695301922, 5.022979261994769], [-74.17789090154857, 5.02307130483172], [-74.177827153021, 5.0231723062285045], [-74.1777771009609, 5.023264116926317], [-74.17772015739688, 5.023344472193222], [-74.177619794577, 5.023427230353074], [-74.17749194399133, 5.023487139471363], [-74.1772612668489, 5.023554172403857], [-74.17716073223193, 5.023565879597543], [-74.17700774980722, 5.023628144027207], [-74.1768616019453, 5.023681218360735], [-74.17672203689051, 5.023621962761724], [-74.1766371933718, 5.023507571863717], [-74.17656383195504, 5.023416067941028], [-74.17651796018428, 5.023352005121835], [-74.17643085400096, 5.023246784236045], [-74.17632801846243, 5.023253914264268], [-74.17622752252689, 5.023281664863955], [-74.17614539107653, 5.023343756115172], [-74.17601771177449, 5.0234701311200896], [-74.17588312092747, 5.023575890141933], [-74.17580558131684, 5.023647132733606], [-74.17569380252225, 5.023734503276681], [-74.175581957275, 5.0237943741810085], [-74.17546333556524, 5.023886340018042], [-74.17536754560757, 5.023971384337291], [-74.17530826387812, 5.024031121591014], [-74.17507095254948, 5.024189850031221], [-74.17497046500452, 5.024219896033949], [-74.1748927714654, 5.024226960680357], [-74.17473042514804, 5.0241998537533386], [-74.1746231043218, 5.024241376276068], [-74.1745455048959, 5.024287405637499], [-74.17444961921035, 5.0243311877318995], [-74.17428977332082, 5.024388876466068], [-74.17405682300635, 5.02446279015994], [-74.17384666752743, 5.024509146710645], [-74.17371876808228, 5.0245507160963365], [-74.1735840438817, 5.024601475488223], [-74.17342889377724, 5.0247118658930985], [-74.17331262929213, 5.024833627063957], [-74.173182620954, 5.024946256913023], [-74.17306862867808, 5.025061136315595], [-74.17300025915273, 5.0251438165049445], [-74.17290674864408, 5.02522426624435], [-74.17280402799047, 5.025277236385827], [-74.17259854897769, 5.025371708808646], [-74.17239089195745, 5.025505157287176], [-74.17215352292696, 5.025640969171723], [-74.17190927325909, 5.025769918412417], [-74.17147774353057, 5.025952039260555], [-74.17128386081474, 5.026112957090024], [-74.17115616133277, 5.026232450231002], [-74.17098300049484, 5.026457498166606], [-74.17094886765884, 5.026517168281311], [-74.17090566774442, 5.026611248417192], [-74.17090582025118, 5.026675426382869], [-74.17091973567523, 5.02675790528352], [-74.17086505375063, 5.026829090154063], [-74.17084226086712, 5.026854358832745], [-74.17077610601795, 5.026907232316377], [-74.17006828244885, 5.027197760325809], [-74.16982633030186, 5.027328995932351], [-74.16967107543614, 5.027398131692938], [-74.16963948104795, 5.0275632432865], [-74.16966023068412, 5.027638822363876], [-74.16977454011243, 5.0276500009961715], [-74.16991630831707, 5.0276748684630315], [-74.17016307065954, 5.027642181687904], [-74.17041450060098, 5.027648443278459], [-74.17066590013457, 5.027643245071232], [-74.17103157044698, 5.027633177066026], [-74.17124415349654, 5.027641830834942], [-74.17140415305856, 5.027643734847072], [-74.17157569100422, 5.027696025602352], [-74.17179741738144, 5.027702361752666], [-74.17203521638561, 5.02774303188706], [-74.17221118455144, 5.027735728326296], [-74.17250148931393, 5.02774877422614], [-74.1727780210482, 5.027738925282658], [-74.17313217178337, 5.027692214685639], [-74.17337898234099, 5.027680154179017], [-74.17386089744696, 5.02753687447181], [-74.17399329438658, 5.027470073636269], [-74.17407316467101, 5.0274171606947595], [-74.17416051698412, 5.027346732039345], [-74.17421002751202, 5.027306808389906], [-74.17428075214342, 5.027253924571981], [-74.17439035626067, 5.027212402400553], [-74.17460047511533, 5.027147707255616], [-74.17479462635467, 5.0270968042745965], [-74.17488822185356, 5.027050735128891], [-74.17502523688236, 5.027002273149162], [-74.17515759347954, 5.0269171420523495], [-74.17521686679773, 5.026855108297251], [-74.17538571399326, 5.0267378060334265], [-74.1755181091687, 5.0266687175404945], [-74.1756300121977, 5.026631770425523], [-74.17578072360507, 5.026574100453828], [-74.17589716982751, 5.0265256844689485], [-74.17604561894154, 5.0264794827839285], [-74.1762217121014, 5.026522592680995], [-74.1763202431111, 5.02662549640807], [-74.1763410703491, 5.0267308811227105], [-74.17631616892193, 5.026829496934492], [-74.17622964589789, 5.026962640218933], [-74.17615450985592, 5.027079721140985], [-74.17601293358173, 5.027135074648819], [-74.17589406201435, 5.027126201814516], [-74.17573643975257, 5.027158671078389], [-74.17554459829911, 5.027221030801635], [-74.17533234191143, 5.027343023336581], [-74.17518629780082, 5.0274419380795585], [-74.1750790816693, 5.027527010314189], [-74.1749834245061, 5.027664766538323], [-74.17498059445965, 5.027674081487997], [-74.17478784007203, 5.027781502571714], [-74.17461927224258, 5.027829833195905], [-74.17452294753255, 5.027902289531442], [-74.17433029016364, 5.027926460964056], [-74.17418579197685, 5.027926481494886], [-74.17396905565163, 5.028071433820769], [-74.17372822994443, 5.028119774947866], [-74.17341519004279, 5.028361309871484], [-74.17317437931588, 5.028457950024092], [-74.17274088921098, 5.0285546056669155], [-74.17259639782777, 5.028602933241691], [-74.17235217178616, 5.028712774505491], [-74.17179474189497, 5.029134079700531], [-74.1714086438621, 5.02913413231492], [-74.17102255472857, 5.029198779141285], [-74.17031471749851, 5.029198871721251], [-74.16992864481429, 5.029392678816432], [-74.16979997972882, 5.0296510352916295], [-74.16992871188013, 5.029909338630933], [-74.16980003880798, 5.030103111515111], [-74.16928524908899, 5.03016777137938], [-74.1685774025458, 5.030103269628665], [-74.16761221424802, 5.030490905028257], [-74.16709744076579, 5.030684725195363], [-74.16638965823665, 5.03120147615172], [-74.16638981325757, 5.032428587879556], [-74.1661324460055, 5.032686961030307], [-74.16561768771692, 5.032945347009718], [-74.16516731775113, 5.033591252817119], [-74.16510301507397, 5.033978768893618], [-74.16478126402154, 5.033978809851142], [-74.16420213742404, 5.034108041388979], [-74.16336565722912, 5.034689398900033], [-74.16272222627668, 5.035206147375825], [-74.16188572679668, 5.035658341464708], [-74.16137102378065, 5.036498007181186], [-74.16117804827208, 5.0371438602808265], [-74.16092069964004, 5.03759598544815], [-74.16059906884813, 5.038629362918572], [-74.16014879758607, 5.040114841360559], [-74.1596984467815, 5.041019090872909], [-74.15918372984495, 5.041794159848843], [-74.15873336083673, 5.042569220733981], [-74.15808995601498, 5.043408880069495], [-74.15757521360767, 5.04399019338111], [-74.15738214565994, 5.043861053753453], [-74.15731776684648, 5.043538145855354], [-74.15712467720581, 5.043215234576848], [-74.1564811374172, 5.042956976784846], [-74.15570889154894, 5.042569562109219], [-74.15442180931129, 5.041988439460986], [-74.15232961595585, 5.041091319136625], [-74.15192624069181, 5.040904553395728], [-74.15174095449963, 5.040843116217308], [-74.14987623277923, 5.040036251332299], [-74.14968184095845, 5.0399908751442855], [-74.14951266624867, 5.039975238124528], [-74.14775344393905, 5.0393193824305555], [-74.14744897560955, 5.039116126287566], [-74.14714942067906, 5.039059547304878], [-74.14684755247978, 5.038989221340917], [-74.1451231656342, 5.03838450192852], [-74.14504114341163, 5.038411566338402], [-74.14496350305289, 5.038419159824831], [-74.14489377109199, 5.038445580957377], [-74.14480538002569, 5.0384611623126565], [-74.14473837073315, 5.0384795526692905], [-74.14458282944281, 5.038537677608803], [-74.14448631488608, 5.038569318826705], [-74.14437379422581, 5.038592804778543], [-74.14428535041739, 5.038616432945717], [-74.14420759309444, 5.038642819272012], [-74.14408424319465, 5.038687710230661], [-74.14399853990854, 5.03870062199284], [-74.14392605848062, 5.038740454051154], [-74.14384808797817, 5.038804395389561], [-74.14370552921909, 5.038929681138607], [-74.14365158213612, 5.03900449807576], [-74.14358947670135, 5.039100729839064], [-74.14357322971144, 5.039132844200888], [-74.14351640108019, 5.039242521725752], [-74.14337548995603, 5.039544922482608], [-74.14308259103161, 5.040214048067694], [-74.14301493299781, 5.040345132441156], [-74.14296611259907, 5.040457549324489], [-74.14294431310574, 5.040524505449168], [-74.14290636653716, 5.040607468613311], [-74.14288472586809, 5.04064759490193], [-74.14286284695466, 5.040727970016859], [-74.14284925219722, 5.040765455398085], [-74.14281382219818, 5.0408752672221935], [-74.14280567194012, 5.040896681131014], [-74.14277328409878, 5.040944792564521], [-74.14273271116764, 5.0410196900319475], [-74.14270567055394, 5.041067838213036], [-74.14268934404272, 5.041113351655989], [-74.14267298108462, 5.041166923712501], [-74.14264320168698, 5.0412257873570425], [-74.14261335007585, 5.041298060931152], [-74.14255668885633, 5.041378232963358], [-74.14237361788565, 5.041567680874389], [-74.14226080737747, 5.041692637335815], [-74.14179781706675, 5.042109027125015], [-74.14178082944015, 5.042128922841947], [-74.14176818846336, 5.042143736551479], [-74.1416740763733, 5.042221008245522], [-74.14156118101462, 5.04230888875141], [-74.14150462664125, 5.0423702768666985], [-74.14148575405575, 5.042394315557024], [-74.14146135749068, 5.042447841999278], [-74.14144491408675, 5.04251483486022], [-74.14144974643769, 5.042603409826813], [-74.14143320752174, 5.042686497339968], [-74.14141948683101, 5.042745450393525], [-74.14140847100379, 5.042799058299758], [-74.14140278633258, 5.042855368664972], [-74.14138638841688, 5.042914311943256], [-74.14137273108645, 5.042962530705853], [-74.14135912538949, 5.043000015197534], [-74.14133744267822, 5.04304818923945], [-74.14130761760002, 5.043115100640768], [-74.1412453071571, 5.043246219912609], [-74.14116960528385, 5.043379945128355], [-74.14119332723516, 5.0434418057539085], [-74.14110150672153, 5.044045025645798], [-74.14107705556977, 5.044106600787719], [-74.1410336792343, 5.044202948894546], [-74.14093075079393, 5.044417014292302], [-74.14090089890792, 5.04448928695208], [-74.14083584769585, 5.0446311235055985], [-74.14075134641628, 5.044896280313065], [-74.14069394845615, 5.045102563716722], [-74.14068798717075, 5.045207183372217], [-74.1414271911928, 5.046984603501838], [-74.14158299290712, 5.047288334083983], [-74.14188805009465, 5.0483217542046175], [-74.1419441764288, 5.048407513513988], [-74.14198011221826, 5.048505183517337], [-74.1417948269981, 5.048562568947271], [-74.14162666581883, 5.048504645140933], [-74.14145564730866, 5.048465495511422], [-74.1412414808502, 5.04846086642657], [-74.13993027199844, 5.0486637336384685], [-74.13971800682351, 5.048745029396851], [-74.13928304935325, 5.048875321566488], [-74.1389881414201, 5.048915597095713], [-74.13870075722808, 5.049012326216825], [-74.13782297674275, 5.049254045992393], [-74.13769674769779, 5.049295863033088], [-74.13753529817231, 5.04938299585872], [-74.13744458026771, 5.049642626777755], [-74.13748601022479, 5.050094094226922], [-74.13763284472121, 5.0530973691137255], [-74.13760782799254, 5.0531991774285805], [-74.13762002182726, 5.053330850077213], [-74.13759173727429, 5.0534970710804545], [-74.13759904610392, 5.05387304992044], [-74.13759892080307, 5.053886570352568], [-74.13759714203636, 5.054082467251407], [-74.13761421033617, 5.0542679009237474], [-74.13764831014663, 5.054641435808629], [-74.13772778263053, 5.055031498609636], [-74.13775560861714, 5.0552116489865435], [-74.13778576517542, 5.055429419674672], [-74.13779793321311, 5.0555637878757596], [-74.13780185976067, 5.055722239446211], [-74.13777605637465, 5.055909963391143], [-74.13776693144834, 5.056030705785315], [-74.13773341510948, 5.056183453774913], [-74.13766638238862, 5.056488938899298], [-74.13765973856661, 5.056631195087378], [-74.13767920841373, 5.0568461813084], [-74.13771307097304, 5.056951203457389], [-74.13774947639195, 5.057069680723599], [-74.13776970786176, 5.0572014360399695], [-74.13777389155206, 5.057330360213519], [-74.13776258031928, 5.057397378494854], [-74.13777752434434, 5.057521031144697], [-74.13776556891301, 5.057657862146621], [-74.13774323040653, 5.05775969564519], [-74.13769627730221, 5.05791768005608], [-74.13758754438055, 5.058096596153559], [-74.1375009977733, 5.058192466331714], [-74.1373196359162, 5.05840830999869], [-74.13717342309685, 5.058586875624923], [-74.13709718688911, 5.058725809219483], [-74.13706676071858, 5.0588329348857055], [-74.13703114652051, 5.058921215375748], [-74.13699561301429, 5.059001447116533], [-74.13688147673722, 5.059185680484725], [-74.13683263277747, 5.059257729530262], [-74.13671579219766, 5.059444620643425], [-74.1366612513042, 5.059554216327099], [-74.13654165984185, 5.059749139149505], [-74.13649018236731, 5.059815799017012], [-74.13642265971681, 5.059879620478933], [-74.13633094350111, 5.059953969739986], [-74.1362744303312, 5.059985669735615], [-74.13622055948085, 5.0600200922998715], [-74.13608055282522, 5.060104736530126], [-74.1359264821264, 5.060264439805124], [-74.13589050122978, 5.060392995645297], [-74.1358680109423, 5.0605109365977485], [-74.1358534298466, 5.060642367610428], [-74.13582817177318, 5.060771023182495], [-74.13579808405245, 5.060840558214728], [-74.13574030104128, 5.061011880960169], [-74.1356992853678, 5.061105487789697], [-74.13565001995275, 5.0612231780067365], [-74.1355984159156, 5.061303265993074], [-74.13548504155644, 5.061404267432519], [-74.13534515818067, 5.061475482541634], [-74.13518435610843, 5.061490127085027], [-74.13491621271066, 5.061583019056437], [-74.13461232990635, 5.061675552803781], [-74.13437038328834, 5.061780759795154], [-74.13418778064151, 5.061838160134445], [-74.13405358593457, 5.061871846470705], [-74.13394600324763, 5.061924565785019], [-74.13392721081969, 5.0619297671822565], [-74.1338115758868, 5.0619837537934185], [-74.13367474730244, 5.062013389148876], [-74.13352196449777, 5.062030790823269], [-74.13328351947828, 5.062044725727774], [-74.13311215750467, 5.062043165271441], [-74.1329811599716, 5.062020486484022], [-74.13289041656638, 5.061987441883603], [-74.13262863485409, 5.061917920759632], [-74.13250325376296, 5.061865761155471], [-74.13236444302241, 5.061818848693617], [-74.1321034632737, 5.061615771307852], [-74.13103676084177, 5.061982424854481], [-74.13062674902706, 5.062394071391396], [-74.1300995916766, 5.062805736787902], [-74.12974813911714, 5.063217379399799], [-74.12945528055846, 5.0633938110824435], [-74.12939675638563, 5.064217058400808], [-74.12939677756339, 5.064511071687451], [-74.12927961708903, 5.0646874908606545], [-74.12892816369374, 5.064687515900618], [-74.12886958605317, 5.064746317425237], [-74.12840101791873, 5.065334395953462], [-74.12793243898827, 5.0660400594523765], [-74.12734669526336, 5.066745748762362], [-74.1269366906419, 5.067333794418044], [-74.12629236981164, 5.06786306730127], [-74.12588234184848, 5.068157116227105], [-74.12512086956616, 5.068627590633896], [-74.12465224440783, 5.06868641756341], [-74.12430079104071, 5.068862849204765], [-74.12394932424165, 5.068980484468834], [-74.12312926249083, 5.0695097565245835], [-74.12271922859001, 5.069745006805653], [-74.12230918979458, 5.06974503014812], [-74.12166482840776, 5.069686253617345], [-74.12119620347538, 5.069745095467503], [-74.12090331925091, 5.069745112897678], [-74.12049326906379, 5.069686320692165], [-74.11996604446772, 5.06945114314466], [-74.11961458154201, 5.069333549316913], [-74.11891165919255, 5.069686408650882], [-74.11803298972677, 5.069804068279191], [-74.11674430403848, 5.070392172909853], [-74.11604138401383, 5.070627415172377], [-74.11522133120872, 5.071333087282954], [-74.11463555006556, 5.071627137994419], [-74.11410837596506, 5.072097586967713], [-74.11334686046146, 5.072509258471837], [-74.11311258104544, 5.072803263448112], [-74.11270252168352, 5.07297969317352], [-74.1127948395144, 5.073140942823607], [-74.1122753682171, 5.0729041395579655], [-74.11196949836355, 5.072699646116064], [-74.11161265698662, 5.072495146070371], [-74.11130680122494, 5.072188412768153], [-74.11110287084706, 5.071932777566202], [-74.11084799610629, 5.071677161967028], [-74.11033823280607, 5.071677181984579], [-74.10983707030542, 5.07138468092162], [-74.10942387809908, 5.071249151822102], [-74.10931480952033, 5.0711729331209865], [-74.10918971354566, 5.0710938852748635], [-74.1091339715312, 5.0710423417894885], [-74.1090621390706, 5.0709933323535585], [-74.10896088049267, 5.070941357513783], [-74.1089131634603, 5.070889886195215], [-74.10882814655511, 5.070819272414812], [-74.10861778185932, 5.07066790088485], [-74.10817428090985, 5.070308297510373], [-74.10804137714211, 5.070205004503966], [-74.10799618551003, 5.070169666847013], [-74.1078096043807, 5.070079298428497], [-74.1077428784582, 5.070057181386692], [-74.10762830966185, 5.0699970229588835], [-74.1074087159629, 5.070000313692405], [-74.10728277869268, 5.070009858463409], [-74.10712465419452, 5.070024469421172], [-74.10701493789003, 5.07001805186297], [-74.10687298306439, 5.070022081745738], [-74.1068058970325, 5.070037546567979], [-74.1067512025425, 5.07005467591539], [-74.10661894139687, 5.070038259326263], [-74.10647290998058, 5.070038264065408], [-74.10593746053462, 5.070184869259824], [-74.10552370067616, 5.070307052932675], [-74.10508562068146, 5.070453662907547], [-74.10462316898997, 5.070502546407779], [-74.10352792085196, 5.0705025811215], [-74.10316284439105, 5.070478149687224], [-74.10204326314751, 5.070478180872306], [-74.10167818761707, 5.0704293409758305], [-74.10119139307272, 5.070380486528675], [-74.10047167961807, 5.070437231465384], [-74.0988679833562, 5.070370081957134], [-74.09742524447303, 5.070370112338415], [-74.09696357891764, 5.070485864486778], [-74.09667503783244, 5.070775209259492], [-74.09627107715625, 5.071238162217056], [-74.09609795880026, 5.071469638106953], [-74.09569399626068, 5.071874707078464], [-74.09557857888527, 5.072279788955201], [-74.0954054600602, 5.0725112738143645], [-74.09523233197437, 5.0726848748602835], [-74.09505920701017, 5.072569136447137], [-74.09477065554397, 5.072279803649314], [-74.0944821015898, 5.071874727453972], [-74.09442437082568, 5.071527534038969], [-74.09448208176254, 5.0706595155477086], [-74.09419351868925, 5.069560023060614], [-74.09407808462095, 5.068865606047979], [-74.09413577273233, 5.068229061324042], [-74.09419348952854, 5.067708239892649], [-74.09407806174366, 5.067418902860212], [-74.09373178364743, 5.066898105885628], [-74.0936270649981, 5.06669103396402]]]], "type": "MultiPolygon"}}]}