{"type": "FeatureCollection", "features": [{"type": "Feature", "properties": {"NOMBRE": "Lagunas", "AREA_ha": 1.5043742330043672, "FUENTE": "Base Cartogr\u00e1fica IGAC escala 1:25.000. Ajustado a partir de la suporsici\u00f3n con los humedales CAR", "Categor\u00eda": "\u00c1reas de protecci\u00f3n", "Subcategor\u00eda": "\u00c1reas de importancia ambiental", "Area": 15061.053931212111, "Per\u00edmetro": 1758.1051566266292, "SHAPE_Length": 1757.097011957065, "SHAPE_Area": 15043.742330043671}, "geometry": {"coordinates": [[[[-74.27626023494686, 5.0510959418377634], [-74.2762696313544, 5.051064993652547], [-74.27646861467252, 5.051075811803321], [-74.27647548375901, 5.0512159754122825], [-74.27644429266633, 5.051282549565065], [-74.27636536364764, 5.051295505051507], [-74.27628785042603, 5.051253624115651], [-74.2762594124221, 5.051207757805997], [-74.27626023494686, 5.0510959418377634]]], [[[-74.26813345594348, 5.052693237943314], [-74.26816784324055, 5.052668061516162], [-74.26819757670084, 5.052672701123035], [-74.26823059018244, 5.0527015559004305], [-74.26825074326354, 5.052755039232432], [-74.26826105041582, 5.05284655079204], [-74.26821996130819, 5.0529285827883665], [-74.26818340725036, 5.05297539911486], [-74.26811633494607, 5.052985212553555], [-74.26807236225628, 5.052948538172704], [-74.26806007916755, 5.052886769544601], [-74.26806625174846, 5.0528083110242425], [-74.26810247730712, 5.052748002013955], [-74.26813345594348, 5.052693237943314]]], [[[-74.29535666477908, 5.053291538265105], [-74.29563601293309, 5.053048063067908], [-74.29579977809733, 5.053182703076305], [-74.29555752589908, 5.053442099183359], [-74.29535666477908, 5.053291538265105]]], [[[-74.29449030386861, 5.05425995548167], [-74.2945063593365, 5.054217729262536], [-74.29457403277263, 5.0542257725955295], [-74.29466197552858, 5.054252564405402], [-74.29477280421395, 5.054304442967251], [-74.29477934250944, 5.054357296119723], [-74.29475174474285, 5.05443123127479], [-74.29468473808585, 5.054419100585278], [-74.29447899084761, 5.054329905982116], [-74.29447021995294, 5.054311416833026], [-74.29449030386861, 5.05425995548167]]], [[[-74.21377707691231, 5.076367381108926], [-74.21383971030585, 5.076331855901288], [-74.21392960281223, 5.076369211640551], [-74.21400967760005, 5.076419030733908], [-74.21411334546282, 5.076520588357545], [-74.21403825851506, 5.076641400108295], [-74.21387068087901, 5.0765572818156075], [-74.2137484910458, 5.076465674899887], [-74.21377707691231, 5.076367381108926]]], [[[-74.21142742917631, 5.07665976796816], [-74.21147774941527, 5.076649937663767], [-74.21150813206025, 5.076650672371296], [-74.21151770657193, 5.076680467381619], [-74.21151052694005, 5.076716450239196], [-74.2115026679601, 5.076739927923311], [-74.21145291729523, 5.076798698979942], [-74.21141894889236, 5.07681595976447], [-74.21135978796215, 5.076766615918116], [-74.21134790167976, 5.076723791281353], [-74.21137401055331, 5.076683779023036], [-74.21142742917631, 5.07665976796816]]], [[[-74.21086283943978, 5.082511441675347], [-74.2108940072929, 5.08249133048918], [-74.21096126928653, 5.082508289942919], [-74.21100591329888, 5.082563723268137], [-74.21097460877066, 5.082731937777592], [-74.21091643698438, 5.082757903205876], [-74.21087582923964, 5.082726640949328], [-74.21084786997392, 5.082583324408706], [-74.21086259158906, 5.08251160138938], [-74.21086283943978, 5.082511441675347]]], [[[-74.21097353332087, 5.08346684067416], [-74.21102336781115, 5.083461414055896], [-74.21112605507152, 5.083525850793684], [-74.2110644170521, 5.083668597261174], [-74.21101353713938, 5.083676185659715], [-74.21096583024126, 5.083633703394679], [-74.21095871141902, 5.083575685107847], [-74.21097353332087, 5.08346684067416]]], [[[-74.19577705634693, 5.085269718428363], [-74.19584998971206, 5.08517795492418], [-74.19592407729546, 5.085186495659381], [-74.19599948605473, 5.085219054370465], [-74.1960639000212, 5.085292499068908], [-74.19613650760611, 5.085444217778988], [-74.1961459950806, 5.085544420588642], [-74.19611433280072, 5.085600175958613], [-74.19601782428303, 5.085635787168475], [-74.19593035550436, 5.085640984841272], [-74.1958311599092, 5.085624382552659], [-74.1957521903737, 5.08555320156996], [-74.19573907755867, 5.085501097918118], [-74.19575057756998, 5.085413189846169], [-74.19577705634693, 5.085269718428363]]], [[[-74.20723299148982, 5.086379572303227], [-74.20728580169953, 5.086370916454997], [-74.20737724947712, 5.0863768119614035], [-74.20746658802156, 5.0864304281511385], [-74.20750835366472, 5.086482995204538], [-74.20751566481992, 5.086560076039681], [-74.20750411631259, 5.086623976371661], [-74.20748793499561, 5.086656859005948], [-74.20746254338312, 5.086679661979578], [-74.20742945578161, 5.086683258218997], [-74.20737855307, 5.086671531181922], [-74.20733000888555, 5.086633515517556], [-74.20727439098297, 5.0865843240594275], [-74.20718144771384, 5.086496453472064], [-74.20718230975217, 5.0864326735934835], [-74.20723299148982, 5.086379572303227]]], [[[-74.21065241972572, 5.087696406839682], [-74.21068141604827, 5.087618974696629], [-74.21076266407421, 5.087626590810278], [-74.21096331476589, 5.087708839300654], [-74.21092839212768, 5.087827029428538], [-74.21090100999955, 5.087859480756334], [-74.21082154177078, 5.087912877982422], [-74.21075046660312, 5.087953324094344], [-74.21069050013925, 5.087939039268971], [-74.21065553059725, 5.087870916705558], [-74.21064809987212, 5.087783192805711], [-74.21065241972572, 5.087696406839682]]], [[[-74.20781383571418, 5.088061427227445], [-74.20778695452702, 5.087985652568992], [-74.2077707986534, 5.087920392652392], [-74.20777263290293, 5.087849594969992], [-74.20779495444124, 5.08780730603902], [-74.20784890893302, 5.087792835392227], [-74.20792845944405, 5.087788713163556], [-74.20798221207872, 5.087802457068746], [-74.20800847788614, 5.08782502295777], [-74.20801310259911, 5.087857965216201], [-74.20800302839453, 5.08790384233392], [-74.20799994664758, 5.0880039124616205], [-74.20799011185946, 5.088024785258562], [-74.20797906574236, 5.088032890563262], [-74.20795894680147, 5.0880373890654464], [-74.20793397365205, 5.088033948705872], [-74.20792065237852, 5.08802932108557], [-74.20789303832575, 5.088027508928249], [-74.207861423266, 5.088047039088386], [-74.207826670356, 5.088069789061304], [-74.20781383571418, 5.088061427227445]]], [[[-74.2074992236093, 5.089477319290242], [-74.20743889236363, 5.08944557268568], [-74.20739504809274, 5.089462573263937], [-74.20733430436918, 5.089440937008029], [-74.20723789170901, 5.089409604568466], [-74.20708351375303, 5.089367775326165], [-74.20701798151335, 5.089299369563932], [-74.20702490797441, 5.08916519756482], [-74.20707049544205, 5.089115181278636], [-74.20713852307266, 5.089078733280934], [-74.20720835852866, 5.089060886859708], [-74.20725044077143, 5.089029535490246], [-74.20728271610851, 5.088975949285296], [-74.20733977134196, 5.088908766907006], [-74.20752627712226, 5.088793775312236], [-74.20763124083456, 5.088785099429611], [-74.20768565416289, 5.088810011235516], [-74.20778360863848, 5.088882823239791], [-74.20778772831177, 5.0889173661734795], [-74.2077743892098, 5.088956895750416], [-74.2077392970618, 5.088996149429777], [-74.20770347103434, 5.08901785092139], [-74.20768249921092, 5.0890856768574615], [-74.2076931598303, 5.089135040288223], [-74.20770751814769, 5.089274280978927], [-74.20767520574526, 5.089369908052521], [-74.20757053604515, 5.089495643966021], [-74.20751801280952, 5.089495727066035], [-74.2074992236093, 5.089477319290242]]], [[[-74.24348609275118, 5.100801766296286], [-74.24352903243009, 5.100774671894325], [-74.24359644095414, 5.100790741172713], [-74.24359433495748, 5.100806287178285], [-74.24357142424358, 5.100899878064449], [-74.24349169077878, 5.101072591494494], [-74.2434082253262, 5.101291859219872], [-74.2433099482279, 5.101532218693968], [-74.24326801866653, 5.10159281718138], [-74.24320957562159, 5.10161778179679], [-74.24316765000206, 5.101593223117137], [-74.24312659502547, 5.101511846975064], [-74.24314015720815, 5.101364335696546], [-74.24318262896412, 5.101236610982861], [-74.24326640729268, 5.1011128282319405], [-74.24337332656036, 5.100988351046526], [-74.24341946895733, 5.100896644262724], [-74.24345881962645, 5.10083611862968], [-74.24348609275118, 5.100801766296286]]], [[[-74.21610786795154, 5.101962305980291], [-74.21617154409637, 5.1019399015458164], [-74.21627287315177, 5.102045926501388], [-74.2162220932034, 5.102151350881885], [-74.21612539335237, 5.102182389197396], [-74.21600643474737, 5.102081830125065], [-74.21607432762511, 5.102001839513147], [-74.21610786795154, 5.101962305980291]]]], "type": "MultiPolygon"}}]}