{"type": "FeatureCollection", "features": [{"type": "Feature", "properties": {"Nombre": "Rondas h\u00eddricas", "Area_ha": 1.6806753544281874, "Perimetro": 2996.6371679865642, "Shape_Length": 1358.5046178185419, "Shape_Area": 16806.753544281873}, "geometry": {"coordinates": [[[[-74.27142900384544, 5.033594064783186], [-74.27174193560559, 5.033363459126923], [-74.27178122155561, 5.033406278179735], [-74.27177917729509, 5.033408283596065], [-74.27171000554203, 5.033474699114211], [-74.27170134566528, 5.033482660195503], [-74.27168766384914, 5.033493926376527], [-74.27167327737325, 5.033504271034963], [-74.27166475073992, 5.0335097590301165], [-74.27165699779626, 5.033514546101642], [-74.27165049365975, 5.03351843678904], [-74.27164254332553, 5.033522865944121], [-74.27163359758141, 5.033527654440292], [-74.27162593863989, 5.033531598051886], [-74.2716183890914, 5.033535189481522], [-74.27160576428824, 5.033542973725989], [-74.2715901550148, 5.033551348301551], [-74.27157403212708, 5.033558679737649], [-74.27155746504, 5.033564937135372], [-74.2715405267899, 5.033570095922335], [-74.27153906946965, 5.033570482404755], [-74.27153778369102, 5.033570925554715], [-74.27152084453648, 5.033576083438225], [-74.27151644547764, 5.033577227556608], [-74.27150894944971, 5.033579108803645], [-74.27149308673913, 5.033583355257626], [-74.27147616869868, 5.033587306092096], [-74.27146613624168, 5.033589113574149], [-74.27145122544624, 5.033591511465961], [-74.27144379284192, 5.0335925999813], [-74.27142900384544, 5.033594064783186]]], [[[-74.27117997759993, 5.033716200863923], [-74.27122139024948, 5.033696773513054], [-74.27123520586369, 5.033700970157178], [-74.2712517755889, 5.033707219849719], [-74.27126790257606, 5.033714541692726], [-74.27128351819316, 5.033722905056933], [-74.27129855470338, 5.033732275692135], [-74.27131294706086, 5.033742611199613], [-74.27132663473111, 5.033753869171913], [-74.27133459247057, 5.033761149962195], [-74.27135368465233, 5.033779327264434], [-74.27135865115564, 5.033784179071222], [-74.27137075682731, 5.0337971321125305], [-74.2713819914905, 5.033810851412703], [-74.27139230811478, 5.033825279156249], [-74.2713941931135, 5.033828145509439], [-74.27140129721705, 5.033839097845325], [-74.27141928601284, 5.033862896124173], [-74.2714285886041, 5.033875991263006], [-74.27143142747238, 5.03388033782003], [-74.27166669223445, 5.034248254240205], [-74.27159104946735, 5.034285026598408], [-74.27161289796469, 5.034340286363285], [-74.27156991206711, 5.034365459601487], [-74.27115712398913, 5.034593080829692], [-74.27115146780163, 5.034582477633281], [-74.27114415686495, 5.034566308606858], [-74.27114107852864, 5.034558522456318], [-74.27113773466175, 5.034549671871378], [-74.27113457310088, 5.034540845360058], [-74.27112942873966, 5.034523858684846], [-74.27112540441607, 5.034506570332728], [-74.2711225156162, 5.034489056276929], [-74.2711210338151, 5.034474977724352], [-74.27112031689946, 5.034465885856047], [-74.2711200563939, 5.034462297916796], [-74.27111947245749, 5.034444554969212], [-74.27111946967736, 5.034435223743296], [-74.27112004425865, 5.0344174803431345], [-74.27112165268849, 5.034401050507521], [-74.27100662455578, 5.0342211641446974], [-74.27100203238649, 5.034219975151368], [-74.27098509034394, 5.034214827327193], [-74.27096851970498, 5.034208578537127], [-74.27095239270572, 5.034201256689044], [-74.27093677797842, 5.0341928924122525], [-74.2709217414608, 5.034183522675003], [-74.2709073490941, 5.034173186255089], [-74.270893660516, 5.034161928276282], [-74.27088674320397, 5.0341556334943425], [-74.27083901140861, 5.034110665678707], [-74.27083300447887, 5.034104829663471], [-74.2708208988081, 5.034091876611025], [-74.2708096641479, 5.0340781572995255], [-74.27080212775901, 5.034067617484568], [-74.27117997759993, 5.033716200863923]]], [[[-74.26977670687505, 5.0346375986100025], [-74.26979440022744, 5.034637013071004], [-74.269812094027, 5.034637588393234], [-74.26982971248134, 5.034639323819735], [-74.26984717888007, 5.034642210452069], [-74.26986442101884, 5.034646236668652], [-74.26988136307193, 5.034651384521359], [-74.26989793371973, 5.034657633338815], [-74.26991406072631, 5.034664955213069], [-74.26992967545775, 5.034673318609924], [-74.2699447119817, 5.03468268927552], [-74.26995275161468, 5.034688463426428], [-74.26995910435177, 5.034693025717566], [-74.26997279293217, 5.034704283717123], [-74.26998571717778, 5.034716415437752], [-74.26999782285058, 5.0347293685067545], [-74.27000905661136, 5.034743088740039], [-74.27001937322898, 5.034757515604092], [-74.27002872566777, 5.034772588568924], [-74.2700370759042, 5.034788241658153], [-74.27004438681875, 5.034804409798403], [-74.27005062669674, 5.034821023381774], [-74.27005577103462, 5.03483800916706], [-74.27005979623814, 5.0348552975304965], [-74.27006268411256, 5.03487281159937], [-74.27006442549467, 5.034890479007335], [-74.27006497912656, 5.03490424179277], [-74.2700655375255, 5.034906975923163], [-74.27006842630468, 5.034924490894925], [-74.27006859013562, 5.0349261536034655], [-74.26986421079924, 5.034949952379642], [-74.26955755918121, 5.035197776303611], [-74.2695561558359, 5.035192965487172], [-74.26955213064059, 5.0351756771179375], [-74.26954924277588, 5.035158163043838], [-74.26954894409721, 5.035155823804991], [-74.26954830736568, 5.0351527089042625], [-74.26954678894411, 5.0351443903897], [-74.26954559304532, 5.035137214012633], [-74.26954453978169, 5.035131937444361], [-74.26954448238932, 5.0351316543528535], [-74.26954159452531, 5.035114140278613], [-74.26953990887054, 5.035097287080262], [-74.26953880186068, 5.0350917464142135], [-74.26953874446305, 5.035091460608307], [-74.26953585659963, 5.0350739465339185], [-74.2695341152297, 5.035056279121151], [-74.26953353133136, 5.035038536161698], [-74.26953352928895, 5.03503050513124], [-74.26953219572832, 5.035016084262187], [-74.2695317388475, 5.035006610052705], [-74.26953114221995, 5.035003703178437], [-74.2695292306874, 5.034994133182543], [-74.26952917238226, 5.0349938446639975], [-74.26952628452018, 5.034976330589342], [-74.26952454315318, 5.034958664081166], [-74.26952395925409, 5.034940920216766], [-74.26952395774123, 5.03493455764259], [-74.2695239493803, 5.034908381698083], [-74.26952452310015, 5.034890638290272], [-74.26952625458419, 5.034872970437515], [-74.26952913225028, 5.034855454165867], [-74.26953314721948, 5.034838163686539], [-74.26953828159193, 5.034821174133107], [-74.2695445120489, 5.0348045579353435], [-74.26955181346185, 5.0347883848120665], [-74.26956015348757, 5.034772726305818], [-74.26956949796785, 5.034757648533842], [-74.26957980552278, 5.0347432158178576], [-74.26959103205859, 5.034729488865618], [-74.26960312987251, 5.034716528391978], [-74.26961604673811, 5.034704388786945], [-74.26962972862094, 5.03469312263445], [-74.26964411516188, 5.034682778006748], [-74.26965914599309, 5.034673398452103], [-74.26967475532953, 5.034665025719707], [-74.26969087917678, 5.034657694316863], [-74.26970744541467, 5.0346514360523225], [-74.26972438461932, 5.034646277300716], [-74.26974162375082, 5.0346422408245814], [-74.2697590897604, 5.034639344862399], [-74.26977670687505, 5.0346375986100025]]], [[[-74.26845335140948, 5.035830713058061], [-74.26865087674179, 5.035428567175401], [-74.26875320753956, 5.035346269442056], [-74.26875877822857, 5.035350946370272], [-74.26876449152495, 5.035356113423969], [-74.26877117409815, 5.035362331779485], [-74.26877838504686, 5.035369296472647], [-74.26879048981448, 5.035382249568604], [-74.26880172447034, 5.035395968919473], [-74.26881204108182, 5.035410396711313], [-74.26881441567801, 5.035414021249278], [-74.26882581439087, 5.035426262735391], [-74.26882785811341, 5.035428625717324], [-74.26891007979809, 5.0354793877647985], [-74.268915934933, 5.035482785649093], [-74.26891957526993, 5.035484935603343], [-74.26892911983646, 5.035490675164333], [-74.26893070519328, 5.035491636593966], [-74.26893093989794, 5.035491694948599], [-74.2689353452152, 5.035492837269726], [-74.26893565666383, 5.035492921714038], [-74.26894806401883, 5.035496267011805], [-74.26896469464927, 5.035501332249798], [-74.26897820598803, 5.035506332089697], [-74.26898571333605, 5.035509340400705], [-74.26899362041333, 5.03551235969465], [-74.26900083245197, 5.035515231051101], [-74.26901695947763, 5.035522552944596], [-74.26902867752433, 5.035528705380288], [-74.26903726833584, 5.035533487707258], [-74.26904116503955, 5.035535699592193], [-74.26905620157886, 5.035545070276288], [-74.26907059396048, 5.035555405831672], [-74.26908428164977, 5.035566663850697], [-74.26909720590439, 5.035578795588522], [-74.26910007177463, 5.035581713420199], [-74.2691078235297, 5.035587456473734], [-74.26912151212251, 5.035598714489875], [-74.26913443637842, 5.035610846226613], [-74.26914111808101, 5.035617543219471], [-74.26914783863714, 5.035624734159167], [-74.26914913836733, 5.035624037640355], [-74.2691652613424, 5.035616706245044], [-74.26918163015701, 5.035610522565586], [-74.26911170109393, 5.035693330824291], [-74.2688378815062, 5.036129972801054], [-74.26883741689073, 5.036129536686837], [-74.2688253112026, 5.036116583597528], [-74.26881407652841, 5.036102863345815], [-74.26881380153935, 5.036102503770159], [-74.2688075952535, 5.036094369924242], [-74.26879755452235, 5.036080303518834], [-74.26879098844722, 5.036069955414995], [-74.26878132311776, 5.036056382299983], [-74.26877197067742, 5.036041309315175], [-74.26876362134419, 5.036025655300128], [-74.26875691144272, 5.036010930036327], [-74.26875464529272, 5.036005534586626], [-74.26875299312545, 5.036005017545644], [-74.26874392510506, 5.036002148901164], [-74.26873843216408, 5.036000346383709], [-74.26872186238673, 5.0359940984458085], [-74.26872040222287, 5.035993487835628], [-74.26871358536545, 5.035990611182689], [-74.2687063082702, 5.035987694710749], [-74.26870324894169, 5.035986447521972], [-74.26868712190485, 5.035979125622805], [-74.26867150714469, 5.03597076129552], [-74.26865647059907, 5.035961391508549], [-74.26864207730713, 5.035951055041674], [-74.26864068119494, 5.035949973808531], [-74.2686404670319, 5.03594980683735], [-74.26863590360192, 5.035947159229867], [-74.2686295541378, 5.035943358764989], [-74.26853588867085, 5.035885529861792], [-74.26852806305685, 5.035881715081688], [-74.26852675893032, 5.035881075213111], [-74.26851114417565, 5.035872711785625], [-74.26849898054652, 5.035865238291355], [-74.26848943414765, 5.035859020991751], [-74.2684865621357, 5.035857123787555], [-74.26847216884822, 5.03584678731565], [-74.26845848115914, 5.03583552928266], [-74.26845335140948, 5.035830713058061]]], [[[-74.26831895897223, 5.036104324337285], [-74.26833209121348, 5.036077588031884], [-74.26835881953497, 5.036120052665071], [-74.26836089875272, 5.036123504058002], [-74.26836429411546, 5.036129140701047], [-74.26836884761242, 5.036137370063867], [-74.26843110007978, 5.036254635243546], [-74.2684348968119, 5.036262058995631], [-74.268442207717, 5.036278227159017], [-74.26844844848215, 5.036294839857196], [-74.26845311206988, 5.036310056803045], [-74.26845359550964, 5.036311825656707], [-74.26846801272256, 5.036364288834094], [-74.26846849255512, 5.03636605859954], [-74.26847251683466, 5.036383346077192], [-74.26847540558943, 5.036400861064386], [-74.26847558420388, 5.036402238732201], [-74.26847793917479, 5.036420872192393], [-74.26850715461066, 5.036485425460629], [-74.26810679589008, 5.036724937376284], [-74.26803242168383, 5.036836469097222], [-74.26802799164592, 5.036828162583462], [-74.26802068074032, 5.03681199441464], [-74.26801443997677, 5.036795381711134], [-74.26800929565792, 5.0367783949964], [-74.2680052704808, 5.036761106610552], [-74.26800238263812, 5.036743592521722], [-74.26800064219682, 5.036725925999434], [-74.26800005742459, 5.036708183031136], [-74.26800004910571, 5.036677816021258], [-74.26796834811316, 5.036607770880289], [-74.26796478893527, 5.036599546815241], [-74.2679585481764, 5.036582934110207], [-74.26795340386192, 5.036565947394135], [-74.26794937959119, 5.03654865900537], [-74.26794649085005, 5.036531144917341], [-74.2679463122348, 5.036529766344316], [-74.26794124953284, 5.036489706970631], [-74.2679394367095, 5.036483110863673], [-74.26789594250559, 5.03640117876049], [-74.26786476852341, 5.036351649913809], [-74.26831895897223, 5.036104324337285]]], [[[-74.2673886101149, 5.037075138596576], [-74.26738347388358, 5.037092132677974], [-74.26738404698203, 5.037094540149963], [-74.26738634029918, 5.03710418089373], [-74.26738849094349, 5.037114229077201], [-74.26738930249762, 5.037118165203485], [-74.26739219213329, 5.037135679295051], [-74.26739254125955, 5.037138445505689], [-74.26739456953285, 5.037155189477242], [-74.26739624022156, 5.037164800670387], [-74.26739724565631, 5.037171009286663], [-74.26740143892144, 5.037179123544037], [-74.26740384189436, 5.037183888085092], [-74.26741115279466, 5.037200057168268], [-74.26741739355079, 5.037216669880253], [-74.26742099508314, 5.037228127636093], [-74.26743340417585, 5.037239804388232], [-74.2674455098693, 5.03725275750472], [-74.26745674454652, 5.03726647778186], [-74.26746706026952, 5.037280904691241], [-74.26747641270764, 5.037295976792572], [-74.26748000722898, 5.037302417423205], [-74.26748931691785, 5.037319641231358], [-74.26749274202218, 5.037326190768367], [-74.26750176099927, 5.037336801930211], [-74.26751045094966, 5.0373475702639405], [-74.2675143218433, 5.037352755392662], [-74.26751926524246, 5.037358249684441], [-74.26753049992327, 5.037371969959416], [-74.26754081564985, 5.037386396866734], [-74.26754529085805, 5.03739333523269], [-74.26755603246568, 5.03741055896371], [-74.26756091060349, 5.037418693600073], [-74.26756925993622, 5.037434346727866], [-74.26757384627363, 5.037444155819889], [-74.26757957641033, 5.037457075208908], [-74.26758230097956, 5.037463434291472], [-74.26758243424156, 5.03746375795165], [-74.26761273197904, 5.037494096713238], [-74.26761281334332, 5.03749417889186], [-74.2676249181432, 5.037507132004583], [-74.26763615282911, 5.037520852276466], [-74.26764646856078, 5.037535279180881], [-74.2676558210075, 5.037550351277556], [-74.26765893796883, 5.037556192951881], [-74.26766317402914, 5.037558916300877], [-74.26766646627242, 5.037561156514006], [-74.267707988794, 5.03758985560755], [-74.26770838181312, 5.037590128092483], [-74.26772699648019, 5.037603042277834], [-74.26773770454453, 5.037610866966178], [-74.26774496683024, 5.037616840806607], [-74.26765595711949, 5.037575428557904], [-74.26754627736813, 5.037538800453777], [-74.26749315384392, 5.037521063029086], [-74.26740620563095, 5.037415257249677], [-74.26732554992155, 5.037389561401855], [-74.26719871779827, 5.037349154698104], [-74.2670416383111, 5.03726293420687], [-74.2670460378203, 5.036916753000688], [-74.2671023277196, 5.03686431132189], [-74.26709759912096, 5.036817841646616], [-74.2670808453406, 5.036653213489747], [-74.26708375122686, 5.036653499178096], [-74.26710121859027, 5.036656385871697], [-74.26711846078662, 5.03666041215169], [-74.26713540289396, 5.036665560972658], [-74.26715197268493, 5.036671808950372], [-74.26716810063544, 5.036679130885717], [-74.26718371540463, 5.036687495249494], [-74.2671987510547, 5.03669686507319], [-74.26721314435123, 5.036707201573368], [-74.26722683204744, 5.036718459633071], [-74.267239756305, 5.036730591410331], [-74.26724396113997, 5.036734899136681], [-74.26732272106406, 5.036817422213133], [-74.2673306219115, 5.036826068513741], [-74.2673418565755, 5.036839787890698], [-74.26735217228733, 5.036854214804404], [-74.26736152471639, 5.036869287814586], [-74.26736987403645, 5.036884941852967], [-74.26737718492905, 5.036901110032926], [-74.26738342658192, 5.0369177227445645], [-74.26738470335175, 5.036921939358828], [-74.26738856998374, 5.036934708564963], [-74.26739259514773, 5.036951996958382], [-74.26739548387935, 5.036969511051939], [-74.26739722340648, 5.0369871784862355], [-74.26739780906694, 5.0370049214572346], [-74.26739723439921, 5.03702266487884], [-74.26739550466792, 5.03704033183244], [-74.26739262514286, 5.037057848113875], [-74.2673886101149, 5.037075138596576]]]], "type": "MultiPolygon"}}, {"type": "Feature", "properties": {"Nombre": "Espacio p\u00fablico efectivo natural proyectado", "Area_ha": 0.1979749952247107, "Perimetro": 609.1084500842669, "Shape_Length": 360.8199152764732, "Shape_Area": 1979.749952247107}, "geometry": {"coordinates": [[[[-74.2692177663741, 5.034972657052662], [-74.2696822014039, 5.0345536452914725], [-74.26993897400135, 5.034486202546776], [-74.2699433463429, 5.034491744984728], [-74.269949692298, 5.034499788972463], [-74.27008460900427, 5.034670804992661], [-74.27006404980436, 5.034670808009228], [-74.26995275161468, 5.034688463426428], [-74.2699447119817, 5.03468268927552], [-74.26992967545775, 5.034673318609924], [-74.26991406072631, 5.034664955213069], [-74.26989793371973, 5.034657633338815], [-74.26988136307193, 5.034651384521359], [-74.26986442101884, 5.034646236668652], [-74.26984717888007, 5.034642210452069], [-74.26982971248134, 5.034639323819735], [-74.269812094027, 5.034637588393234], [-74.26979440022744, 5.034637013071004], [-74.26977670687505, 5.0346375986100025], [-74.2697590897604, 5.034639344862399], [-74.26974162375082, 5.0346422408245814], [-74.26972438461932, 5.034646277300716], [-74.26970744541467, 5.0346514360523225], [-74.26969087917678, 5.034657694316863], [-74.26967475532953, 5.034665025719707], [-74.26965914599309, 5.034673398452103], [-74.26964411516188, 5.034682778006748], [-74.26962972862094, 5.03469312263445], [-74.26961604673811, 5.034704388786945], [-74.26960312987251, 5.034716528391978], [-74.26959103205859, 5.034729488865618], [-74.26957980552278, 5.0347432158178576], [-74.26956949796785, 5.034757648533842], [-74.26956015348757, 5.034772726305818], [-74.26955181346185, 5.0347883848120665], [-74.2695445120489, 5.0348045579353435], [-74.26953828159193, 5.034821174133107], [-74.26953314721948, 5.034838163686539], [-74.26952913225028, 5.034855454165867], [-74.26952625458419, 5.034872970437515], [-74.26952452310015, 5.034890638290272], [-74.2695239493803, 5.034908381698083], [-74.26952395774123, 5.03493455764259], [-74.26934002976321, 5.035071662903824], [-74.26920688052525, 5.03517185899679], [-74.26909667869039, 5.035070039189383], [-74.2692177663741, 5.034972657052662]]], [[[-74.26833209121348, 5.036077588031884], [-74.26843472883806, 5.035868627151875], [-74.26853288167558, 5.0358898688278435], [-74.26838311953276, 5.036098584979886], [-74.26836089875272, 5.036123504058002], [-74.26835881953497, 5.036120052665071], [-74.26833209121348, 5.036077588031884]]]], "type": "MultiPolygon"}}]}