{"type": "FeatureCollection", "features": [{"type": "Feature", "properties": {"codigo": "25777010000110008", "nombre": "MUNICIPIO-DE-SUPATA", "direccion": "K 4 4 24", "RuleID": 3, "Tipo": "Abastecimiento", "Equipamiento": "Plaza de mercado", "Shape_Length": 95.96737155546505, "Shape_Area": 519.7742454772274, "Perimetro": 95.96737155546505, "Area_m2": 519.7742454772274}, "geometry": {"coordinates": [[[[-74.23789912815631, 5.061504544309907], [-74.23782976431049, 5.061434471525191], [-74.23786180103694, 5.061410633594932], [-74.23792872811248, 5.061360842251071], [-74.23794926925721, 5.061345547827274], [-74.23796413560729, 5.061334475253668], [-74.23800745874635, 5.06130171871121], [-74.23801803859908, 5.061293721649284], [-74.23802758857458, 5.061286501076491], [-74.23806967562152, 5.0612552181211745], [-74.23812051600217, 5.061336834617401], [-74.2381326631415, 5.061356337265328], [-74.23814010926807, 5.061368290090207], [-74.23815290897764, 5.061388841978064], [-74.23810210215491, 5.061423109399953], [-74.23801922463814, 5.061479009792201], [-74.23793387881221, 5.061536575228753], [-74.23790095404944, 5.0615062292012745], [-74.23789912815631, 5.061504544309907]]]], "type": "MultiPolygon"}}, {"type": "Feature", "properties": {"codigo": "25777010000060011", "nombre": "MUNICIPIO-DE-SUPATA", "direccion": "C 5 6 37 45 51 57 63", "RuleID": 3, "Tipo": "Administrativos y de Seguridad", "Equipamiento": "Estaci\u00f3n de Policia", "Shape_Length": 88.98452230530941, "Shape_Area": 369.26638231349716, "Perimetro": 88.98452230530941, "Area_m2": 369.26638231349716}, "geometry": {"coordinates": [[[[-74.23665706779178, 5.062770576113183], [-74.23662459704047, 5.062710398346661], [-74.23661159726186, 5.062718473307623], [-74.23654377288649, 5.062760589844484], [-74.23650765743012, 5.0626936410699654], [-74.23659890393874, 5.062642772775127], [-74.23667279907582, 5.062601576598001], [-74.2367301928397, 5.062569578606382], [-74.23676055115189, 5.062633029495108], [-74.23676073867138, 5.062633418206822], [-74.23679395648057, 5.0627016319984515], [-74.23677644019152, 5.062711879905404], [-74.23675178091783, 5.062726302696735], [-74.23674001055156, 5.0627331872907355], [-74.23666163338481, 5.0627790382590625], [-74.23665706779178, 5.062770576113183]]]], "type": "MultiPolygon"}}, {"type": "Feature", "properties": {"codigo": "25777010000140001", "nombre": "MUNICIPIO-DE-SUPATA", "direccion": "C4 7 15 K 7 4 20", "RuleID": 3, "Tipo": "Administrativos y de Seguridad", "Equipamiento": "Alcaldia", "Shape_Length": 120.96050198198975, "Shape_Area": 912.6340039293283, "Perimetro": 120.96050198198975, "Area_m2": 912.6340039293283}, "geometry": {"coordinates": [[[[-74.23608607715025, 5.06213091347488], [-74.23610733108995, 5.062121735180554], [-74.23612001978549, 5.062146567102624], [-74.23613455879722, 5.06217501655736], [-74.23617397707001, 5.062252149079639], [-74.23622526167831, 5.062352496372927], [-74.2361286879636, 5.062398675179832], [-74.23606600000242, 5.062428648302717], [-74.23606372370347, 5.062429737520734], [-74.23605049231203, 5.062436063907412], [-74.23603584555205, 5.062443064368127], [-74.23596609518438, 5.0624764123512], [-74.23593310060177, 5.062404532664597], [-74.23591553822422, 5.062366270838084], [-74.23585985834865, 5.062244961926207], [-74.2358574436706, 5.062239701421912], [-74.23585342705887, 5.06223095048796], [-74.2358540797993, 5.0622306651303495], [-74.23591879759627, 5.062202863328495], [-74.23592278081526, 5.062201153769506], [-74.23592615726409, 5.062199704145629], [-74.23596278429332, 5.062183978227999], [-74.23598790795079, 5.062173189219017], [-74.23601556506492, 5.062161309595865], [-74.23603718875555, 5.062152023829433], [-74.23603859883468, 5.0621514158168655], [-74.23608607715025, 5.06213091347488]]]], "type": "MultiPolygon"}}, {"type": "Feature", "properties": {"codigo": "25777010000050014", "nombre": "MUNICIPIO-SUPATA", "direccion": "C 5 5 37", "RuleID": 3, "Tipo": "Bienestar Social", "Equipamiento": "Hogar infantil \"El rinc\u00f3n de los sue\u00f1os\" ", "Shape_Length": 90.73116030576507, "Shape_Area": 501.5065297425985, "Perimetro": 90.73116030576507, "Area_m2": 501.5065297425985}, "geometry": {"coordinates": [[[[-74.23726984819919, 5.062268607177841], [-74.23734723607893, 5.0622297576895], [-74.23737369490692, 5.062216472413802], [-74.23741842097564, 5.062194018131248], [-74.23744738625062, 5.062251833745212], [-74.23750870526409, 5.062374227398841], [-74.23752552522258, 5.062407800024797], [-74.23747673723202, 5.062446099938421], [-74.23743615253315, 5.062466032740785], [-74.23738517374272, 5.062491067745394], [-74.2373738703967, 5.062469260720397], [-74.23730430158146, 5.062335065950276], [-74.23729915119154, 5.062325132795864], [-74.23729392925719, 5.062315062246435], [-74.23726984819919, 5.062268607177841]]]], "type": "MultiPolygon"}}, {"type": "Feature", "properties": {"codigo": "25777010000210018", "nombre": "MUNICIPIO-DE-SUPATA", "direccion": "K  8 3 11 C. 3 7 45 ANCIANATO MUNI", "RuleID": 7, "Tipo": "Bienestar Social", "Equipamiento": "Ancianato Mar\u00eda Auxiliadora", "Shape_Length": 115.64480618959075, "Shape_Area": 753.4620596422885, "Perimetro": 115.64480618959075, "Area_m2": 753.4620596422885}, "geometry": {"coordinates": [[[[-74.23574038143273, 5.061500812005153], [-74.23575300487475, 5.061495081251649], [-74.2358120929174, 5.061599386756909], [-74.23584468752613, 5.061656915065621], [-74.23583170344679, 5.0616628003281585], [-74.23577883943506, 5.061686762075711], [-74.23552771075364, 5.061800594628095], [-74.23552222122287, 5.061788813563343], [-74.23549597771554, 5.061732519949009], [-74.23545794335362, 5.061650913124354], [-74.23549485403808, 5.06163346212049], [-74.23549919524375, 5.061621643296425], [-74.2355626681267, 5.061589731535222], [-74.23556073752675, 5.061586598228003], [-74.23555868381821, 5.0615832579532105], [-74.23556262988394, 5.0615814661299], [-74.23558587175138, 5.061570922316458], [-74.23562130702047, 5.061554840392087], [-74.2356870973555, 5.061524989890366], [-74.23574038143273, 5.061500812005153]]]], "type": "MultiPolygon"}}, {"type": "Feature", "properties": {"codigo": "25777010000410002", "nombre": "MUNICIPIO-DE-SUPATA", "direccion": "C 2 3 33", "RuleID": 3, "Tipo": "Educativos", "Equipamiento": "Colegio Pablo VI", "Shape_Length": 248.61207770091394, "Shape_Area": 3746.2161335170754, "Perimetro": 248.61207770091394, "Area_m2": 3746.2161335170754}, "geometry": {"coordinates": [[[[-74.23823699634838, 5.059201466727542], [-74.23831012036213, 5.05916071531197], [-74.23831138142837, 5.059161467515857], [-74.23844946625128, 5.059243759631477], [-74.23860246860555, 5.059335264045317], [-74.2386087639781, 5.059339006078997], [-74.23877115165688, 5.059435397489294], [-74.23887044214544, 5.059494364297628], [-74.23888276140768, 5.059532268697034], [-74.23881476499544, 5.05968957745893], [-74.23858296135494, 5.059805505668147], [-74.23846156338094, 5.059865794769966], [-74.23843649895447, 5.059831730324064], [-74.2384362194163, 5.0598313508369195], [-74.23831378044984, 5.059664938198524], [-74.23816841895037, 5.059466671946689], [-74.23809885500813, 5.059371897210879], [-74.23807619234213, 5.0593410230473985], [-74.23806666987915, 5.059328049934473], [-74.23809056152281, 5.059315259070957], [-74.23807797495824, 5.059290982550589], [-74.23819076720973, 5.059227228263266], [-74.23823699634838, 5.059201466727542]]]], "type": "MultiPolygon"}}, {"type": "Feature", "properties": {"codigo": "25777010000210001", "nombre": "MUNICIPIO-DE-SUPATA", "direccion": "K 8 3 11 C 3 7 45 K 7 3 20", "RuleID": 3, "Tipo": "Salud", "Equipamiento": "Puesto de salud", "Shape_Length": 124.52789377711922, "Shape_Area": 908.9730788627357, "Perimetro": 124.52789377711922, "Area_m2": 908.9730788627357}, "geometry": {"coordinates": [[[[-74.23542297532973, 5.061668344133438], [-74.23545794335362, 5.061650913124354], [-74.23549597771554, 5.061732519949009], [-74.23552222122287, 5.061788813563343], [-74.23552771075364, 5.061800594628095], [-74.23557212376656, 5.061906032032362], [-74.23554544303741, 5.061909867783662], [-74.23538528433036, 5.061929379875625], [-74.23531365385521, 5.061938175614505], [-74.23525379955166, 5.061945521082569], [-74.2352371501495, 5.061947563343346], [-74.23522656926463, 5.061948862031746], [-74.2352262584505, 5.06194816772725], [-74.23519719399623, 5.061883156162558], [-74.23516613505842, 5.061813675902173], [-74.23516445502543, 5.061809919603202], [-74.23515964054309, 5.061799145209326], [-74.2352094498178, 5.061774488100928], [-74.23529319426058, 5.061733032613329], [-74.23529331685587, 5.061732969042448], [-74.23530055746836, 5.061729361306409], [-74.23534706702537, 5.0617061780939085], [-74.23542297532973, 5.061668344133438]]]], "type": "MultiPolygon"}}, {"type": "Feature", "properties": {"codigo": "25777010000120001", "nombre": "PARROQUIA-DE-SUPATA", "direccion": "C 5 5 32 48 56 58 64 K 6 4 45 51 5", "RuleID": 4, "Tipo": "Bienestar Social", "Equipamiento": "Ludoteca", "Shape_Length": 215.03548001894242, "Shape_Area": 1547.8295812754727, "Perimetro": 215.03548001894242, "Area_m2": 1547.8295812754727}, "geometry": {"coordinates": [[[[-74.23694180773664, 5.062158888326713], [-74.23700655587902, 5.0621219296557545], [-74.23701333404057, 5.062132331112019], [-74.23701762440209, 5.062129860011914], [-74.23706877160011, 5.062100381177377], [-74.23720620185672, 5.062021181730577], [-74.23724897924409, 5.0619965315829765], [-74.23728578152931, 5.061975247900441], [-74.23742277227382, 5.061896037497482], [-74.23734916056623, 5.061776261410777], [-74.23738509127057, 5.061757392529826], [-74.237432699913, 5.061732397457356], [-74.23744219549575, 5.061727410074124], [-74.23744333489354, 5.061726811624464], [-74.23744337655498, 5.061726892978067], [-74.23745019493552, 5.061739940027334], [-74.23746327746285, 5.061764974743109], [-74.23747464566246, 5.061786730070921], [-74.23753653366595, 5.061905160466842], [-74.23757749834286, 5.061983560270378], [-74.23758389291353, 5.061995802842841], [-74.23759087974433, 5.0620091716807964], [-74.23741189719046, 5.062106196721906], [-74.23738254239602, 5.06212211058725], [-74.23737022123989, 5.06212878903889], [-74.2373337499358, 5.062148560151407], [-74.23733316583292, 5.062148877047637], [-74.23731746174589, 5.062157390591934], [-74.23729251926565, 5.062170910028464], [-74.23725914424438, 5.062189002220343], [-74.23723118840205, 5.062204156078177], [-74.237189005617, 5.062226898649279], [-74.23715563310859, 5.062244892207689], [-74.23714708964519, 5.062249498652735], [-74.23709575133468, 5.062277175471525], [-74.23707397081166, 5.062288915425149], [-74.23702790478299, 5.062313751003879], [-74.23700266537507, 5.062268359480447], [-74.23699867156782, 5.062261170222369], [-74.23696304973464, 5.062197098746442], [-74.23694180773664, 5.062158888326713]]]], "type": "MultiPolygon"}}]}