{"type": "FeatureCollection", "features": [{"type": "Feature", "properties": {"TIPO": "Educativos", "NOMBRE": "Escuela rural La Magola", "POINT_X": 4859066.6713, "POINT_Y": 2114340.9097000007}, "geometry": {"coordinates": [-74.27180828274497, 5.033585253181581], "type": "Point"}}, {"type": "Feature", "properties": {"TIPO": "Bienestar social", "NOMBRE": "Jardin infantil Los traviesos", "POINT_X": 4859049.0356, "POINT_Y": 2114392.0041000005}, "geometry": {"coordinates": [-74.27196830218256, 5.034047244007285], "type": "Point"}}, {"type": "Feature", "properties": {"TIPO": "Salud", "NOMBRE": "Puesto de salud La Magola ", "POINT_X": 4859084.5902, "POINT_Y": 2114374.0897000004}, "geometry": {"coordinates": [-74.27164718932165, 5.033885781352861], "type": "Point"}}, {"type": "Feature", "properties": {"TIPO": "Bienestar social", "NOMBRE": "Salon comunal", "POINT_X": 4859070.5594, "POINT_Y": 2114364.5932}, "geometry": {"coordinates": [-74.2717736179031, 5.033799609817213], "type": "Point"}}, {"type": "Feature", "properties": {"TIPO": "Educativos", "NOMBRE": "Escuela", "POINT_X": 4859409.0063, "POINT_Y": 2114609.7064999994}, "geometry": {"coordinates": [-74.26872421539488, 5.036023353397162], "type": "Point"}}, {"type": "Feature", "properties": {"TIPO": "Bienestar social", "NOMBRE": "Jand\u00edn infantil los Amiguitos", "POINT_X": 4859187.7356, "POINT_Y": 2114459.792300001}, "geometry": {"coordinates": [-74.27071804583537, 5.034663035180173], "type": "Point"}}, {"type": "Feature", "properties": {"TIPO": "Bienestar social", "NOMBRE": "Casa comunal", "POINT_X": 4859081.589, "POINT_Y": 2114329.3048}, "geometry": {"coordinates": [-74.27167348116323, 5.033480515043678], "type": "Point"}}, {"type": "Feature", "properties": {"TIPO": "Dotacional", "NOMBRE": "Ba\u00f1os p\u00fablicos", "POINT_X": 4859098.5757, "POINT_Y": 2114383.8506000005}, "geometry": {"coordinates": [-74.27152117407758, 5.033974344363091], "type": "Point"}}]}