{"type": "FeatureCollection", "features": [{"type": "Feature", "properties": {"Patrimonio": "Rana Dorada", "Area_ha": 23.047760676896544, "Perimetro": 1701.8422444425794, "Shape_Length": 1700.8747324038297, "Shape_Area": 230215.62423314922}, "geometry": {"coordinates": [[[[-74.24519093351853, 5.0270396147047105], [-74.2450205540105, 5.027033692069075], [-74.24485100151392, 5.02701586527944], [-74.24468310208596, 5.026986221184694], [-74.24451767372487, 5.026944904205267], [-74.24435552239025, 5.026892115635532], [-74.24419743807411, 5.026828112654936], [-74.24404419095589, 5.026753207082486], [-74.24389652764974, 5.026667763853327], [-74.24375516756125, 5.026572199239441], [-74.2436207993877, 5.026466978826289], [-74.24349407776214, 5.026352615241088], [-74.24337562006471, 5.026229665655318], [-74.24326600341014, 5.026098729073325], [-74.24316576184131, 5.025960443408016], [-74.24307538372251, 5.025815482379285], [-74.24299530936489, 5.025664552227557], [-74.24292592888155, 5.025508388274779], [-74.24286758028151, 5.0253477513393685], [-74.24282054782782, 5.025183424035234], [-74.24278506064934, 5.025016206951683], [-74.24276129163015, 5.024846914758368], [-74.24274935656302, 5.024676372232081], [-74.24274931358501, 5.0245054102431315], [-74.24276116289678, 5.024334861701267], [-74.24278484675722, 5.024165557506478], [-74.2428202497751, 5.02399832249065], [-74.2428671994588, 5.023833971406157], [-74.24292546706734, 5.0236733049560085], [-74.24299476871325, 5.023517105888216], [-74.24307476676452, 5.023366135187791], [-74.2431650714663, 5.023221128366461], [-74.24326524285942, 5.02308279188023], [-74.24337479291462, 5.022951799685659], [-74.24349318790982, 5.022828789960726], [-74.24361985103161, 5.022714361991391], [-74.24375416519425, 5.022609073254056], [-74.24389547602892, 5.022513436700481], [-74.2440430950844, 5.022427918256962], [-74.24419630318046, 5.022352934555121], [-74.24435435390413, 5.022288850904017], [-74.24451647725449, 5.022235979507921], [-74.24468188338918, 5.022194577945976], [-74.24484976647517, 5.022164847917547], [-74.24501930860684, 5.022146934261662], [-74.24518968380164, 5.0221409242494], [-74.24536006201882, 5.022146847156973], [-74.24552961320263, 5.0221646741262544], [-74.24569751132445, 5.022194318305652], [-74.24586293841342, 5.022235635270955], [-74.24602508853481, 5.02228842373022], [-74.24618317171588, 5.0223524265029456], [-74.24633641780152, 5.022427331777379], [-74.2464840801976, 5.022512774624175], [-74.24662543951628, 5.022608338775581], [-74.24675980707526, 5.022713558658351], [-74.24688652825132, 5.022827921654518], [-74.2470049856773, 5.022950870604058], [-74.2471146022416, 5.023081806515013], [-74.24721484390527, 5.023220091487533], [-74.2473052222979, 5.023365051815213], [-74.24738529710302, 5.02351598127128], [-74.24745467820522, 5.023672144548389], [-74.24751302757703, 5.023832780838074], [-74.24756006094253, 5.0239971075422], [-74.2475955491551, 5.024164324082064], [-74.2476193193084, 5.024333615798601], [-74.24763125559186, 5.0245041579242855], [-74.24763129984252, 5.02467511959769], [-74.24761945183721, 5.024845667911995], [-74.24759576928511, 5.025014971974858], [-74.24756036755845, 5.025182206956956], [-74.24751341912152, 5.025346558103357], [-74.24745515269322, 5.025507224714138], [-74.24738585213164, 5.025663424033875], [-74.24730585505621, 5.025814395075861], [-74.24721555119645, 5.025959402320645], [-74.24711538049505, 5.026097739303981], [-74.24700583097425, 5.026228732059623], [-74.24688743633934, 5.026351742398686], [-74.24676077339669, 5.026466171024333], [-74.246626459235, 5.026571460445242], [-74.2464851482166, 5.026667097697437], [-74.24633752879852, 5.026752616841017], [-74.24618432016797, 5.02682760122966], [-74.24602626874835, 5.026891685543074], [-74.24586414455416, 5.026944557563019], [-74.24569873744198, 5.02698595969821], [-74.24553085327247, 5.027015690237037], [-74.24536130996165, 5.027033604332687], [-74.24519093351853, 5.0270396147047105]]]], "type": "MultiPolygon"}}]}