{"type": "FeatureCollection", "features": [{"type": "Feature", "properties": {"departamento_id": "25", "municipio_id": "777", "tipo_avaluo": "01", "nombre_geografico": "SUPATA", "codigo_nombre": "Cabecera Municipal", "AREA": 435100.4315446417, "NOMBRE": "Urbano", "Area_ha": 43.460315191539436, "Perimetro": 435100.4315446417, "Shape_Length": 3841.4558495809515, "Shape_Area": 434603.15191539435}, "geometry": {"coordinates": [[[[-74.2374822107598, 5.064916703710488], [-74.23728958581836, 5.064760177368525], [-74.2371359951838, 5.064634757109052], [-74.23694731105601, 5.064765991853424], [-74.2368330092717, 5.064637570240439], [-74.23669745825765, 5.064484251629605], [-74.23654117528982, 5.064257235685491], [-74.23646698559409, 5.064148243303607], [-74.23654990073156, 5.064091952048093], [-74.23653339590504, 5.064064204891204], [-74.23639222112655, 5.0638022359981605], [-74.23631602879334, 5.063659745762822], [-74.23628911792666, 5.063605159972579], [-74.23614815046903, 5.06366364584384], [-74.23606005483377, 5.063709830211143], [-74.2357968030595, 5.063867048502685], [-74.23552610461097, 5.064012102133556], [-74.23532885443778, 5.064117681405252], [-74.23520691887674, 5.064182488016673], [-74.23493788941984, 5.064326111385998], [-74.23491566345116, 5.064333793144904], [-74.23491978966231, 5.064339431313351], [-74.23496831267477, 5.064405731287307], [-74.23459578151348, 5.0647295341368075], [-74.23445632599963, 5.064641579851916], [-74.23415577928805, 5.064602804512332], [-74.23410389409852, 5.06462967602077], [-74.23398618993176, 5.064689111547691], [-74.2339829773257, 5.0646870393142445], [-74.23398036969273, 5.064682806134446], [-74.23397552699667, 5.064676194839383], [-74.2339666046469, 5.064667082272178], [-74.23396038058078, 5.064661471621569], [-74.2339545415332, 5.064657143264017], [-74.23395108080295, 5.064653175916601], [-74.23394468085134, 5.064649028686573], [-74.23393793581016, 5.064643718522726], [-74.23393397193958, 5.064638512538359], [-74.23392774230547, 5.064632344532039], [-74.23392257964657, 5.0646287794528355], [-74.23391602441997, 5.064624116774083], [-74.2339109921292, 5.064618400701523], [-74.23390526277262, 5.064612913066509], [-74.2339000561825, 5.064607117702471], [-74.23389474345451, 5.06460149988443], [-74.23389240297946, 5.06459873018493], [-74.23389063687455, 5.064594791274457], [-74.23388847302292, 5.064589995357952], [-74.23388237165392, 5.06458532547964], [-74.23387869765887, 5.0645821430126565], [-74.23387271342068, 5.064577858361978], [-74.23386680885437, 5.064572286912733], [-74.23386278615214, 5.0645679369946155], [-74.2338590329222, 5.064562940524932], [-74.23385626393778, 5.064559745474488], [-74.23384999947892, 5.064557100882124], [-74.23384359501718, 5.064552953659296], [-74.2338343863586, 5.064547027488041], [-74.23382711117301, 5.064541464080341], [-74.23382392985401, 5.064536856495149], [-74.23382081150072, 5.06453404846646], [-74.23381648103276, 5.064529660227647], [-74.23381109314751, 5.064525330103281], [-74.23380682949762, 5.0645181105715515], [-74.23380046075339, 5.064510433597576], [-74.23379541100975, 5.064503601920291], [-74.2337893563586, 5.064495968683258], [-74.23378341032259, 5.064486608852432], [-74.23378083475876, 5.064484059470496], [-74.23377673758675, 5.064479456345388], [-74.23377339738393, 5.064474333318252], [-74.23377013886721, 5.064469461673861], [-74.2337668015894, 5.064465881350317], [-74.23375982974741, 5.064461354280931], [-74.2337568837369, 5.064458069085821], [-74.23375410563236, 5.06444911128664], [-74.23374831121009, 5.064445474119825], [-74.23374110532174, 5.064441717493737], [-74.23373537078234, 5.064437778004475], [-74.23373211768008, 5.064432906349453], [-74.23373059207691, 5.064428745300076], [-74.23372891573081, 5.064424079651379], [-74.23372674467281, 5.064419289176517], [-74.23372404549116, 5.064415788164693], [-74.23372054580929, 5.064412691321489], [-74.23371421062959, 5.064410342736584], [-74.23370962342973, 5.064406181189771], [-74.23370480073042, 5.064400119980741], [-74.23370186713358, 5.064395291147507], [-74.23369798979344, 5.064391462124034], [-74.23369533589646, 5.064387097832378], [-74.23369300331598, 5.064382779978541], [-74.23368946368348, 5.0643795520130785], [-74.23368438017829, 5.064376804732847], [-74.23367880271955, 5.064373380687869], [-74.23367385613788, 5.064370035968737], [-74.23366991265034, 5.064367488288919], [-74.23366843889185, 5.0643640202285685], [-74.23366599565003, 5.064359873595514], [-74.2336602409452, 5.064354815792595], [-74.23365490827413, 5.06434962327253], [-74.23365041065925, 5.064344167669119], [-74.23364695534997, 5.064340202118497], [-74.23364378321087, 5.0643361518802825], [-74.2336415089301, 5.064333076225781], [-74.23363621592479, 5.064331672089592], [-74.23363138178763, 5.064328144383071], [-74.23362715831317, 5.064322600489813], [-74.23362113661567, 5.064316641094915], [-74.23361840268225, 5.064311467146001], [-74.23361461102553, 5.06430999771558], [-74.23361115684673, 5.064307580300716], [-74.2336076816043, 5.0643040472892595], [-74.23360463306486, 5.064300938727413], [-74.23360320573182, 5.064298160952034], [-74.2335980448784, 5.0642945940560615], [-74.23359373550463, 5.064291335888508], [-74.23359129226017, 5.064287187445376], [-74.23358824101221, 5.06428407798376], [-74.23358670918138, 5.064280914956365], [-74.2335845509118, 5.064276681822195], [-74.23358116804519, 5.064271423152518], [-74.23357408296782, 5.0642628517736785], [-74.23356817817759, 5.064255731277738], [-74.23356535606108, 5.064249734114979], [-74.23355973083191, 5.064242528938246], [-74.23355452425139, 5.064236735379507], [-74.2335508787513, 5.064230018648567], [-74.23354761303965, 5.064225157873811], [-74.23354131718835, 5.064219278624002], [-74.23353737507578, 5.064213647331294], [-74.2335336337418, 5.064209211821126], [-74.23353208640067, 5.06420548240894], [-74.23352875094052, 5.0642019075089095], [-74.23352471570087, 5.064198557431885], [-74.2335194695466, 5.064194735539739], [-74.23351537063674, 5.064191117758777], [-74.23351107578377, 5.064187427061216], [-74.23350812240311, 5.064183584512418], [-74.23350542496533, 5.064179098152407], [-74.23350075236841, 5.064175105966524], [-74.23349535011396, 5.064171761209074], [-74.23349231165193, 5.064169208183545], [-74.23348951528803, 5.064164895736433], [-74.23348748850866, 5.064160054315467], [-74.23348554540485, 5.064156037926208], [-74.23348248249422, 5.0641539156391], [-74.23347785540972, 5.064150608311107], [-74.23347209575407, 5.064148649506144], [-74.2334702174126, 5.064146429050958], [-74.23346794027574, 5.064142797844547], [-74.23346633953639, 5.064139935346523], [-74.23346153649184, 5.0641371006670886], [-74.23345683154626, 5.064135083753334], [-74.23345445202628, 5.064132182927607], [-74.23345254171629, 5.064129282112451], [-74.23345099053759, 5.064124003664097], [-74.23340907098452, 5.0640629814017], [-74.2333863553425, 5.064065114813517], [-74.23329409170768, 5.064047116519348], [-74.23319964576649, 5.064056482164735], [-74.23315714540334, 5.064063694895294], [-74.23313511687321, 5.06407320575576], [-74.23310529822598, 5.06409016270368], [-74.23305602545656, 5.064070951445683], [-74.23303185014336, 5.064063717361656], [-74.23292751099977, 5.063958258161719], [-74.23281715517338, 5.063845652404135], [-74.23269659157698, 5.063821768709371], [-74.23257987385901, 5.0637822460785475], [-74.2324289810693, 5.06376254513772], [-74.23226705380824, 5.063686174868478], [-74.23223187864757, 5.06363006275551], [-74.23203195449288, 5.063537499785985], [-74.23204914226619, 5.063524766176856], [-74.23204201065604, 5.063516385778819], [-74.23199153801713, 5.063433860436642], [-74.23196246554504, 5.063408849667772], [-74.2318993253109, 5.06335357431962], [-74.23187510539016, 5.0633241849561825], [-74.2317988588512, 5.063233132797002], [-74.23176655791013, 5.063194314340466], [-74.23174521898257, 5.063148158684569], [-74.23173020597285, 5.063115676325081], [-74.23168860547773, 5.063025731763856], [-74.23153878176466, 5.062882328478956], [-74.23142562229435, 5.062774689720436], [-74.2313639257149, 5.062648723729251], [-74.23131756074363, 5.062553856035283], [-74.23127319273888, 5.062463814442708], [-74.23124579863934, 5.062409211148891], [-74.23122517234914, 5.062415870006593], [-74.23118142205215, 5.062355193021476], [-74.23116116496345, 5.062327100822009], [-74.23115549416583, 5.062317725047224], [-74.23115484790432, 5.062316666736927], [-74.23115306834936, 5.062313714087916], [-74.23113542234772, 5.062284538381468], [-74.23110754987385, 5.062247980726981], [-74.231075710175, 5.062201558169157], [-74.23102770386289, 5.062133839839065], [-74.23091664934073, 5.062036966957777], [-74.23087184311213, 5.061997624788251], [-74.23079901288646, 5.0619336733200155], [-74.23067616880596, 5.061824467529427], [-74.23054566161177, 5.061749788663186], [-74.23047619681763, 5.0616174040398505], [-74.23038814696238, 5.061449724364654], [-74.2303144236051, 5.061355719237229], [-74.23030943955696, 5.061245132137122], [-74.23030006492512, 5.061030971845887], [-74.23033606428349, 5.061030630199178], [-74.23040925588576, 5.061050489385723], [-74.23043477494438, 5.061057410697532], [-74.23054159677201, 5.061085238924943], [-74.23082915838286, 5.061174573230217], [-74.23090836783723, 5.0611821470877985], [-74.2310123254498, 5.0611869259650915], [-74.23103133906486, 5.06118780278003], [-74.2312635975312, 5.06107539027397], [-74.23140615505879, 5.061054114823027], [-74.23150170613872, 5.061034798083481], [-74.23159137470645, 5.061016298709188], [-74.23168589773655, 5.060995876405929], [-74.23169319996224, 5.06099429990114], [-74.2317883430405, 5.060973963267466], [-74.23187907099947, 5.060935478086631], [-74.2319853382399, 5.060891954276184], [-74.23206523407823, 5.060858392875888], [-74.23213937889327, 5.060827422942968], [-74.23218079082746, 5.060810168041898], [-74.23225587768282, 5.060778259821985], [-74.23225659986018, 5.060777951715464], [-74.23228500739306, 5.06076587809564], [-74.23229364417084, 5.060780526004853], [-74.23241678414232, 5.060729993000062], [-74.23248542899746, 5.0607022202606124], [-74.23252295458624, 5.060870886044082], [-74.23254491725345, 5.0609677327720854], [-74.2326632914569, 5.06094405194136], [-74.23277874427276, 5.060921030833553], [-74.23290218429459, 5.060903178187577], [-74.23304302111669, 5.060884391201002], [-74.23313213648076, 5.060871628304948], [-74.23315865457214, 5.060863866072094], [-74.2332979138949, 5.0608435384231765], [-74.23332526135697, 5.060839185757512], [-74.23341449308649, 5.060824986662388], [-74.2334205963534, 5.060824012315364], [-74.23349593740167, 5.0608120229836215], [-74.23353052021712, 5.0608751204379905], [-74.23354484581556, 5.060916736355346], [-74.2335514111477, 5.060935808207052], [-74.23358751222987, 5.061023009747811], [-74.2336025747185, 5.06107017439319], [-74.23361383658143, 5.061101597068867], [-74.23366955396814, 5.0610815252824795], [-74.23417610929035, 5.060836139766601], [-74.23419444207165, 5.060827254836428], [-74.23425911798489, 5.060795929042553], [-74.23430335616995, 5.060854509297493], [-74.23437905236678, 5.06080474046169], [-74.23443146240422, 5.060754057806501], [-74.2344538777087, 5.060731593773719], [-74.23449924866124, 5.060686114549584], [-74.23458218871485, 5.060601153602785], [-74.23462846109985, 5.060552835156857], [-74.23470314120583, 5.060477358832658], [-74.23471491280792, 5.0604658932013535], [-74.23489979792284, 5.060285742302361], [-74.23490457783448, 5.060300661723643], [-74.23493924124908, 5.060322472237519], [-74.23504611038707, 5.060255878604944], [-74.23522164552352, 5.060148059150857], [-74.23544926788418, 5.060008335186163], [-74.23566746092517, 5.059872910733602], [-74.2357578493684, 5.059816011873552], [-74.23587848521775, 5.059740965344877], [-74.23580729864472, 5.059675416170665], [-74.23575605785177, 5.059627933363315], [-74.23570606754927, 5.0595699170313315], [-74.2356938790415, 5.059555662312753], [-74.23567013652202, 5.05953437389178], [-74.23564029090498, 5.0595012947134395], [-74.23561278833961, 5.059470448669548], [-74.23557056460312, 5.0594458766354995], [-74.23555044641384, 5.059434897988235], [-74.23551738119242, 5.059418871644364], [-74.23550385193604, 5.059411800989015], [-74.23547951093948, 5.059390380691884], [-74.23545794605766, 5.059401140250522], [-74.23541792515256, 5.059347684137734], [-74.23535039131721, 5.059258853384139], [-74.23529678234294, 5.059189663112978], [-74.23522233328885, 5.059094234044312], [-74.23529289435848, 5.059033647042496], [-74.23537291192301, 5.058963651840111], [-74.23546945081978, 5.058879801372357], [-74.23548541391962, 5.058876088336493], [-74.2354871933652, 5.058873747807592], [-74.23548728337369, 5.058873630010075], [-74.2354872168972, 5.058873309832567], [-74.23548368877653, 5.058856153137042], [-74.23547286872673, 5.058847882956605], [-74.2354175873413, 5.058816045711807], [-74.23541221216742, 5.058813158745874], [-74.23538417653471, 5.058798098185612], [-74.23536130923182, 5.058785811882948], [-74.23531608995387, 5.058763196310398], [-74.23530267882914, 5.058759885830382], [-74.23526573837853, 5.058749669427289], [-74.23524116449565, 5.058741984640212], [-74.23523727431139, 5.058740405012567], [-74.23517608430382, 5.0587155714133125], [-74.23515575762144, 5.058706926660466], [-74.23525985930709, 5.058609989048987], [-74.2353670483721, 5.058509550243321], [-74.23538252559389, 5.058495145041775], [-74.23547306952905, 5.058410869899325], [-74.23548617153331, 5.058398679686976], [-74.23554031163907, 5.0583483031539975], [-74.2356123163199, 5.058283436332719], [-74.23579114007063, 5.058121990399822], [-74.23580323026748, 5.058111070663112], [-74.23585723230885, 5.058022181864204], [-74.23586860491457, 5.058011608229838], [-74.23586587479153, 5.058007955272862], [-74.23589717783314, 5.057985038151561], [-74.23594321059551, 5.057951334693302], [-74.23598773317853, 5.0579187434156525], [-74.2361273686527, 5.057816515358359], [-74.2361305620332, 5.057814179370186], [-74.23614076292766, 5.057829028722139], [-74.23614842196523, 5.057838630476517], [-74.23615367957424, 5.057846138547788], [-74.2361628836438, 5.057856355342597], [-74.2361765784798, 5.05787271992574], [-74.23618539634738, 5.057885308974671], [-74.23619113208129, 5.057893237776711], [-74.23619769717347, 5.057900758734902], [-74.23620641105178, 5.057911327531758], [-74.23620897308751, 5.057915796045152], [-74.23621249857794, 5.057921099673558], [-74.23621534770177, 5.057925172235427], [-74.23622097835536, 5.057932408149857], [-74.2362266958836, 5.057939776906119], [-74.23623149841163, 5.057946643426482], [-74.23623750358422, 5.057956287241389], [-74.23624706920451, 5.057969684670962], [-74.23625541866376, 5.057978411960406], [-74.236261063926, 5.0579862133552105], [-74.23626649436036, 5.057993974443146], [-74.23627349506013, 5.058004236155792], [-74.23627763995995, 5.058006431470145], [-74.23628051213164, 5.058008384008074], [-74.23628282654488, 5.058011696640938], [-74.23628572775216, 5.05801611202747], [-74.2362896326151, 5.058021149820807], [-74.23629319125168, 5.058024899819402], [-74.23629671692156, 5.058028870655499], [-74.23630099213618, 5.058033644441221], [-74.23630503414152, 5.058039152476094], [-74.23630946668096, 5.05804362013439], [-74.23631632157449, 5.058050746943589], [-74.23632004909842, 5.058055529012613], [-74.23632359099787, 5.058061395403053], [-74.23632788457874, 5.058065386489254], [-74.23633263701235, 5.058070579197853], [-74.23633668280546, 5.058074754434017], [-74.23634069201064, 5.0580791441808834], [-74.2363461546892, 5.0580853516403845], [-74.23634841520897, 5.05808831783191], [-74.2363508723535, 5.058090766094578], [-74.23635345455979, 5.058094450999477], [-74.23635657600649, 5.058098904872254], [-74.23635898015415, 5.058101003977763], [-74.2363624868886, 5.058103079263901], [-74.23636505376967, 5.058104869517271], [-74.23636745882655, 5.0581069722402665], [-74.23636920012778, 5.0581097349343915], [-74.2363716424971, 5.058112955936363], [-74.23637411963603, 5.058115955192532], [-74.23637569909079, 5.058119018593715], [-74.2363775499764, 5.058122469642211], [-74.23637896003638, 5.058126611000174], [-74.2363799761534, 5.058130471712622], [-74.23638252431317, 5.058135710248048], [-74.23638487223901, 5.058141466719188], [-74.23638802576431, 5.0581457069943605], [-74.23639117640143, 5.058151278256519], [-74.23639409581354, 5.05815625187776], [-74.23639712678391, 5.058160576534421], [-74.23640015233872, 5.058164900296563], [-74.2364020416155, 5.058168135925913], [-74.23640392546297, 5.0581713634223], [-74.23640531461814, 5.058174949264183], [-74.23640648732011, 5.058177162916133], [-74.23640841136486, 5.058180175894849], [-74.23641088851112, 5.058183178770006], [-74.23641368391941, 5.058185571193173], [-74.23641630306484, 5.058186373289525], [-74.23641902784017, 5.058190534758933], [-74.23642116581937, 5.058193592570071], [-74.23642398015912, 5.0581978778280545], [-74.2364275604513, 5.058203528798493], [-74.23643122850501, 5.058209304465758], [-74.2364349329656, 5.058216196604051], [-74.23644064310284, 5.05822489816239], [-74.23644721957456, 5.058235083772145], [-74.23645704742032, 5.058250194413884], [-74.23646242650672, 5.058258948178009], [-74.23646386865607, 5.058262881367101], [-74.23646598463858, 5.058266710121506], [-74.23646852863313, 5.0582692776531815], [-74.23647134784039, 5.058270897319341], [-74.23647362493102, 5.058273085338393], [-74.23650192660449, 5.058315652594801], [-74.23650646420823, 5.0583208022802095], [-74.23651198512749, 5.058328693485175], [-74.23651695203785, 5.058336592081014], [-74.23652188580078, 5.058346042496088], [-74.23653217898872, 5.058361017430469], [-74.23653543684715, 5.058364604229567], [-74.23653777144017, 5.0583671377774895], [-74.2365391067144, 5.05837038351153], [-74.23654133514957, 5.05837355877517], [-74.23654250858425, 5.058377108835573], [-74.23654275965062, 5.058379602928666], [-74.23654303917549, 5.058381878002473], [-74.23654426486866, 5.058384437191782], [-74.23654595858662, 5.058386849812821], [-74.23654720355962, 5.058388632634903], [-74.23654902722171, 5.058389624449933], [-74.23655190967487, 5.058390812398584], [-74.2365551684376, 5.058394400100603], [-74.23655919674712, 5.058399345364582], [-74.23656427252351, 5.05840660223888], [-74.23657192582016, 5.0584188768164395], [-74.23657946052079, 5.05842856747141], [-74.23658662308951, 5.058438534804716], [-74.23659114231572, 5.058444459949809], [-74.23659311591884, 5.058446484776076], [-74.236595880167, 5.058449098032082], [-74.23659851987823, 5.05845312846448], [-74.23660151138293, 5.058459002236347], [-74.2366048548567, 5.058465385651529], [-74.2366070795198, 5.0584699009515], [-74.23660967994839, 5.058474152233396], [-74.23661119903241, 5.058476308220287], [-74.2366132595052, 5.058478463173867], [-74.23661602121183, 5.058479737309877], [-74.23661847834866, 5.058482180142039], [-74.23661931441112, 5.058485779706007], [-74.23662053992936, 5.058489672591189], [-74.23662119865732, 5.0584930191457005], [-74.23662280264114, 5.058496644388418], [-74.23662552813417, 5.058502133217018], [-74.2366273451519, 5.05850580419863], [-74.23663033846184, 5.058511677966786], [-74.23663261357383, 5.058515199684541], [-74.23663520120962, 5.058518890910796], [-74.23663877896227, 5.05852320185448], [-74.23664151760651, 5.058526586965343], [-74.23664406504528, 5.0585304927091785], [-74.23664655480506, 5.058535385715148], [-74.23664939186848, 5.05854023191269], [-74.23665407187686, 5.058547196381397], [-74.23665768966185, 5.058552631932259], [-74.23666219248715, 5.058557997027934], [-74.2366664163455, 5.058563758059749], [-74.23667017594822, 5.058568323813573], [-74.23667318150736, 5.058572093865501], [-74.236677828878, 5.058576600016656], [-74.23668045039182, 5.0585800749274155], [-74.2366836487704, 5.058584649895666], [-74.23668621820482, 5.058587783790916], [-74.23668906660457, 5.058590520845175], [-74.23669350218756, 5.058592310244083], [-74.23669818829634, 5.058593931774172], [-74.23670176713944, 5.058596915353135], [-74.23670561197419, 5.058600273017316], [-74.23670894210309, 5.058603428080779], [-74.23671423501919, 5.058606712405324], [-74.23671844462056, 5.0586092405635625], [-74.23672296510549, 5.058612500122819], [-74.23672786134901, 5.058615492044682], [-74.23673288464377, 5.058618391432942], [-74.23673594787893, 5.058621172412702], [-74.2367397022489, 5.058624407194594], [-74.23674476574085, 5.058627092065088], [-74.23674919772523, 5.0586288868992755], [-74.23675377876273, 5.0586298209708405], [-74.23675725162371, 5.058632112569024], [-74.23676061563388, 5.058635053126549], [-74.2367670322169, 5.058637534545254], [-74.2367736025238, 5.058639714367405], [-74.23677947897349, 5.058641432249269], [-74.23678691004785, 5.0586464406861], [-74.2367939992223, 5.058651490492109], [-74.23680064054344, 5.058655905068753], [-74.23680511633613, 5.0586574862827645], [-74.23680999183937, 5.058658583563053], [-74.2368135560801, 5.058661004374795], [-74.23681763682627, 5.0586636250692], [-74.23682178640634, 5.058664480340218], [-74.2368262567921, 5.05866606518361], [-74.23683115574333, 5.058669057099303], [-74.23683581715781, 5.058671454100837], [-74.23684018409473, 5.058673681559494], [-74.23684463896475, 5.058674698209223], [-74.23684855698305, 5.058677630470011], [-74.23685236359798, 5.058679867141563], [-74.23685830009249, 5.058683269671416], [-74.23686392947533, 5.05868650177767], [-74.2368710006251, 5.058689661460744], [-74.23687703350606, 5.058691077739873], [-74.23688120579833, 5.0586924894276315], [-74.236883682954, 5.058695495014364], [-74.23688690891468, 5.058697962616887], [-74.23689333378557, 5.058701006812491], [-74.23690324054317, 5.0587063434927675], [-74.23691341060291, 5.058712063311264], [-74.23692397067167, 5.058720743840787], [-74.2369281546789, 5.058724048376424], [-74.23693080645583, 5.058727303358138], [-74.23693287397424, 5.0587307919924465], [-74.23693232685119, 5.05873347581014], [-74.23693441995147, 5.058738081840738], [-74.23693611368046, 5.058740498984213], [-74.23693853152642, 5.058743157235314], [-74.23694196114877, 5.058746436971499], [-74.23694595018596, 5.058751605795772], [-74.23694742260619, 5.05875532176963], [-74.23694961265753, 5.058758714259637], [-74.23695201844463, 5.058762149768789], [-74.23695777796323, 5.05876073540628], [-74.23733269247063, 5.058668788940725], [-74.23748442246759, 5.058611692235204], [-74.2375331163023, 5.0585885500052585], [-74.23751873485995, 5.058562739614882], [-74.2381323389913, 5.058572798778028], [-74.23816178613984, 5.058573281773534], [-74.23815912417582, 5.058667220975263], [-74.23816521509626, 5.058684932821267], [-74.23817719097116, 5.058719756110332], [-74.23824968693268, 5.058897380825155], [-74.23831414500339, 5.059010401826616], [-74.23836033087383, 5.059070587688271], [-74.23837675568066, 5.059092374056902], [-74.23831012036213, 5.05916071531197], [-74.23844946625128, 5.059243759631477], [-74.23860246860555, 5.059335264045317], [-74.2386087639781, 5.059339006078997], [-74.23877115165688, 5.059435397489294], [-74.23887044214544, 5.059494364297628], [-74.23888276140768, 5.059532268697034], [-74.2390415452222, 5.059635257568701], [-74.23907138742518, 5.059654608728293], [-74.23900470426557, 5.059764658408415], [-74.2389445356162, 5.059864634104035], [-74.23889355611576, 5.0599489271919715], [-74.23883808421098, 5.060041893362277], [-74.2387868085954, 5.060126592370788], [-74.23873977709944, 5.06020350096275], [-74.2386896720838, 5.060287415971886], [-74.23863548159326, 5.060376676286659], [-74.23863588185469, 5.060376956918105], [-74.23877405535217, 5.060474390768228], [-74.23877823991157, 5.06047750075084], [-74.23877923567069, 5.060478238078652], [-74.23878264850339, 5.060479322755703], [-74.23878758894827, 5.060481822353168], [-74.23878988236524, 5.060483572399354], [-74.2387927899509, 5.060486107553472], [-74.23879473852931, 5.0604882518529415], [-74.23880184707174, 5.060491606875865], [-74.23880558313657, 5.060493271824594], [-74.23880918567613, 5.060496369347962], [-74.23880997577294, 5.060496667329896], [-74.23881320114936, 5.060497870895833], [-74.23881882483109, 5.060499990974209], [-74.2388230475532, 5.060501342831402], [-74.23882705417886, 5.060502936687035], [-74.23883172738897, 5.060504883954372], [-74.23883548817145, 5.0605062611250196], [-74.23883872485895, 5.060508193043777], [-74.23884198939867, 5.0605091133281], [-74.23884569766435, 5.060510394688927], [-74.23884838305658, 5.060510915248769], [-74.23885140084214, 5.060511614325807], [-74.23885424889963, 5.060511790745477], [-74.23885702984103, 5.0605122604529615], [-74.23886018348743, 5.060512754782307], [-74.23886163129741, 5.060513011694284], [-74.23886528721235, 5.060513335862773], [-74.23886927296594, 5.060512969932683], [-74.23887231797632, 5.0605132762686305], [-74.23887639550207, 5.060513719970731], [-74.23887960228055, 5.060513684882628], [-74.23888306214833, 5.060513880942569], [-74.23888648347467, 5.060514212798179], [-74.23889041926097, 5.060514616959536], [-74.23889330494207, 5.060514649441759], [-74.23889788654095, 5.060514922979448], [-74.23890309890189, 5.060515692052935], [-74.23890635125366, 5.060516371679916], [-74.23890990214181, 5.060516507847928], [-74.23891280271611, 5.060516780077057], [-74.23891518010299, 5.060517609767074], [-74.2389181577102, 5.060517584165292], [-74.23892093323599, 5.060518052978048], [-74.23892380160228, 5.060518470038833], [-74.23892683697945, 5.060519404333261], [-74.23893060288542, 5.060520154457957], [-74.23893440218194, 5.060521381355301], [-74.23893764145376, 5.060521825755708], [-74.23894118000176, 5.060522589887464], [-74.23894562933191, 5.060523059117449], [-74.23895053728991, 5.060524133694867], [-74.2389555606443, 5.060525629694428], [-74.23895943697379, 5.060526558760702], [-74.23896358265291, 5.060528203018898], [-74.23896801450586, 5.060529920019473], [-74.23897278327242, 5.060531820052554], [-74.2389748884541, 5.0605328049861], [-74.2389770652651, 5.060533497527958], [-74.23898007627324, 5.060533954127386], [-74.23898171156544, 5.060534105722084], [-74.23898510655563, 5.060534823077915], [-74.23898703690135, 5.060535920542702], [-74.23899010460102, 5.060538192993585], [-74.23899289396054, 5.060539767461171], [-74.23899560476113, 5.060542260464367], [-74.23899829704891, 5.060544508298598], [-74.23900229930202, 5.060547597817429], [-74.2390053485096, 5.060549635956981], [-74.23900780548098, 5.060551034621815], [-74.23901013921886, 5.0605526352956955], [-74.23901258745258, 5.0605546582982806], [-74.23901554817063, 5.060557612277932], [-74.23901771291855, 5.060559552579999], [-74.2390214019236, 5.060562092571564], [-74.2390237922232, 5.060564017965085], [-74.23902670510877, 5.060566018363159], [-74.23902900015334, 5.060568623453547], [-74.23903107297863, 5.060570623649073], [-74.23903287901257, 5.060572779078025], [-74.2390357384739, 5.060574680953619], [-74.23903929700295, 5.06057741030058], [-74.23904337088227, 5.060580205617778], [-74.23904859103811, 5.060582700153614], [-74.23905192056694, 5.060584580319093], [-74.23905481240381, 5.06058547688526], [-74.23905682655159, 5.060586514471783], [-74.23905924590822, 5.060588061597674], [-74.23906187080175, 5.060589982018128], [-74.23906460161409, 5.060592085008169], [-74.23906728622411, 5.060594091271596], [-74.23906946407297, 5.060596277657526], [-74.23907261829918, 5.060598499272782], [-74.23907497640485, 5.060600576736249], [-74.23907740613636, 5.060602359998404], [-74.239080282301, 5.060604504331682], [-74.23908294827211, 5.060607147619099], [-74.23908535272008, 5.060608446854573], [-74.2390877564097, 5.0606112444619935], [-74.23908982381798, 5.060613242857994], [-74.2390918766082, 5.060615620398636], [-74.23909345500407, 5.06061716822846], [-74.23909563103986, 5.060619350093654], [-74.23909778885869, 5.060621916539276], [-74.2390996665343, 5.060623785909941], [-74.23910145061903, 5.06062483841346], [-74.23910450868645, 5.060627738822305], [-74.2391062849273, 5.0606294111377705], [-74.23910865871578, 5.060630246262668], [-74.2391110631742, 5.060631550926878], [-74.23911329098172, 5.060632962697005], [-74.23911585823039, 5.060635411638284], [-74.23911822507046, 5.060636862954158], [-74.23912049998096, 5.060638370544307], [-74.2391221684881, 5.060639854864714], [-74.2391243061707, 5.060641322905641], [-74.23912642428795, 5.060643415305004], [-74.23912824267268, 5.060644948198538], [-74.2391298586802, 5.060646345757305], [-74.23913236815007, 5.060647830278297], [-74.2391357431451, 5.060648945789158], [-74.2391382464713, 5.060649572559083], [-74.23914091786962, 5.0606498515592016], [-74.23914356384967, 5.060650524201618], [-74.23914684073355, 5.060650818329854], [-74.23914951214566, 5.060651104568418], [-74.23915049688664, 5.060651267360265], [-74.23915214412955, 5.060651534747663], [-74.23915508952402, 5.060651651261942], [-74.23915804171158, 5.060652018396409], [-74.23916087668594, 5.060651957778568], [-74.2391644406684, 5.06065233640983], [-74.23916802466897, 5.060652328647572], [-74.23917164808397, 5.060652169706118], [-74.23917482085362, 5.0606522812611825], [-74.23917818968428, 5.060652528163058], [-74.23918155759885, 5.060652767828146], [-74.23918445816668, 5.060653036436648], [-74.23918853749942, 5.060653481037885], [-74.23919236826633, 5.060653700816225], [-74.23919621391968, 5.060654156722286], [-74.23919879339704, 5.06065449652051], [-74.23920132215699, 5.060654737791139], [-74.23920481348085, 5.060653919493515], [-74.23920699045445, 5.060653748842473], [-74.23920960860941, 5.060653076080838], [-74.23921230019478, 5.060652109114441], [-74.23921488749696, 5.0606518191477345], [-74.2392173497662, 5.060651733908014], [-74.2392211954109, 5.060652185289869], [-74.23922470671953, 5.06065333401749], [-74.2392277177264, 5.060653789710761], [-74.2392314259932, 5.060655071068985], [-74.23923402307082, 5.06065565060884], [-74.23923656131191, 5.060656132541452], [-74.23923842423946, 5.060656889924598], [-74.23924087415682, 5.06065742631497], [-74.23924405398981, 5.060658404667077], [-74.23924684259966, 5.060659110514195], [-74.23924867160085, 5.060659583850922], [-74.2392501990767, 5.060659978141057], [-74.2392533142133, 5.060660624550513], [-74.23925732777842, 5.060661596783137], [-74.23925964137021, 5.060662093622514], [-74.23926264424763, 5.060662544807105], [-74.239265642913, 5.060663627559247], [-74.23926803428303, 5.060664692472359], [-74.23927043169041, 5.060665136672162], [-74.23927362460529, 5.060666351155257], [-74.23927664870436, 5.060667048408317], [-74.23927866195031, 5.060668085995723], [-74.23928141836434, 5.060668943008071], [-74.23928366077465, 5.060669967489569], [-74.23928556313213, 5.060670581836637], [-74.23928813205886, 5.0606715414515815], [-74.23928981292856, 5.060672409570118], [-74.23929450993157, 5.060673108145961], [-74.23929825762153, 5.060674242848591], [-74.23930352864774, 5.060675967288726], [-74.23930626639034, 5.060677444133609], [-74.23930885382148, 5.060678644393308], [-74.23931175271028, 5.06068040142183], [-74.23931472504324, 5.060681871484062], [-74.23931678477058, 5.060683626499096], [-74.23931953470483, 5.060685345810461], [-74.23932155426708, 5.060686383385616], [-74.23932313102257, 5.0606870689310375], [-74.23932537883654, 5.0606880879731335], [-74.23932734138067, 5.06068903517608], [-74.23932991557326, 5.060690865210871], [-74.23933206558578, 5.06069169985823], [-74.23933464670424, 5.060692901939522], [-74.23933707840317, 5.060693822005062], [-74.23934073310639, 5.060695879794606], [-74.23934055825495, 5.060695984182713], [-74.23934283225509, 5.060697487249588], [-74.23934610295022, 5.060699270710787], [-74.23934874380416, 5.060700568587877], [-74.23935184462096, 5.060702698917507], [-74.23935512237279, 5.060705345556751], [-74.2393593783325, 5.0607080409935525], [-74.23936211607533, 5.060709517838118], [-74.23936538165802, 5.060711933773266], [-74.23936861382744, 5.060713861173318], [-74.2393709719343, 5.060715938635365], [-74.23937311637978, 5.060717641008882], [-74.23937509742154, 5.0607188252372515], [-74.23937782824555, 5.060720933654448], [-74.23938079273864, 5.060723025337815], [-74.23938413518887, 5.0607260048242315], [-74.23938663939197, 5.060728988629239], [-74.23939048575009, 5.0607326593331985], [-74.2393927411153, 5.060735749477484], [-74.23943864479116, 5.060810152166547], [-74.23971586890825, 5.061071192998388], [-74.23994812656706, 5.0612879432157705], [-74.23997482975874, 5.061320592018026], [-74.24015592808026, 5.061514277780216], [-74.2400046235234, 5.061644693187775], [-74.23986141460328, 5.061766143568969], [-74.23971232198967, 5.061893965125852], [-74.23957248691097, 5.062013611145752], [-74.23944727808379, 5.062120758111486], [-74.23932945062448, 5.062223383155175], [-74.23929056452913, 5.062260082609229], [-74.23899013364417, 5.062543617991745], [-74.2387025942644, 5.062819238658272], [-74.23857857221611, 5.062937571270373], [-74.23839058708144, 5.063118021327406], [-74.23830288568676, 5.06321286242982], [-74.23816944802726, 5.063354589767512], [-74.23802472891138, 5.0634912898100914], [-74.2379021605543, 5.063577045382944], [-74.23791212778602, 5.0635937309859775], [-74.23795138364626, 5.063662163854399], [-74.23799153871258, 5.063731798400211], [-74.23802192415573, 5.0637913864842865], [-74.23805024932437, 5.063847036234576], [-74.23808104655275, 5.063908211472805], [-74.23811642429305, 5.063970020363188], [-74.23815689884643, 5.064041563434113], [-74.23817425244111, 5.06407480293558], [-74.23822209021306, 5.064142672847342], [-74.23822691789933, 5.064149441567425], [-74.23827581996491, 5.064218017000134], [-74.23829556433252, 5.0642463034974705], [-74.23832595176987, 5.064289837448304], [-74.23834342762572, 5.0643152419293935], [-74.23840158455191, 5.064378908216979], [-74.23840343547631, 5.0643809386952645], [-74.23845731208164, 5.064440021238546], [-74.23846147576694, 5.06444447490456], [-74.23852573938892, 5.064513215443616], [-74.23857548942487, 5.064567896714407], [-74.23859399423101, 5.06458823407096], [-74.23866034209478, 5.064754538410139], [-74.23868297446019, 5.064773617409749], [-74.23870285095428, 5.064860862160312], [-74.23871725758569, 5.064859963247905], [-74.23871388843239, 5.064933973456691], [-74.23870932531146, 5.065034425494906], [-74.23870401960872, 5.065033938909079], [-74.2387040014328, 5.065036240788424], [-74.2386518078323, 5.065099103061529], [-74.23858444708226, 5.065182382519511], [-74.23856269210036, 5.065208037611991], [-74.23856843102493, 5.065255504887457], [-74.2385762728751, 5.065320773955128], [-74.23857825285293, 5.065336085032387], [-74.23857827597992, 5.06536624512465], [-74.23857595287109, 5.065451289339626], [-74.23857939214793, 5.065483313141248], [-74.23858109629148, 5.065501139222007], [-74.23858424068153, 5.065532779947129], [-74.23858530919978, 5.065543766857246], [-74.23858550797401, 5.065545800496668], [-74.23858570113448, 5.065547729188522], [-74.23858572782552, 5.065548004200609], [-74.23858589613924, 5.065549678687526], [-74.23858604617391, 5.065551231059668], [-74.23858618966668, 5.065552664913795], [-74.23858640035371, 5.065554794440608], [-74.23858657516112, 5.065556562110841], [-74.23858673995336, 5.065558282749976], [-74.23858691196767, 5.06556000518489], [-74.23858705823976, 5.065561477035866], [-74.23858721097282, 5.065563024878765], [-74.2385873618771, 5.065564560057769], [-74.23858752655741, 5.065566221884262], [-74.23858765626557, 5.065567524566873], [-74.23858775935845, 5.065568592049028], [-74.23858792675779, 5.065570260203995], [-74.23858808876903, 5.065571941941485], [-74.23858869770027, 5.0655780301681945], [-74.23858963856512, 5.065587845589616], [-74.23859102582266, 5.0656013165063545], [-74.23859290924821, 5.065619942098482], [-74.23859296794326, 5.065621386972682], [-74.23855102874188, 5.065618576378281], [-74.23843803499982, 5.065610613155693], [-74.23839182888646, 5.065607430696261], [-74.23834555051796, 5.065604212179156], [-74.23831197875609, 5.06560196011039], [-74.23829444068129, 5.065600779416501], [-74.23827461209322, 5.06559938504574], [-74.23826011596766, 5.065598311630793], [-74.23824569223461, 5.065597346654558], [-74.23823420390607, 5.065596452064674], [-74.2382172742058, 5.06559537968673], [-74.23820438997684, 5.065594485053234], [-74.2381832490874, 5.065592923990854], [-74.23817811431464, 5.065593593425997], [-74.2381770187504, 5.065593520423031], [-74.23816613344276, 5.065594662317413], [-74.238155730441, 5.065595573466096], [-74.23814255973936, 5.065596821072583], [-74.23813420754597, 5.065597636910341], [-74.23812237400224, 5.065598836716993], [-74.23809860918799, 5.065601091746538], [-74.23808324357746, 5.065602577898578], [-74.23806324894971, 5.065604497265323], [-74.23804263370182, 5.065606511919588], [-74.23802163749038, 5.065608431391955], [-74.23800760714478, 5.065609823601201], [-74.23798665893682, 5.065611837986041], [-74.23796308550438, 5.065614140599758], [-74.23793693439674, 5.065616587485801], [-74.23791173795102, 5.065619034353937], [-74.23787795289941, 5.065622296603224], [-74.2378372481829, 5.065626182838269], [-74.2377932984319, 5.065630404630979], [-74.23774767892682, 5.065634865771412], [-74.23770072136134, 5.065639375613888], [-74.23766760384585, 5.0656425424751435], [-74.23762799707322, 5.06564633249678], [-74.23758962991579, 5.065650026949182], [-74.23754606175117, 5.065654200945684], [-74.23750168266595, 5.065658518546087], [-74.23746470012048, 5.06566197237721], [-74.23743454087554, 5.065664899222427], [-74.23743570535088, 5.065661826963026], [-74.23743927254937, 5.065652021010153], [-74.23744327351038, 5.065641131165929], [-74.2374460393819, 5.065633665688592], [-74.23744821439807, 5.065627712379871], [-74.23745488944273, 5.065609488431816], [-74.23745684485392, 5.065604305539414], [-74.23745685832168, 5.06560427022594], [-74.23745738609858, 5.065602802513824], [-74.23745742379829, 5.065602698388176], [-74.23745760782305, 5.065602197674333], [-74.23745772905511, 5.065601891615499], [-74.23745798398657, 5.0656011926119], [-74.23745823446494, 5.065600524380477], [-74.23745842744238, 5.065599986552154], [-74.23745853787925, 5.065599697705428], [-74.23745863478128, 5.0655994088845855], [-74.2374587973103, 5.065598992359522], [-74.23745912588815, 5.065598112252372], [-74.23745932154846, 5.0655975617515345], [-74.23746013754989, 5.065595346112214], [-74.23746078119655, 5.06559359949593], [-74.23746182981571, 5.065590813379193], [-74.23746244015896, 5.0655891102576645], [-74.23746350842961, 5.065586219144983], [-74.23746511977018, 5.065581835860967], [-74.2374671422274, 5.065576322583414], [-74.23746897369253, 5.065571442135779], [-74.23746985161696, 5.065569049034581], [-74.23747238841423, 5.065562119644981], [-74.23747366594364, 5.065558711483569], [-74.23747507780456, 5.065554768320453], [-74.23747685188398, 5.06555007889824], [-74.23747891202011, 5.065544450637307], [-74.23748047680282, 5.065540258357989], [-74.23748137273752, 5.06553784622126], [-74.23748261247941, 5.065534496040189], [-74.23748441015739, 5.06552940483564], [-74.23748786817139, 5.065520072309108], [-74.23749144416432, 5.065510621026366], [-74.23749639319784, 5.065496741674725], [-74.2375013403309, 5.0654837608065435], [-74.23750670532273, 5.065468925176289], [-74.23751308314269, 5.065451936867246], [-74.23751856814154, 5.065437100102692], [-74.23752792710557, 5.065411496791512], [-74.23753352996933, 5.065396481553293], [-74.23754121993642, 5.065375784618599], [-74.23754956664719, 5.065353111219977], [-74.23755522894534, 5.065337559313713], [-74.23756512477547, 5.065310998587964], [-74.2375698932447, 5.065298017156747], [-74.23758026592624, 5.065269781614047], [-74.23758831386859, 5.065248006361926], [-74.23759391604877, 5.0652326328189465], [-74.23760190489317, 5.065211097455457], [-74.23760804517418, 5.065194466097399], [-74.23761573468819, 5.065174007129663], [-74.23762139810547, 5.065158096010415], [-74.23762837255335, 5.0651393123153], [-74.2376341547408, 5.065123698652522], [-74.23763475013807, 5.065122202761896], [-74.23763779140536, 5.065113888042922], [-74.23763993715698, 5.0651082053295235], [-74.2376445862966, 5.065095582432772], [-74.23765054781227, 5.065079371250143], [-74.23765603190603, 5.065064535392329], [-74.23766091992728, 5.0650513148618135], [-74.23766658300868, 5.065035702331725], [-74.23767135192936, 5.065022959770528], [-74.23767874379553, 5.065003039736236], [-74.23768237989115, 5.064992930539324], [-74.2376867911733, 5.064981444543276], [-74.23768923534982, 5.064974684531095], [-74.23769334863793, 5.0649630796696465], [-74.23769805755659, 5.064950576094014], [-74.23770293166096, 5.064937629748655], [-74.23767196704732, 5.064934585463323], [-74.23752243453342, 5.064920900222048], [-74.2374822107598, 5.064916703710488]]]], "type": "MultiPolygon"}}]}