{"type": "FeatureCollection", "features": [{"type": "Feature", "properties": {"AREA_HA": 176.33831499953868, "Nombre": "Per\u00edmetro Suelo Suburbano de Vivienda", "Area": 1967636.6838959455, "Perimetro": 13147.478527481142, "Shape_Length": 11285.470781201335, "Shape_Area": 1763383.1499953868}, "geometry": {"coordinates": [[[[-74.23613056203148, 5.057814178465375], [-74.23616814084866, 5.057780416928637], [-74.23613089915037, 5.057741222655554], [-74.23604262520341, 5.057648324563654], [-74.23603697075545, 5.0576399585789895], [-74.23590980498462, 5.057451810650023], [-74.23579595483095, 5.0572679722514335], [-74.23578128191886, 5.057237338788353], [-74.23572004017542, 5.057109483149428], [-74.23562515118999, 5.056881262682223], [-74.23555233104216, 5.0564802194711795], [-74.23536890900799, 5.056213976360389], [-74.23533308781924, 5.056162464773811], [-74.23522343743404, 5.056004784501149], [-74.23519593618724, 5.055966432051824], [-74.23507797255367, 5.055801928989], [-74.23498942106794, 5.055656126666216], [-74.23488190501193, 5.055535690731506], [-74.234712248986, 5.05547272479888], [-74.23471242202594, 5.055470711256582], [-74.23524528023606, 5.054776902316274], [-74.23533304049049, 5.054692802713691], [-74.23563217434115, 5.054406132222183], [-74.23566880577526, 5.05437102981322], [-74.235953256656, 5.054085655770434], [-74.23613911105751, 5.053921322932566], [-74.23632622197589, 5.0537558765561394], [-74.23658540834282, 5.053584631302112], [-74.23677483613078, 5.05355761698069], [-74.23685578087533, 5.053572484336506], [-74.23686378493237, 5.053394845027637], [-74.23689218367649, 5.053216600411744], [-74.236895946631, 5.053192980303685], [-74.23695373402016, 5.053155298600258], [-74.23702001787628, 5.053112076799272], [-74.237056969604, 5.05308798079764], [-74.23703736510983, 5.052994738199362], [-74.23702471431186, 5.0529345786237], [-74.23696830977951, 5.052732729894326], [-74.23694761875225, 5.052620832093268], [-74.23705267076237, 5.052514578510212], [-74.23729808638154, 5.05242804273645], [-74.23751698474481, 5.052408034146117], [-74.23775577809826, 5.0523813724307916], [-74.23791495540554, 5.0522815581814], [-74.23798126706777, 5.05219506897905], [-74.23802765947595, 5.052015459980833], [-74.23808070987371, 5.051935625654286], [-74.23815794217583, 5.051907164830271], [-74.2382223742542, 5.051883420792832], [-74.23833275431508, 5.051843857958583], [-74.23843525329121, 5.051812212794646], [-74.23844941120348, 5.051816383198344], [-74.23856931472115, 5.05185171618458], [-74.23871125986093, 5.0519070242484085], [-74.23889264650498, 5.052033491104797], [-74.23899518027733, 5.052144171116622], [-74.23912137492071, 5.052286466230797], [-74.2392475705248, 5.052428762209366], [-74.23931634223092, 5.052484562759715], [-74.23941318924615, 5.052563136284601], [-74.23956301237921, 5.052602638253753], [-74.23968432200023, 5.0526081357029335], [-74.23969789208927, 5.052608751281021], [-74.23973649167102, 5.052610500708441], [-74.23986413007545, 5.052595109276105], [-74.239933606353, 5.052586730913854], [-74.24006765269515, 5.05255507675375], [-74.24016320833455, 5.052509655234666], [-74.24021744760378, 5.052483872944839], [-74.24030415974828, 5.052381060653462], [-74.2403908754792, 5.0522782501596195], [-74.24050912742997, 5.052207063187546], [-74.24066152437115, 5.052264385701831], [-74.24057794167422, 5.052423741934883], [-74.24046927213338, 5.052633428400588], [-74.24037732985119, 5.052885033620416], [-74.24035227859231, 5.053027608554124], [-74.24034395432733, 5.053170176835854], [-74.24036072331079, 5.053337898881471], [-74.24049454969814, 5.053430112086301], [-74.24059789582773, 5.053486609072483], [-74.24067856139112, 5.053530709156009], [-74.24096293308908, 5.053639658275061], [-74.24107166632913, 5.053706723023203], [-74.2410725789433, 5.053706922145141], [-74.24126403187971, 5.0537486096132325], [-74.2414480226812, 5.053748564160525], [-74.24168220063008, 5.053782056253587], [-74.24185784630404, 5.053882644506721], [-74.24198332064982, 5.053991634965365], [-74.24215059314832, 5.054058681473831], [-74.24231785723674, 5.054050258467883], [-74.24242659553096, 5.054134097239584], [-74.2426023057734, 5.054486275350038], [-74.24262568218134, 5.05458772694045], [-74.24267765935043, 5.054813322738458], [-74.2427783964127, 5.055004758888386], [-74.24259815917186, 5.055102910906952], [-74.242586045586, 5.055109508487703], [-74.24254149779699, 5.055133768633101], [-74.24276195331635, 5.055615676937706], [-74.24297225394419, 5.055493431782927], [-74.24307837513258, 5.055760944047509], [-74.24318153242429, 5.056183677900737], [-74.24324247390803, 5.056366854176022], [-74.24344871397498, 5.056892898840032], [-74.24348154456554, 5.056949603738537], [-74.2438432925397, 5.0575743976781355], [-74.24400670840343, 5.057920121011836], [-74.24410656964469, 5.058111181099798], [-74.24417921489606, 5.058320443935133], [-74.24428815088024, 5.058547894339964], [-74.24440616624126, 5.058748043586096], [-74.24454236761144, 5.059075584240113], [-74.24458777466202, 5.0592393583300534], [-74.24460596067404, 5.059403139469627], [-74.24464231473343, 5.059630607029496], [-74.24466048694283, 5.059748892467914], [-74.2446968246847, 5.059903572506396], [-74.24476945542321, 5.060058232556524], [-74.24487008912375, 5.060226318644994], [-74.24487839530846, 5.060240192436349], [-74.24495100981319, 5.0603584609730135], [-74.24509623664538, 5.060513108985289], [-74.24499170472225, 5.060613538573932], [-74.24489409977134, 5.060707311714926], [-74.2448886096215, 5.060712270680194], [-74.24481969941544, 5.060774494896464], [-74.2443957130258, 5.061528272850428], [-74.24418744746472, 5.061923818639921], [-74.24415917340036, 5.0619668587473505], [-74.24397172110442, 5.0622522046519345], [-74.24375977533582, 5.06238226499278], [-74.24377439765432, 5.062521223180465], [-74.24380360513332, 5.062645555116131], [-74.24381822615103, 5.06276256709914], [-74.24392766714296, 5.062901510477618], [-74.24400791409138, 5.06297463061354], [-74.24411733672913, 5.063033116342965], [-74.24421946367116, 5.063084290719614], [-74.24434347776625, 5.063157398154156], [-74.24446749820635, 5.063245138152528], [-74.24447645454944, 5.063250747049869], [-74.24458420896158, 5.063318246899776], [-74.24470822176694, 5.0633694080517975], [-74.2448260121581, 5.063474344111001], [-74.24482652736928, 5.063474808193069], [-74.24486028871188, 5.063486161979729], [-74.24487125085592, 5.063489848812893], [-74.24489787656047, 5.063498804094367], [-74.24513164627072, 5.063577426785817], [-74.24522468073694, 5.06370174708276], [-74.24532803878505, 5.0637949826216575], [-74.24545208514395, 5.0639607423474615], [-74.24545410088865, 5.063974864375522], [-74.24546243644673, 5.064033278305189], [-74.24564850389227, 5.0642819205277005], [-74.24578859303962, 5.064422330851173], [-74.24580354435288, 5.064437319213318], [-74.24582829831401, 5.0644550357096], [-74.2459482479117, 5.064540900236952], [-74.24611358591014, 5.064551221561339], [-74.24626658265538, 5.0646278810792165], [-74.24627894732473, 5.064634076030032], [-74.24653733013601, 5.064789444646284], [-74.2467233756225, 5.0649655523180215], [-74.24682543302308, 5.065099806881183], [-74.24688877248087, 5.065183119202475], [-74.24697149043027, 5.065379981338701], [-74.24696129808198, 5.065503016274462], [-74.24695088518622, 5.065628676490282], [-74.24694688522749, 5.065654122035796], [-74.24691993565688, 5.065825564950643], [-74.24692465287944, 5.066023216192324], [-74.24678895644097, 5.066099797559823], [-74.24671875794807, 5.066187208133238], [-74.24668010074781, 5.066235345250207], [-74.24674315546605, 5.066406832782179], [-74.24674381319214, 5.066410562952455], [-74.24677020082244, 5.066560279017984], [-74.24676123529225, 5.066713734033385], [-74.24677386891423, 5.066925175618731], [-74.24678955089853, 5.067136762427928], [-74.24685213398783, 5.067371849035297], [-74.24668800776482, 5.067356215411477], [-74.24657075278664, 5.067254367939688], [-74.24637533751174, 5.067129031973341], [-74.24616434372444, 5.067176105918701], [-74.2460002318115, 5.067207492367649], [-74.24579704011651, 5.06723889161816], [-74.24569431813424, 5.067272719462419], [-74.24588306952825, 5.067481810523622], [-74.24614104486204, 5.067763866860712], [-74.24644592834716, 5.068124278786972], [-74.24618412328388, 5.06814687880935], [-74.24609620895916, 5.068176284452097], [-74.24597899045737, 5.068215498594264], [-74.24575434148201, 5.068362494424877], [-74.24569601295599, 5.068428327708911], [-74.24559807931486, 5.068538861637974], [-74.24540616271416, 5.068370066061404], [-74.24531665186377, 5.068409252073883], [-74.24524120441048, 5.068436509114094], [-74.24521646961753, 5.068443495738397], [-74.24516767542171, 5.068454405804192], [-74.24501668968068, 5.068477052583925], [-74.24493346527551, 5.068491244619906], [-74.24477157097827, 5.0685250623330145], [-74.24468478629457, 5.068546497871438], [-74.24464728256457, 5.06855722330357], [-74.24459534242578, 5.068574526446761], [-74.24454578355434, 5.06859419922752], [-74.24444905735815, 5.068638931946414], [-74.24438535289092, 5.0686719281392465], [-74.24435566122779, 5.068690990834847], [-74.2443287821524, 5.068712897367274], [-74.24431672078002, 5.06872519072087], [-74.24430569449453, 5.06873848732765], [-74.24428625036472, 5.068767808955918], [-74.24426919598548, 5.068800159817157], [-74.24423700110144, 5.068871010572317], [-74.24421954233003, 5.068908001178256], [-74.24418187408793, 5.068980834048804], [-74.2441530384971, 5.069030902970857], [-74.2441250387027, 5.06907449726536], [-74.24410664827217, 5.069100410250822], [-74.24406938931865, 5.069147125862737], [-74.24398172894182, 5.069241493515111], [-74.24392749161638, 5.069303244464364], [-74.24390328619188, 5.069335570174607], [-74.24388839362987, 5.069357945854518], [-74.2438592049622, 5.069402706924221], [-74.24383513466121, 5.069433974649243], [-74.24380729326312, 5.0694613363201215], [-74.2437870796744, 5.069477121637638], [-74.24375215716536, 5.069498081817735], [-74.24353163848632, 5.069115586216269], [-74.24314963710478, 5.068631975196908], [-74.24286728071813, 5.068771106146614], [-74.2426823852458, 5.068875960017539], [-74.24231260353328, 5.06902921822823], [-74.24218392354071, 5.0688518934188265], [-74.24204719651968, 5.068658443988231], [-74.24177377854129, 5.068360219196919], [-74.24156970596181, 5.0681051120193565], [-74.24123961469617, 5.068274748287305], [-74.24096587014111, 5.068444382161455], [-74.24027345302859, 5.0687109961611565], [-74.24003190311447, 5.068759498639675], [-74.23986281760035, 5.068816068742512], [-74.23955685398998, 5.068896876948766], [-74.23930725615891, 5.068969606499913], [-74.23904155340526, 5.069034272373852], [-74.23882415406848, 5.069082765268949], [-74.23850588741112, 5.069157739756345], [-74.23790794366299, 5.069273958995706], [-74.23772428936032, 5.06886404832691], [-74.23746040363595, 5.06833513077158], [-74.23655183155991, 5.068129630217268], [-74.23628794794404, 5.067630101122609], [-74.23610343170297, 5.067251030938023], [-74.23570521868062, 5.067501194779006], [-74.23534484814351, 5.067727586368035], [-74.23520715429042, 5.067720504982828], [-74.23507067765573, 5.067720538512104], [-74.2348978026015, 5.067711453122805], [-74.23465216588218, 5.067820993848398], [-74.23438833642786, 5.06793966080065], [-74.23406083231224, 5.068122210556272], [-74.2338152052596, 5.068286490493948], [-74.2337696417594, 5.067976297464311], [-74.2336785846079, 5.067666118812799], [-74.23363328706996, 5.067559309495574], [-74.23345110470265, 5.067593182157961], [-74.23318726322735, 5.067657108277523], [-74.23298711999018, 5.067775760942308], [-74.23285066084347, 5.067857906839425], [-74.2326752531858, 5.067858548827506], [-74.23246073236682, 5.0677740986758195], [-74.2323458050062, 5.067712668092975], [-74.23222516726992, 5.067765298513471], [-74.23216962679983, 5.067789526705069], [-74.23206514918961, 5.067836118340365], [-74.23196280467754, 5.0678817585573395], [-74.23180961452077, 5.0679816578559995], [-74.23156448340221, 5.068050852683939], [-74.23159515467738, 5.0681814324303565], [-74.2315798726502, 5.06835812041262], [-74.23153394930964, 5.068542497965732], [-74.23144973643814, 5.068796018434511], [-74.23137318230673, 5.069034172316622], [-74.2312966404349, 5.069310739215253], [-74.23120475894989, 5.069533534095172], [-74.2310975469812, 5.06971024062545], [-74.23093672618882, 5.069940734652089], [-74.2308742219335, 5.07002441248019], [-74.23076639990973, 5.070168753995192], [-74.230626064578, 5.0701084871855056], [-74.23043125943016, 5.070010869167315], [-74.23020720979574, 5.069815600188101], [-74.23016836741772, 5.069757201280228], [-74.23003184455803, 5.069551952017098], [-74.2299909197274, 5.069483592314572], [-74.22991492760899, 5.069356652765905], [-74.22972984287023, 5.069200436364082], [-74.22949606771587, 5.069073535320682], [-74.22921361105654, 5.068995468262169], [-74.22907475752633, 5.0689828403954476], [-74.22889220542373, 5.068966241069012], [-74.2287713791983, 5.068966268921251], [-74.22863898323169, 5.068966299734335], [-74.22837601818428, 5.068937057136189], [-74.22815197996654, 5.068800382194122], [-74.22812271516783, 5.068595302287199], [-74.22813044024329, 5.0685280425520975], [-74.22815187905209, 5.068341377987202], [-74.22813236511115, 5.068185124268862], [-74.2281121333737, 5.06805681626592], [-74.22810311020594, 5.06799957389196], [-74.22812253112743, 5.067755416588222], [-74.22811276193137, 5.067608924519389], [-74.22806401462292, 5.067394080605568], [-74.22803951442742, 5.067373030418754], [-74.22811313064852, 5.067266138568839], [-74.22818587127136, 5.067160514217033], [-74.22831270105843, 5.06701653874622], [-74.22847691096993, 5.06683012876544], [-74.228508252882, 5.06679589251364], [-74.22882156104171, 5.066453637837921], [-74.22906666294593, 5.066261538452084], [-74.22938071750266, 5.066100149550011], [-74.22921212439185, 5.065846684311559], [-74.22907164052033, 5.06572393056253], [-74.23008890817772, 5.0650454184424065], [-74.2300915468714, 5.065043658988104], [-74.230094277486, 5.065041837831573], [-74.23020936752265, 5.0649195304101156], [-74.23011615112782, 5.064794748001506], [-74.22990123177355, 5.064233336289535], [-74.22982457883407, 5.064041304436842], [-74.22976325665482, 5.0638646361670885], [-74.22968658011384, 5.063557375978884], [-74.22961757105077, 5.063280844137258], [-74.22951025381751, 5.06300432259953], [-74.22947956549183, 5.062789239099844], [-74.22947185755345, 5.062566464443873], [-74.22946879118714, 5.062278702493293], [-74.22948425788891, 5.062272458844011], [-74.22956358221589, 5.06224044057398], [-74.2296157031985, 5.062219395997432], [-74.22965461789742, 5.062203688675483], [-74.22976332297104, 5.062159808542068], [-74.22983381039096, 5.062163402498385], [-74.22982437729762, 5.0620644271923885], [-74.22973789283104, 5.0619257808888625], [-74.2296878733087, 5.061783392664687], [-74.22967705673396, 5.061752600594368], [-74.22961263540672, 5.061569208098645], [-74.22956220407222, 5.061425639846727], [-74.22951870106283, 5.06130179699801], [-74.22949739415509, 5.061270084733877], [-74.22945849212202, 5.061212190630811], [-74.22945601188, 5.061208498260163], [-74.22940739429856, 5.0611361428213435], [-74.22928336699292, 5.060951558663442], [-74.22913159025157, 5.060725672493821], [-74.22912665239862, 5.0607183220882055], [-74.22906895605999, 5.060516101954048], [-74.22902354810613, 5.0602065617272824], [-74.22900340998449, 5.060069283176135], [-74.22899730849278, 5.060027688575476], [-74.22892922607694, 5.059563604338428], [-74.22896869404303, 5.059563817193037], [-74.22921630868909, 5.059571178559943], [-74.22930903739496, 5.059573936008393], [-74.2293175063915, 5.05964172235489], [-74.22932106665702, 5.0596702507936735], [-74.22932485592851, 5.059700593859478], [-74.22933971349529, 5.0598937005342774], [-74.22934240887622, 5.059928675620864], [-74.22940369349821, 5.060147979087066], [-74.22945149459392, 5.060291670007966], [-74.22945905747359, 5.0603144063543875], [-74.22949998905455, 5.0604374596820945], [-74.229613762777, 5.060630432828111], [-74.22976266955173, 5.060792405366559], [-74.22977328915486, 5.060803956896023], [-74.22991615360158, 5.0609676020957295], [-74.2299988085832, 5.061027014590421], [-74.23008433596111, 5.061088489119588], [-74.23015137411203, 5.061166348782842], [-74.2303144236068, 5.061355720142042], [-74.23038814696409, 5.061449725269465], [-74.23047619681763, 5.0616174040398505], [-74.23047816828063, 5.061621162518333], [-74.230490898121, 5.061645432636688], [-74.23054566161177, 5.061749788663186], [-74.23067616880938, 5.06182446933905], [-74.23079898758213, 5.061933652557352], [-74.23079901288818, 5.061933674224825], [-74.23083307985779, 5.061963586015117], [-74.2308718422098, 5.061997624789966], [-74.23091664753609, 5.062036966961208], [-74.23097584022055, 5.0620886026512535], [-74.23102770386461, 5.0621338407438765], [-74.23107571017673, 5.062201559073968], [-74.23110754987385, 5.062247980726981], [-74.23113542234772, 5.062284538381468], [-74.2311530656441, 5.062313714997892], [-74.23115484970553, 5.0623166649238724], [-74.2311554923629, 5.062317725955465], [-74.2311611622565, 5.062327100827157], [-74.23118142205215, 5.062355193021476], [-74.23122516874157, 5.062415870918267], [-74.23124579503005, 5.062409211155755], [-74.23127318822728, 5.062463814451289], [-74.2313175589407, 5.062553856943525], [-74.23136392481429, 5.062648724635777], [-74.23142562229606, 5.062774690625247], [-74.23153877725304, 5.062882328487538], [-74.23168286260217, 5.063020235983344], [-74.23168860547945, 5.063025732668668], [-74.23170614718582, 5.063063663541988], [-74.23173020146295, 5.063115677238476], [-74.23174521898257, 5.063148158684569], [-74.23176655791184, 5.063194315245276], [-74.23179885885291, 5.063233133701814], [-74.23187510539358, 5.063324186765803], [-74.23189932531263, 5.063353575224429], [-74.23196246554848, 5.063408851477392], [-74.23199153801713, 5.063433860436642], [-74.23204200524381, 5.063516386693935], [-74.23204859605033, 5.063524126607225], [-74.23204914226619, 5.063524766176856], [-74.23203364759291, 5.063536247013268], [-74.2320319544946, 5.063537500690796], [-74.23223187864757, 5.06363006275551], [-74.2322662347404, 5.063684874398593], [-74.23226705380824, 5.063686174868478], [-74.23242897746171, 5.063762546049405], [-74.23257543421472, 5.063781665498414], [-74.23257987476305, 5.063782246981641], [-74.23269659157698, 5.063821768709371], [-74.2328171551768, 5.063845654213757], [-74.23285600686198, 5.063885298879847], [-74.23292751099805, 5.0639582572569095], [-74.23303185014508, 5.064063718266467], [-74.23305602545828, 5.0640709523504945], [-74.23310529642477, 5.064090164516756], [-74.23313040819755, 5.064075886645938], [-74.23313511687493, 5.064073206660568], [-74.23315714540334, 5.064063694895294], [-74.23319964576477, 5.064056481259924], [-74.23321747058148, 5.064054710051553], [-74.23322159343878, 5.064054300457888], [-74.23329408990132, 5.064047115617977], [-74.2333863553425, 5.064065114813517], [-74.23340907098452, 5.0640629814017], [-74.23345098873465, 5.064124004572347], [-74.23345254352093, 5.064129282109014], [-74.23345445202456, 5.064132182022797], [-74.2334568324486, 5.064135083751616], [-74.23346153648842, 5.0641370988574685], [-74.23346633953639, 5.064139935346523], [-74.23346794027574, 5.064142797844547], [-74.2334702174126, 5.064146429050958], [-74.23347209665296, 5.064148647694805], [-74.23347785721438, 5.064150608307668], [-74.2334824843006, 5.064153916540471], [-74.2334855472112, 5.064156038827579], [-74.23348748850695, 5.064160053410657], [-74.23348951528803, 5.064164895736433], [-74.2334923134566, 5.064169208180105], [-74.23349534650465, 5.064171761215954], [-74.23350075236841, 5.064175105966524], [-74.23350542676998, 5.0641790981489665], [-74.23350812149906, 5.064183583609328], [-74.23351107668952, 5.064187428869117], [-74.23351537063844, 5.064191118663588], [-74.23351947044893, 5.0641947355380195], [-74.23352471570259, 5.064198558336694], [-74.2335287473295, 5.06420190661098], [-74.23353208279137, 5.064205482415819], [-74.23353362832786, 5.064209211831446], [-74.2335373759781, 5.0642136473295745], [-74.23354131718663, 5.064219277719191], [-74.23354761033268, 5.064225157878971], [-74.23355087785069, 5.064230019555096], [-74.2335545251537, 5.064236735377787], [-74.2335597308302, 5.064242528033437], [-74.23356535606108, 5.064249734114979], [-74.23356817998224, 5.064255731274299], [-74.23357408477075, 5.064262850865428], [-74.23358116984983, 5.064271423149079], [-74.23358454910715, 5.064276681825634], [-74.23358670647441, 5.064280914961525], [-74.23358824281856, 5.064284078885129], [-74.23359128955491, 5.064287188355343], [-74.23359373550463, 5.064291335888508], [-74.2335980421697, 5.0642945931563945], [-74.23360320573353, 5.064298161856844], [-74.23360463306486, 5.064300938727413], [-74.23360768070197, 5.064304047290979], [-74.23361115684501, 5.0643075793959085], [-74.23361461283018, 5.06430999771214], [-74.23361840268225, 5.064311467146001], [-74.23362113661396, 5.064316640190104], [-74.23362715741085, 5.064322600491534], [-74.23363138178591, 5.064328143478264], [-74.23363621592307, 5.064331671184783], [-74.23364150532251, 5.064333077137471], [-74.23364378321087, 5.0643361518802825], [-74.23364695534825, 5.064340201213687], [-74.23365041065925, 5.064344167669119], [-74.23365490827584, 5.064349624177341], [-74.23366024274813, 5.064354814884344], [-74.23366599565175, 5.064359874500325], [-74.23366843798954, 5.06436402023029], [-74.23366991445326, 5.064367487380669], [-74.23367385794081, 5.064370035060486], [-74.23367880271785, 5.064373379783056], [-74.23368438198294, 5.064376804729407], [-74.23368946368176, 5.064379551108269], [-74.23369300331426, 5.064382779073731], [-74.23369533769939, 5.0643870969241265], [-74.23369798618243, 5.064391461226103], [-74.23370186442833, 5.064395292057478], [-74.23370480253678, 5.0644001208821265], [-74.23370962523438, 5.06440618118633], [-74.23371421062959, 5.064410342736584], [-74.23372054580757, 5.064412690416663], [-74.23372404548944, 5.064415787259883], [-74.23372674647746, 5.0644192891730775], [-74.23372891573253, 5.064424080556189], [-74.23373059297923, 5.064428745298356], [-74.2337321176818, 5.064432907254264], [-74.23373537077892, 5.064437776194857], [-74.23374110712638, 5.064441717490297], [-74.23374831030777, 5.064445474121546], [-74.23375410563577, 5.064449113096262], [-74.23375688554157, 5.064458069082381], [-74.23375982974741, 5.064461354280931], [-74.23376680159112, 5.064465882255129], [-74.23377014067358, 5.06446946257523], [-74.23377339647817, 5.06447433151035], [-74.23377673848908, 5.064479456343666], [-74.23378083475362, 5.064484056756051], [-74.23378341212722, 5.064486608848991], [-74.23378935816153, 5.064495967775006], [-74.23379541281612, 5.064503602821661], [-74.23380046075339, 5.064510433597576], [-74.23380683130226, 5.064518110568111], [-74.23381109495388, 5.064525331004651], [-74.23381648013044, 5.0645296602293675], [-74.23382081330365, 5.06453404755821], [-74.23382393075461, 5.064536855588602], [-74.23382711117473, 5.06454146498515], [-74.23383438635518, 5.064547025678421], [-74.23384359682355, 5.064552954560666], [-74.23384999947892, 5.064557100882124], [-74.23385626574415, 5.064559746375858], [-74.2338590329222, 5.064562940524932], [-74.23386278615042, 5.064567936089805], [-74.2338668106556, 5.064572285099672], [-74.23387271341896, 5.064577857457167], [-74.23387869765544, 5.064582141203036], [-74.23388237165564, 5.064585326384449], [-74.23388847482755, 5.064589995354512], [-74.23389063868092, 5.064594792175826], [-74.23389240478411, 5.06459873018149], [-74.23389474525743, 5.06460149897618], [-74.2339000561825, 5.064607117702471], [-74.23390526277262, 5.064612913066509], [-74.2339109921309, 5.0646184016063485], [-74.23391602622462, 5.064624116770643], [-74.2339225796483, 5.064628780357644], [-74.23392774320435, 5.064632342720699], [-74.23393397103726, 5.064638512540079], [-74.23393793761309, 5.064643717614458], [-74.23394468084963, 5.064649027781764], [-74.23395108080295, 5.064653175916601], [-74.23395454153491, 5.0646571441688275], [-74.23396038058078, 5.064661471621569], [-74.23396660644983, 5.064667081363926], [-74.23397552880132, 5.064676194835942], [-74.23398036969273, 5.064682806134446], [-74.23398297913035, 5.064687039310802], [-74.23398618993518, 5.06468911335731], [-74.23410389590317, 5.064629676017328], [-74.23415577928805, 5.064602804512332], [-74.23445632780256, 5.0646415789436645], [-74.23459578061116, 5.064729534138529], [-74.23471984810854, 5.064621696893726], [-74.2349683099678, 5.064405731292473], [-74.23496770925387, 5.064404904533616], [-74.23496810651912, 5.064404556326806], [-74.23491961329377, 5.064338261724861], [-74.23491620809561, 5.0643336029994295], [-74.23493788941984, 5.064326111385998], [-74.235206921582, 5.064182487106697], [-74.23532885714647, 5.064117682304896], [-74.23544626582672, 5.064054838716224], [-74.2355739770862, 5.064202455130806], [-74.23559051782486, 5.064221568515654], [-74.23563263700211, 5.06427024853788], [-74.23574278698479, 5.064380650848648], [-74.23582800608963, 5.064466064534181], [-74.23587692047593, 5.064515089861977], [-74.23605282301365, 5.064789336015922], [-74.23611150172877, 5.065063606964841], [-74.2361172084627, 5.065200137922155], [-74.23613377351087, 5.0651935527095615], [-74.23617684498404, 5.0651782378832655], [-74.23621991645282, 5.0651629221497645], [-74.23624170733318, 5.065156577584512], [-74.23626349821295, 5.065150233018627], [-74.23628559595186, 5.065145349140319], [-74.23630769369025, 5.065140465261332], [-74.23631888463103, 5.065138712065931], [-74.2363300755734, 5.065136959775175], [-74.23634137848153, 5.0651357230142215], [-74.23635268228844, 5.065134484441739], [-74.23637557952148, 5.065133417347711], [-74.23639847675253, 5.065132349348082], [-74.2364216846228, 5.065132831605083], [-74.23644489339695, 5.065133314764325], [-74.23648712750702, 5.065136998991866], [-74.23653875549712, 5.065141502218044], [-74.23665199025241, 5.065156648654266], [-74.23676522591056, 5.065171795067664], [-74.23682558127466, 5.065180130666522], [-74.23688593664068, 5.0651884671641945], [-74.23691802019356, 5.065193903483245], [-74.23695010374489, 5.065199338895764], [-74.23699913280848, 5.065210368948382], [-74.23704816277348, 5.065221398090321], [-74.23708078326777, 5.065231134858167], [-74.23711340466329, 5.0652408707175764], [-74.23717817377022, 5.065263683003516], [-74.23724294378263, 5.065286495280113], [-74.23729125239694, 5.065303483977916], [-74.23733956191532, 5.065320472669778], [-74.23738222485125, 5.065333285583325], [-74.23742488868884, 5.065346097587088], [-74.23744584346386, 5.065351332575518], [-74.23746679824082, 5.065356568467996], [-74.2374973391562, 5.065362655551807], [-74.23752788097416, 5.065368742632325], [-74.23754311226139, 5.0653706425635034], [-74.23754121993642, 5.065375784618599], [-74.23753352996933, 5.065396481553293], [-74.23752792710557, 5.065411496791512], [-74.23751856814154, 5.065437100102692], [-74.23751308314269, 5.065451936867246], [-74.23750670532273, 5.065468925176289], [-74.2375013403309, 5.0654837608065435], [-74.23749639319784, 5.065496741674725], [-74.23749144416432, 5.065510621026366], [-74.23748786817139, 5.065520072309108], [-74.23748441015739, 5.06552940483564], [-74.23748261247941, 5.065534496040189], [-74.23748137273752, 5.06553784622126], [-74.23748047680282, 5.065540258357989], [-74.23747891202011, 5.065544450637307], [-74.23747685188398, 5.06555007889824], [-74.23747620545987, 5.065551788422475], [-74.23747507780456, 5.065554768320453], [-74.23747366594364, 5.065558711483569], [-74.23747238841423, 5.065562119644981], [-74.23746985161696, 5.065569049034581], [-74.23746897369253, 5.065571442135779], [-74.2374671422274, 5.065576322583414], [-74.23746511977018, 5.065581835860967], [-74.23746350842961, 5.065586219144983], [-74.23746244015896, 5.0655891102576645], [-74.23746182981571, 5.065590813379193], [-74.23746078119655, 5.06559359949593], [-74.23746013754989, 5.065595346112214], [-74.23745932154846, 5.0655975617515345], [-74.23745912588815, 5.065598112252372], [-74.2374587973103, 5.065598992359522], [-74.23745863478128, 5.0655994088845855], [-74.23745853787925, 5.065599697705428], [-74.23745842744238, 5.065599986552154], [-74.23745823446494, 5.065600524380477], [-74.23745798398657, 5.0656011926119], [-74.23745772905511, 5.065601891615499], [-74.23745760782305, 5.065602197674333], [-74.23745742379829, 5.065602698388176], [-74.23745738609858, 5.065602802513824], [-74.23745685832168, 5.06560427022594], [-74.23745684485392, 5.065604305539414], [-74.23745488944273, 5.065609488431816], [-74.23743511262877, 5.0656618832902645], [-74.23743570535088, 5.065661826963026], [-74.23743454087554, 5.065664899222427], [-74.23746470012048, 5.06566197237721], [-74.23750168266595, 5.065658518546087], [-74.23754606175117, 5.065654200945684], [-74.23758962991579, 5.065650026949182], [-74.23762799707322, 5.06564633249678], [-74.23766760384585, 5.0656425424751435], [-74.23770072136134, 5.065639375613888], [-74.23774767892682, 5.065634865771412], [-74.2377932984319, 5.065630404630979], [-74.2378372481829, 5.065626182838269], [-74.23786212624375, 5.065623807157472], [-74.2378635358171, 5.065630993202991], [-74.23793853582534, 5.066013378553077], [-74.23802658499879, 5.066561935003339], [-74.23863226856234, 5.066581378160661], [-74.23859314953633, 5.066385467828297], [-74.23859805301215, 5.066296494500541], [-74.23938686566471, 5.066122340960982], [-74.23961944110066, 5.0660709942195545], [-74.23939408818421, 5.065885685086013], [-74.2397090249756, 5.065481416680979], [-74.23960239285897, 5.065448912900653], [-74.23951097739706, 5.065421046974888], [-74.23924177051487, 5.065311856776293], [-74.23901743451657, 5.065247642022224], [-74.23882514275171, 5.065170571774366], [-74.23873948811429, 5.065096428884557], [-74.2387040014328, 5.065036240788424], [-74.2387040187064, 5.065033938910807], [-74.23870932169872, 5.0650344236921985], [-74.23870952174823, 5.065030017774226], [-74.23871388933644, 5.064933974359772], [-74.23871725397815, 5.064859964159622], [-74.23871588892052, 5.064860049110636], [-74.23870285095428, 5.064860862160312], [-74.23870274450232, 5.064860400004574], [-74.23868297175322, 5.0647736174149305], [-74.23866034299883, 5.064754539313219], [-74.23859399423101, 5.06458823407096], [-74.23857548942487, 5.064567896714407], [-74.23852573397672, 5.064513216358785], [-74.23846147576694, 5.06444447490456], [-74.23845731298569, 5.0644400221416275], [-74.23840343638209, 5.064380940503155], [-74.23840158455363, 5.064378909121786], [-74.23834342762399, 5.064315241024584], [-74.23832595267218, 5.064289837446578], [-74.23829556523657, 5.0642463044005535], [-74.23827581996491, 5.064218017000134], [-74.23822691790104, 5.064149442472234], [-74.23822209021479, 5.0641426737521495], [-74.23821373197431, 5.064130816782887], [-74.2382153252562, 5.064116471539059], [-74.2382684655788, 5.063990161084667], [-74.23838753533613, 5.0638136828866696], [-74.23853153146838, 5.063704863253188], [-74.23868536636327, 5.06363627447895], [-74.23892355706664, 5.0635573957416975], [-74.23938655576033, 5.06350003366235], [-74.23954912480998, 5.063462159056609], [-74.23973020346963, 5.063387002345075], [-74.24025899239814, 5.06311389140281], [-74.24075332979545, 5.062927708162899], [-74.24086908972309, 5.062905013455037], [-74.2409085429916, 5.062909806624675], [-74.2410521393028, 5.062828293677567], [-74.2411575464209, 5.062770356425336], [-74.24119470348879, 5.062748291008165], [-74.24122410606951, 5.062727683632828], [-74.24123650291934, 5.062717191185749], [-74.24124766451139, 5.0627062369382045], [-74.24126664199078, 5.062682964971875], [-74.24128160583726, 5.0626582195231835], [-74.24128962730256, 5.062641090523272], [-74.24130170266402, 5.0626058556949864], [-74.24130925067574, 5.062569465053968], [-74.24131121161865, 5.062550167076792], [-74.24131163735308, 5.062518850707028], [-74.24130596931944, 5.062464143051052], [-74.24130341959663, 5.062451964642113], [-74.2412937260983, 5.062405664981028], [-74.24128469182507, 5.062373366025952], [-74.24126706532722, 5.062321970288445], [-74.24124406500508, 5.062267944609853], [-74.24123039531734, 5.062240276320955], [-74.24118204613539, 5.062156460333014], [-74.24111552051815, 5.062049878813716], [-74.24108887797553, 5.062002229079739], [-74.24107858339418, 5.061980456406184], [-74.24106402747587, 5.061941340313045], [-74.24105651579664, 5.061908281103575], [-74.24105481557505, 5.0618896895628795], [-74.24105493841061, 5.061878865056729], [-74.24105773045152, 5.061861013185439], [-74.24106055162099, 5.061853235439548], [-74.241068727617, 5.061842381925549], [-74.24107222395267, 5.06184087866431], [-74.24108027868847, 5.061837415890274], [-74.24108983825548, 5.061837140600228], [-74.24111343938108, 5.061843302375009], [-74.24114662146421, 5.061859462961348], [-74.24117430724057, 5.061876901723593], [-74.24122463056636, 5.061908600362197], [-74.24130583305543, 5.061961083053323], [-74.2413495772658, 5.061985524125317], [-74.24141246683442, 5.062014173865163], [-74.241443474241, 5.062025552144957], [-74.24148573587333, 5.062037179382572], [-74.24151669657529, 5.062040626163748], [-74.24153016802619, 5.06203957246547], [-74.24154861739306, 5.062034160693998], [-74.24155730080942, 5.062029628125316], [-74.24157416211325, 5.06201665788273], [-74.24159437875048, 5.061993069568056], [-74.24159618658763, 5.061990959698526], [-74.2416065259702, 5.061974707540639], [-74.24162037945891, 5.061946399259849], [-74.24163137330213, 5.061913733458354], [-74.24163548994956, 5.061895889906064], [-74.24163855092982, 5.061877125469721], [-74.24164147176005, 5.061837390469819], [-74.24164110508359, 5.061809772685359], [-74.24163495766949, 5.061753518726739], [-74.24162574044067, 5.061711868894394], [-74.2416053353812, 5.061652733302669], [-74.24158877829659, 5.061616086677377], [-74.24155354606647, 5.061550669351609], [-74.24150699299332, 5.061469457609083], [-74.24148765633778, 5.061428796226769], [-74.24147082639332, 5.061382961749742], [-74.24146054637558, 5.061348475537423], [-74.24144072201163, 5.061267816050408], [-74.24142548171297, 5.061196291806607], [-74.24139570135914, 5.061041898340835], [-74.24137898505323, 5.060945377862961], [-74.24137266981141, 5.060900933824961], [-74.24136697321673, 5.060839741429583], [-74.2413667067341, 5.060785150089053], [-74.2413693226912, 5.060751138608542], [-74.24137999240016, 5.060684281480598], [-74.24139153072394, 5.060631458136608], [-74.24140853781638, 5.06055344881259], [-74.24141654432894, 5.060510023285665], [-74.24142918975204, 5.0604141016099025], [-74.2414332175406, 5.060363839709184], [-74.24143380636865, 5.060345175921857], [-74.2414355790419, 5.060289117591891], [-74.24143311950243, 5.060225780920186], [-74.24142982004469, 5.060195180158033], [-74.24142172003992, 5.060150266322527], [-74.2414203037965, 5.060145267234456], [-74.24128594578274, 5.0601116205118535], [-74.24115711544886, 5.060103578405119], [-74.2410202348941, 5.060143979068518], [-74.24086725507627, 5.060168242455505], [-74.240706179846, 5.060063307748743], [-74.24055317328741, 5.059974528346732], [-74.24038406400082, 5.059885756208963], [-74.2402310741068, 5.059877718546408], [-74.24016241851118, 5.05987773237196], [-74.24009418791121, 5.059877748995842], [-74.23994925213344, 5.05987778487247], [-74.23973987701741, 5.059805167237183], [-74.23956271562564, 5.059740616718447], [-74.23933723870064, 5.059668002599033], [-74.23929529523784, 5.059651835117633], [-74.23923052472378, 5.059652638546016], [-74.23908159331205, 5.059654482438197], [-74.2390713874269, 5.0596546096331005], [-74.23904154522391, 5.0596352584735085], [-74.23888276140768, 5.059532268697034], [-74.23887044214544, 5.059494364297628], [-74.2387711516586, 5.059435398394103], [-74.23860876397983, 5.059339006983807], [-74.23860246860727, 5.059335264950126], [-74.23847571928178, 5.059259462242997], [-74.23844946625128, 5.059243759631477], [-74.23831011675287, 5.0591607153188685], [-74.23837675478006, 5.059092374963451], [-74.23836033087383, 5.059070587688271], [-74.23831414500339, 5.059010401826616], [-74.2382496869344, 5.058897381729965], [-74.23817719097116, 5.058719756110332], [-74.23816521509626, 5.058684932821267], [-74.2381594435548, 5.058668148703518], [-74.23815912417582, 5.058667220975263], [-74.23816175596077, 5.058574494281264], [-74.23816178613984, 5.058573281773534], [-74.23813233447974, 5.058572798786648], [-74.23792797303705, 5.058569450593616], [-74.23787009297266, 5.058568501643143], [-74.23775895014491, 5.058566679958146], [-74.23762647044539, 5.058564509037019], [-74.23758512676562, 5.058563831585634], [-74.23752788825925, 5.058562891331801], [-74.23752708104013, 5.05856117825169], [-74.23752657211759, 5.05856117017561], [-74.23751792945063, 5.058561029245748], [-74.23751941356197, 5.058563773425393], [-74.23751932967423, 5.058563788062648], [-74.23751925661253, 5.058563801774399], [-74.23752521418763, 5.058574501579635], [-74.23753213149216, 5.05858692412649], [-74.23752822978292, 5.058588778303653], [-74.23748361164094, 5.0586099800667315], [-74.23733187893728, 5.058667076777172], [-74.23698131298569, 5.058753056557597], [-74.23695697255656, 5.058759025940951], [-74.23695120942529, 5.058760438500739], [-74.23694880454224, 5.0587570038946525], [-74.2369476932182, 5.058755277821915], [-74.23694658165616, 5.058752475925928], [-74.23694572234218, 5.058751363740664], [-74.2369451384597, 5.058749894532876], [-74.23694115122544, 5.058744724800323], [-74.23693772611811, 5.058741446865151], [-74.23693530555835, 5.05873878499996], [-74.23693438541652, 5.058737476586189], [-74.23693296735138, 5.058734349542341], [-74.23693351627735, 5.058731664816378], [-74.23693204620052, 5.058729183004119], [-74.23693205332283, 5.058729132320947], [-74.23693206675792, 5.0587290798160796], [-74.23693000104758, 5.058725592987939], [-74.23692734746432, 5.058722337104873], [-74.23692316345368, 5.05871903075959], [-74.23691260158031, 5.058710350233488], [-74.23690243242636, 5.058704632222866], [-74.23689252837404, 5.058699294632593], [-74.23688609989732, 5.058696252253503], [-74.23688287393495, 5.058693783746144], [-74.23688039768331, 5.05869077906251], [-74.23687622178007, 5.058689366476824], [-74.23687018889741, 5.058687949292875], [-74.23686312136208, 5.0586847923173055], [-74.2368574901712, 5.058681558404866], [-74.23685155458074, 5.058678156778088], [-74.2368477515768, 5.058675921004463], [-74.23684383084816, 5.0586729869392], [-74.23683937507238, 5.058671968481567], [-74.23683501084241, 5.05866974101775], [-74.23683213777034, 5.058668267131688], [-74.23683034672273, 5.0586673449261665], [-74.23683115574333, 5.058669057099303], [-74.23682625679382, 5.058666066088437], [-74.23682178640634, 5.058664480340218], [-74.236817636828, 5.0586636259740105], [-74.23681355698756, 5.058661007087499], [-74.2368099918428, 5.0586585853726715], [-74.23680511723845, 5.058657486281042], [-74.23680064145262, 5.058655908686284], [-74.2367939992223, 5.058651490492109], [-74.23678691005128, 5.05864644249572], [-74.2367794798758, 5.058641432247546], [-74.23677360252896, 5.05863971708185], [-74.23676703131459, 5.0586375345469765], [-74.23676061563218, 5.05863505222174], [-74.23675725252431, 5.058632111662491], [-74.2367537778604, 5.058629820972563], [-74.23674919862755, 5.0586288868975515], [-74.23674476484027, 5.058627092971639], [-74.23673970315294, 5.058624408097682], [-74.23673594878125, 5.058621172410981], [-74.23673288374317, 5.058618392339473], [-74.23672823351666, 5.058615709394443], [-74.23672786135073, 5.0586154929494915], [-74.23672296420315, 5.058612500124544], [-74.23671844281766, 5.0586092414718165], [-74.23671423502263, 5.058606714214959], [-74.23670894210309, 5.058603428080779], [-74.23670561287652, 5.0586002730155935], [-74.23670176713772, 5.058596914448309], [-74.2366981892038, 5.058593934486878], [-74.23669350219272, 5.058592312958509], [-74.23668906660285, 5.058590519940348], [-74.23668643605599, 5.058587990577494], [-74.23668439570204, 5.058585501709536], [-74.23668119912807, 5.058580926737847], [-74.2366785794206, 5.058577452728459], [-74.23667818076812, 5.058577068038642], [-74.23667782797739, 5.058576600923189], [-74.2366735015159, 5.058572403605879], [-74.2366709255885, 5.05856917652711], [-74.23666716959845, 5.058564612576022], [-74.2366629511557, 5.058558852438709], [-74.23665844923099, 5.0585534864364945], [-74.23665483595754, 5.058548050877029], [-74.23665015866295, 5.058541090022416], [-74.23664732340247, 5.058536242916628], [-74.23664483455013, 5.058531352623369], [-74.23664228440269, 5.058527445979895], [-74.23663955297867, 5.0585240617600515], [-74.23663597702722, 5.058519749003331], [-74.23663338939141, 5.058516057777061], [-74.23663111788866, 5.058512536052439], [-74.23662812638851, 5.058506664995272], [-74.23662631027138, 5.058502993107133], [-74.23662358478174, 5.05849750608816], [-74.23662198440888, 5.058493881743367], [-74.2366213274873, 5.058490536090237], [-74.23662009926552, 5.058486645019827], [-74.23661926771291, 5.058483044542442], [-74.23661870992856, 5.058482489146427], [-74.2366184992994, 5.058482284155654], [-74.23661848657598, 5.05848223622481], [-74.23661847925096, 5.0584821801403175], [-74.23661601850317, 5.058479736410234], [-74.23661325951035, 5.058478465888311], [-74.23661190062481, 5.05847704249501], [-74.23661047111726, 5.0584750166303705], [-74.23660787520367, 5.058470767149487], [-74.23660565234175, 5.058466250036475], [-74.2366023079691, 5.05845986843264], [-74.23659932097937, 5.058453996461772], [-74.23659668036412, 5.058449965126308], [-74.2365960674871, 5.058449382690986], [-74.23659588016528, 5.058449097127275], [-74.23659311321018, 5.058446483876434], [-74.23659180591297, 5.058445142722688], [-74.23658743140915, 5.058439402788253], [-74.23658027155079, 5.058429437259414], [-74.23657274406865, 5.0584197465907], [-74.23656509619101, 5.058407474717252], [-74.2365600231267, 5.058400220552242], [-74.23655599661664, 5.058395272570383], [-74.23655273965853, 5.058391684864926], [-74.23655271076044, 5.058391672252686], [-74.23655268005942, 5.058391660548681], [-74.23655191057891, 5.05839081330167], [-74.2365490263194, 5.058389624451657], [-74.23654756305346, 5.058388828293469], [-74.2365467894743, 5.0583877231822605], [-74.23654509575633, 5.058385310561225], [-74.23654387367414, 5.058382752269838], [-74.23654359504985, 5.058380476289504], [-74.23654334398863, 5.058377984910839], [-74.23654217236029, 5.058374435751806], [-74.23653994121476, 5.058371258683734], [-74.2365386113561, 5.058368013844157], [-74.2365362785677, 5.058365480292796], [-74.23653302251219, 5.0583618925854505], [-74.23652273293862, 5.058346920358648], [-74.2365203049966, 5.058342268819158], [-74.23651780549358, 5.058337470836342], [-74.23651703801437, 5.0583362517068675], [-74.23651394546754, 5.058331337229954], [-74.23651284038957, 5.058329573141879], [-74.23651133485131, 5.0583274225576265], [-74.23650732308468, 5.058321684644465], [-74.23650278458204, 5.058316536770424], [-74.23650205159346, 5.0583154243431405], [-74.23648043258089, 5.058282892294126], [-74.23647450547321, 5.058273973090265], [-74.23647362493273, 5.058273086243219], [-74.23647134783867, 5.058270896414515], [-74.23646852953715, 5.058269278556271], [-74.2364668678894, 5.058267598773039], [-74.23646475461383, 5.058263770013472], [-74.23646331427081, 5.058259837725751], [-74.23645793788964, 5.058251083051663], [-74.23644811636346, 5.05823597420751], [-74.23644154350613, 5.05822579130531], [-74.23643583426946, 5.058217088840456], [-74.23643213251924, 5.058210198506623], [-74.23642846987941, 5.058204422829037], [-74.23642489139527, 5.058198773664799], [-74.23642207976245, 5.058194488401639], [-74.23641994268557, 5.058191430588801], [-74.23641722062231, 5.058187271828662], [-74.23641680711683, 5.0581871432292935], [-74.23641630306656, 5.058186374194336], [-74.23641368391941, 5.058185571193173], [-74.23641150489566, 5.058183707814893], [-74.23640933162581, 5.05818107261922], [-74.23640741028629, 5.0581780587305305], [-74.23640623849178, 5.058175847791292], [-74.23640594736023, 5.058175063873002], [-74.23640484753197, 5.058172261952855], [-74.23640296458682, 5.0581690344547505], [-74.2364010798216, 5.058165798816796], [-74.23639743178504, 5.05816058590539], [-74.23639502510274, 5.058157151299372], [-74.23639210839927, 5.058152178577782], [-74.23638896137484, 5.058146609118363], [-74.23638836703827, 5.058145811301609], [-74.23638580784612, 5.05814236703358], [-74.23638346172831, 5.058136612368622], [-74.23638301422862, 5.058135687597702], [-74.23638091447599, 5.058131376545909], [-74.23637990196478, 5.058127514016958], [-74.2363796651473, 5.058126822286055], [-74.23637849281054, 5.058123374466896], [-74.23637768508924, 5.058121870397471], [-74.2363766410226, 5.058119923420126], [-74.23637633580952, 5.058119326825209], [-74.23637506698344, 5.058116860913426], [-74.23637258713583, 5.058113860757621], [-74.236370145674, 5.05811064246836], [-74.23636971757621, 5.058109956531318], [-74.2363684097832, 5.0581078779542885], [-74.2363675620063, 5.058107138529187], [-74.23636751132047, 5.058107056287805], [-74.23636745882827, 5.058106973145075], [-74.23636505286736, 5.058104869518992], [-74.23636248418508, 5.0581030810787], [-74.23635898015586, 5.0581010048825705], [-74.23635739847737, 5.0580996226301265], [-74.23635370249532, 5.058094344663151], [-74.23635183143264, 5.058091672697969], [-74.23634937609273, 5.058089224431845], [-74.23634882520814, 5.058088500726868], [-74.23634711557295, 5.058086258240343], [-74.23634165470416, 5.058080053491836], [-74.2363376500054, 5.058075661021928], [-74.23633360511631, 5.0580714866888785], [-74.23633258248206, 5.05807037300428], [-74.23632885449246, 5.058066296691275], [-74.23632788548622, 5.058065389201961], [-74.236324561795, 5.0580622956504255], [-74.23632394086057, 5.05806127077598], [-74.23632102442429, 5.058056438299493], [-74.2363173005113, 5.058051657128421], [-74.23631044923216, 5.058044533026778], [-74.23630935804273, 5.0580434303307085], [-74.23630601758988, 5.058040062652343], [-74.23630197648512, 5.05803455371095], [-74.23629770488147, 5.058029780823161], [-74.23629417921326, 5.058025810891879], [-74.23629062509168, 5.058022062694322], [-74.236286719323, 5.05801702309308], [-74.23628382353473, 5.058012610410672], [-74.23628151001866, 5.058009295061646], [-74.23628082066197, 5.058008826778352], [-74.23628050942641, 5.058008384918048], [-74.23627764086228, 5.0580064314684225], [-74.23627408938198, 5.058004550802004], [-74.23626750036988, 5.057994886386067], [-74.23626207264415, 5.057987126197789], [-74.23625643009227, 5.057979326607468], [-74.23624808513941, 5.057970596594991], [-74.23623852493813, 5.057957201869542], [-74.23623252608515, 5.057947559852236], [-74.23622772536858, 5.057940696947681], [-74.23622200874094, 5.057933327284882], [-74.23621637989368, 5.057926092271851], [-74.23621353708431, 5.05792201879313], [-74.23621001340193, 5.057916716970909], [-74.23620745226677, 5.057912247550993], [-74.2361987438023, 5.057901678743829], [-74.23619638634216, 5.057898980561383], [-74.23619218322855, 5.057894161396286], [-74.23618937868234, 5.057890280569795], [-74.23618645110045, 5.057886230777773], [-74.23618474199452, 5.057883791040028], [-74.23617895238226, 5.0578755239402], [-74.23617763593978, 5.057873641723684], [-74.23616395193837, 5.057857280739157], [-74.23616316526189, 5.057856405474957], [-74.23615475147975, 5.057847064842312], [-74.23615395346741, 5.0578459217747085], [-74.23614949747997, 5.057839556764168], [-74.23614856226102, 5.057838385004255], [-74.2361418429608, 5.05782995862044], [-74.23614124486801, 5.057829082996452], [-74.23613164928827, 5.0578151110643805], [-74.236131350132, 5.057815328790437], [-74.23613056203148, 5.057814178465375]]]], "type": "MultiPolygon"}}, {"type": "Feature", "properties": {"AREA_HA": 18.338549610969977, "Nombre": "Per\u00edmetro Suelo Suburbano de Vivienda", "Area": 1967636.6838959455, "Perimetro": 13147.478527481142, "Shape_Length": 2094.481532005124, "Shape_Area": 183385.49610969977}, "geometry": {"coordinates": [[[[-74.23418091868386, 5.055935642707837], [-74.23425504395631, 5.056178710380584], [-74.23430221406339, 5.056327246351468], [-74.23446387246891, 5.056543284233835], [-74.23459131407786, 5.056676822883234], [-74.23461204804896, 5.05669854870685], [-74.23466124385892, 5.056738892068575], [-74.23476021749262, 5.056820056314418], [-74.23485394498552, 5.056953552344959], [-74.23488819280342, 5.057002334413205], [-74.23487474827914, 5.057076615451073], [-74.23485457254226, 5.057191409721983], [-74.2349286658235, 5.057285923004936], [-74.23502969927884, 5.05744120475834], [-74.23496241107372, 5.05763703533403], [-74.23493553287547, 5.057859866381889], [-74.23494865937077, 5.057894398043704], [-74.23496645247019, 5.057941210002463], [-74.23493712772301, 5.057961511116313], [-74.23488663924955, 5.058005214874816], [-74.23472871656872, 5.058141918432747], [-74.23466993042838, 5.058192806839158], [-74.23465732676841, 5.058203716680261], [-74.23453279004596, 5.058311517435694], [-74.23442790771044, 5.058397954248504], [-74.23415578088108, 5.058622214347503], [-74.23426356720212, 5.058845008767026], [-74.23435112884394, 5.058946276204329], [-74.23443198879205, 5.0591893381432405], [-74.23447765105253, 5.059391892526022], [-74.23447917072707, 5.0593986467861605], [-74.2345129002758, 5.059655225047424], [-74.23451383748592, 5.059658875093302], [-74.23457356093276, 5.059891542934043], [-74.23412921437125, 5.060236010298951], [-74.23389884901643, 5.0603698207182575], [-74.23387336842448, 5.0603846186480625], [-74.23344919840653, 5.060594040730505], [-74.23344748444177, 5.060591418221592], [-74.23335507804765, 5.060643082701504], [-74.23321537448093, 5.060674662573436], [-74.23298876823836, 5.060720538369961], [-74.23302554385309, 5.060886202438762], [-74.23290218429459, 5.060903178187577], [-74.23277874427276, 5.060921030833553], [-74.2326632914569, 5.06094405194136], [-74.23254491725345, 5.0609677327720854], [-74.23252295458624, 5.060870886044082], [-74.23248542899746, 5.0607022202606124], [-74.23241678414232, 5.060729993000062], [-74.23229364417084, 5.060780526004853], [-74.23228500739306, 5.06076587809564], [-74.23225659986018, 5.060777951715464], [-74.23225587768282, 5.060778259821985], [-74.23218079082746, 5.060810168041898], [-74.23213937889327, 5.060827422942968], [-74.23206523407823, 5.060858392875888], [-74.23203481872012, 5.060870865712072], [-74.2320167060234, 5.060840622329279], [-74.23175301133404, 5.0604642881412065], [-74.23161708768995, 5.060270298097013], [-74.23172868928206, 5.060247233849614], [-74.23169070575743, 5.060111105093715], [-74.2316310356277, 5.06001541487111], [-74.23145801381622, 5.059859935486683], [-74.23126330987661, 5.059634591182874], [-74.23085252784364, 5.059749553283792], [-74.23081331307287, 5.059654118143895], [-74.23081331044635, 5.0596388801440595], [-74.23081328629922, 5.059530596345117], [-74.23081192175376, 5.05950468500987], [-74.23080766449165, 5.05942392289583], [-74.23080763841917, 5.059306019096705], [-74.23081088125134, 5.059184661737901], [-74.23083000455057, 5.059182492754241], [-74.23113793207824, 5.05909259055844], [-74.2310314852237, 5.058817504421809], [-74.23110552898996, 5.0587880422650375], [-74.23135620081297, 5.058688300362404], [-74.23104817306515, 5.0583458826845575], [-74.23101942396605, 5.058311820318144], [-74.23098160292523, 5.058269148670088], [-74.23090134519526, 5.058169318075837], [-74.23076879251464, 5.058004438237661], [-74.23071232172956, 5.057934194242169], [-74.2307000805605, 5.0579216106901175], [-74.23065263916715, 5.057883784476513], [-74.23166300757346, 5.0569845744948365], [-74.23189079660864, 5.0568713825383265], [-74.23206088154211, 5.056786866146496], [-74.23259171169995, 5.056541505125383], [-74.23306564406823, 5.056257530435114], [-74.23318776042672, 5.056184358255056], [-74.23317023833782, 5.056158595307926], [-74.23309683020736, 5.056050683729808], [-74.23296116304613, 5.055879230467835], [-74.23294191304834, 5.055854902214386], [-74.2328874008177, 5.055832140303484], [-74.2329185644098, 5.055600930581132], [-74.23292164948272, 5.055578060935745], [-74.23292163951247, 5.055536530836605], [-74.23292161964964, 5.055443014592221], [-74.23286771922363, 5.055321486389226], [-74.23291334303967, 5.054996124851387], [-74.23315744233629, 5.055097160995558], [-74.2331720974725, 5.055103227956844], [-74.23320421523708, 5.055116522845022], [-74.23344449280364, 5.055211573537425], [-74.23358981139195, 5.0552425403205286], [-74.23373708699509, 5.055273924987368], [-74.23381722108748, 5.055577852768295], [-74.2338303165878, 5.0556914219399784], [-74.23385770482803, 5.055928962466865], [-74.23418091868386, 5.055935642707837]]]], "type": "MultiPolygon"}}]}