{"type": "FeatureCollection", "features": [{"type": "Feature", "properties": {"OBJECTID": 2, "COD_DPTO": "25", "COD_MPIO": "777", "COD_SECTVD": "010005", "NOMBRE_PRE": "LA ESTANCIA", "AREA_HA": 1.96908881495, "AREA_M2": 19690.8906136, "VIVIENDAS": 1, "VIGENCIA": 2009, "FUENTE": "CATASTRO IGAC", "SIMBOLO": 0, "Shape_Leng": 0.00562686290421, "COD_PRED": "257770100050104", "DEPARTAMEN": 25.0, "MUNICIPIO": 777.0, "NUM_\u00b4RED": "0100050104", "TIPO": 1.0, "NUM_ORDEN": 1.0, "TOTAL_REG": 1.0, "NOMBRE": "GOMEZ ROLDAN YOVANNY-FRANCISCO", "ESTADO": " ", "NUM_DOC": 91179830.0, "DIRECCI\u00d3N": "LA ESTANCIA", "COMUNA": 0.0, "DEST_ECO": "D", "AREA_T": 20370.0, "AREA_C": 90.0, "EVAL\u00daO": 33005000.0, "ESPACIOS": 0.0, "VIGENCIA_1": 1012017.0, "COD_PRED_1": "257770100050104", "RANGO": "1 - 3 ha", "Area_ha_1": 1.96908881495, "Shape_Le_1": 212.044435152, "COD_PREANT": "25777000100050104000", "Shape_Length": 212.0444351523552, "Shape_Area": 377.09072723050963}, "geometry": {"coordinates": [[[[-74.26893980981764, 5.035905683176927], [-74.26911282487418, 5.03567029686056], [-74.26912503857957, 5.0356775377104075], [-74.26911170109393, 5.035693330824291], [-74.26896626278317, 5.035925251356445], [-74.26893980981764, 5.035905683176927]]], [[[-74.26862111967216, 5.0363324651966215], [-74.26888794738784, 5.036050135750778], [-74.26867971336536, 5.036382192975322], [-74.26845835202303, 5.03651462089077], [-74.26862111967216, 5.0363324651966215]]]], "type": "MultiPolygon"}}, {"type": "Feature", "properties": {"OBJECTID": 3, "COD_DPTO": "25", "COD_MPIO": "777", "COD_SECTVD": "010007", "NOMBRE_PRE": "EL PEDREGAL", "AREA_HA": 0.942840998328, "AREA_M2": 9428.41036311, "VIVIENDAS": 0, "VIGENCIA": 2009, "FUENTE": "CATASTRO IGAC", "SIMBOLO": 0, "Shape_Leng": 0.00449947266822, "COD_PRED": "257770100070144", "DEPARTAMEN": 25.0, "MUNICIPIO": 777.0, "NUM_\u00b4RED": "0100070144", "TIPO": 1.0, "NUM_ORDEN": 1.0, "TOTAL_REG": 1.0, "NOMBRE": "LEON INFANTE ELSA", "ESTADO": " ", "NUM_DOC": 41336603.0, "DIRECCI\u00d3N": "EL PEDREGAL", "COMUNA": 0.0, "DEST_ECO": "D", "AREA_T": 10000.0, "AREA_C": 0.0, "EVAL\u00daO": 4952000.0, "ESPACIOS": 0.0, "VIGENCIA_1": 1012017.0, "COD_PRED_1": "257770100070144", "RANGO": "<1", "Area_ha_1": 0.942840998328, "Shape_Le_1": 284.864781814, "COD_PREANT": "25777000100070144000", "Shape_Length": 284.86478181388617, "Shape_Area": 2608.9215437343214}, "geometry": {"coordinates": [[[[-74.2707933365471, 5.03407579325303], [-74.27117997759993, 5.033716200863923], [-74.27140916962172, 5.033608681696508], [-74.27154240596835, 5.033510496518907], [-74.27161787011663, 5.033600142658536], [-74.27166091848899, 5.03371586336495], [-74.27162053661368, 5.033756381486943], [-74.27160418932358, 5.03395152867862], [-74.27145034506012, 5.033945666537308], [-74.2713614292219, 5.033909152238816], [-74.27127766043279, 5.033916100028854], [-74.27126821717182, 5.033915593682857], [-74.27113831336186, 5.0339085817621285], [-74.27117319080082, 5.033972766425484], [-74.27108953416622, 5.034019829313005], [-74.27108256133134, 5.034005849246396], [-74.27099119609787, 5.034063822810448], [-74.27100726566545, 5.0340968692204235], [-74.27093749668114, 5.034188499096009], [-74.27091999392148, 5.034211492638873], [-74.2707933365471, 5.03407579325303]]]], "type": "MultiPolygon"}}, {"type": "Feature", "properties": {"OBJECTID": 4, "COD_DPTO": "25", "COD_MPIO": "777", "COD_SECTVD": "010007", "NOMBRE_PRE": "EL PINO", "AREA_HA": 1.1103516192, "AREA_M2": 11103.5192076, "VIVIENDAS": 0, "VIGENCIA": 2009, "FUENTE": "CATASTRO IGAC", "SIMBOLO": 0, "Shape_Leng": 0.00415353964304, "COD_PRED": "257770100070135", "DEPARTAMEN": 25.0, "MUNICIPIO": 777.0, "NUM_\u00b4RED": "0100070135", "TIPO": 1.0, "NUM_ORDEN": 1.0, "TOTAL_REG": 3.0, "NOMBRE": "INFANTE LEON ELIAS-GIOVANNI", "ESTADO": " ", "NUM_DOC": 79058768.0, "DIRECCI\u00d3N": "EL PINO", "COMUNA": 0.0, "DEST_ECO": "D", "AREA_T": 7531.0, "AREA_C": 0.0, "EVAL\u00daO": 24528000.0, "ESPACIOS": 0.0, "VIGENCIA_1": 1012017.0, "COD_PRED_1": "257770100070135", "RANGO": "1 - 3 ha", "Area_ha_1": 1.11035157745, "Shape_Le_1": 225.470089471, "COD_PREANT": "25777000100070135000", "Shape_Length": 225.4700894709257, "Shape_Area": 2164.160864708884}, "geometry": {"coordinates": [[[[-74.27008460900427, 5.034670804992661], [-74.269949692298, 5.034499788972463], [-74.2699433463429, 5.034491744984728], [-74.26993897400135, 5.034486202546776], [-74.27051462865114, 5.0343350032233944], [-74.2706560743799, 5.034203452908876], [-74.27079443214205, 5.034345971601328], [-74.27072999408306, 5.034395018273416], [-74.27070042540151, 5.03444553323291], [-74.27069786749308, 5.0344469460993295], [-74.2705947404638, 5.0345036984859854], [-74.27046673990789, 5.034584813273384], [-74.2703638863005, 5.03464997614933], [-74.2701639278221, 5.034670778707959], [-74.27008460900427, 5.034670804992661]]]], "type": "MultiPolygon"}}, {"type": "Feature", "properties": {"OBJECTID": 5, "COD_DPTO": "25", "COD_MPIO": "777", "COD_SECTVD": "010007", "NOMBRE_PRE": "PATIO BONITO", "AREA_HA": 4.35257122721, "AREA_M2": 43525.7184814, "VIVIENDAS": 0, "VIGENCIA": 2009, "FUENTE": "CATASTRO IGAC", "SIMBOLO": 0, "Shape_Leng": 0.00780601177365, "COD_PRED": "257770100070067", "DEPARTAMEN": 25.0, "MUNICIPIO": 777.0, "NUM_\u00b4RED": "0100070067", "TIPO": 1.0, "NUM_ORDEN": 1.0, "TOTAL_REG": 8.0, "NOMBRE": "CHILA RIVAS ROSALIA-SUC", "ESTADO": "D", "NUM_DOC": 0.0, "DIRECCI\u00d3N": "PATIO BONITO", "COMUNA": 0.0, "DEST_ECO": "D", "AREA_T": 120000.0, "AREA_C": 0.0, "EVAL\u00daO": 117172000.0, "ESPACIOS": 0.0, "VIGENCIA_1": 1012017.0, "COD_PRED_1": "257770100070067", "RANGO": "3 - 6 ha", "Area_ha_1": 4.35257118755, "Shape_Le_1": 408.118393349, "COD_PREANT": "25777000100070067000", "Shape_Length": 408.11839334907626, "Shape_Area": 3502.704362348713}, "geometry": {"coordinates": [[[[-74.26863606929008, 5.035458713332276], [-74.26865087674179, 5.035428567175401], [-74.2692177663741, 5.034972657052662], [-74.2696822014039, 5.0345536452914725], [-74.26993897400135, 5.034486202546776], [-74.2699433463429, 5.034491744984728], [-74.269949692298, 5.034499788972463], [-74.27008460900427, 5.034670804992661], [-74.27006404980436, 5.034670808009228], [-74.26990591637022, 5.034695892751691], [-74.26963128235919, 5.034854554611147], [-74.26958087030685, 5.034892132606743], [-74.26934002976321, 5.035071662903824], [-74.26907373124176, 5.035272054167738], [-74.26888234500746, 5.035447400933633], [-74.26878981935687, 5.035571180198138], [-74.26863606929008, 5.035458713332276]]]], "type": "MultiPolygon"}}, {"type": "Feature", "properties": {"OBJECTID": 6, "COD_DPTO": "25", "COD_MPIO": "777", "COD_SECTVD": "010007", "NOMBRE_PRE": "BUENAVISTA PARTE", "AREA_HA": 2.77806780376, "AREA_M2": 27780.6784463, "VIVIENDAS": 0, "VIGENCIA": 2009, "FUENTE": "CATASTRO IGAC", "SIMBOLO": 0, "Shape_Leng": 0.0080342233751, "COD_PRED": "257770100070061", "DEPARTAMEN": 25.0, "MUNICIPIO": 777.0, "NUM_\u00b4RED": "0100070061", "TIPO": 1.0, "NUM_ORDEN": 1.0, "TOTAL_REG": 2.0, "NOMBRE": "VELOZA BENAVIDES LUZ-NEILA", "ESTADO": " ", "NUM_DOC": 51795961.0, "DIRECCI\u00d3N": "BUENAVISTA PARTE", "COMUNA": 0.0, "DEST_ECO": "D", "AREA_T": 70000.0, "AREA_C": 0.0, "EVAL\u00daO": 66059000.0, "ESPACIOS": 0.0, "VIGENCIA_1": 1012017.0, "COD_PRED_1": "257770100070061", "RANGO": "1 - 3 ha", "Area_ha_1": 2.77806780376, "Shape_Le_1": 121.322702237, "COD_PREANT": "25777000100070061000", "Shape_Length": 121.32270223673264, "Shape_Area": 388.55296298296315}, "geometry": {"coordinates": [[[[-74.26817500113809, 5.0361827156970245], [-74.26831895897223, 5.036104324337285], [-74.26843472883806, 5.035868627151875], [-74.26853288167558, 5.0358898688278435], [-74.26838311953276, 5.036098584979886], [-74.26824166583518, 5.0362572121829405], [-74.26817500113809, 5.0361827156970245]]]], "type": "MultiPolygon"}}, {"type": "Feature", "properties": {"OBJECTID": 7, "COD_DPTO": "25", "COD_MPIO": "777", "COD_SECTVD": "010007", "NOMBRE_PRE": "BUENOS AIRES", "AREA_HA": 1.22788677687, "AREA_M2": 12278.8689673, "VIVIENDAS": 1, "VIGENCIA": 2009, "FUENTE": "CATASTRO IGAC", "SIMBOLO": 0, "Shape_Leng": 0.00579373326118, "COD_PRED": "257770100070062", "DEPARTAMEN": 25.0, "MUNICIPIO": 777.0, "NUM_\u00b4RED": "0100070062", "TIPO": 1.0, "NUM_ORDEN": 1.0, "TOTAL_REG": 1.0, "NOMBRE": "VASQUEZ MORENO MARIA-BETULIA", "ESTADO": "D", "NUM_DOC": 41336881.0, "DIRECCI\u00d3N": "BUENOS AIRES", "COMUNA": 0.0, "DEST_ECO": "D", "AREA_T": 11934.0, "AREA_C": 128.0, "EVAL\u00daO": 17744000.0, "ESPACIOS": 0.0, "VIGENCIA_1": 1012017.0, "COD_PRED_1": "257770100070062", "RANGO": "1 - 3 ha", "Area_ha_1": 1.22788677687, "Shape_Le_1": 351.009219047, "COD_PREANT": "25777000100070062000", "Shape_Length": 351.00921904677637, "Shape_Area": 1951.9791755966376}, "geometry": {"coordinates": [[[[-74.26817500113809, 5.0361827156970245], [-74.26824166583518, 5.0362572121829405], [-74.26809187356154, 5.036374106164334], [-74.26803956857151, 5.0364295078904115], [-74.2679329210236, 5.036332524386144], [-74.267797297965, 5.036413065546111], [-74.26762768550277, 5.036513793930764], [-74.2677423745785, 5.036649653913094], [-74.26758421728168, 5.036641351011615], [-74.2673511891356, 5.036724882218752], [-74.26712649223154, 5.0368417988819685], [-74.2671023277196, 5.03686431132189], [-74.26707726924414, 5.036618075145812], [-74.26775245521456, 5.036412809085743], [-74.26817500113809, 5.0361827156970245]]]], "type": "MultiPolygon"}}, {"type": "Feature", "properties": {"OBJECTID": 8, "COD_DPTO": "25", "COD_MPIO": "777", "COD_SECTVD": "010005", "NOMBRE_PRE": "EL CONSUELO", "AREA_HA": 1.18021066947, "AREA_M2": 11802.1084166, "VIVIENDAS": 1, "VIGENCIA": 2009, "FUENTE": "CATASTRO IGAC", "SIMBOLO": 0, "Shape_Leng": 0.00552674369438, "COD_PRED": "257770100050131", "DEPARTAMEN": 25.0, "MUNICIPIO": 777.0, "NUM_\u00b4RED": "0100050131", "TIPO": 1.0, "NUM_ORDEN": 1.0, "TOTAL_REG": 1.0, "NOMBRE": "VELOZA VALBUENA CECILIA", "ESTADO": "D", "NUM_DOC": 20046647.0, "DIRECCI\u00d3N": "EL CONSUELO", "COMUNA": 0.0, "DEST_ECO": "D", "AREA_T": 14600.0, "AREA_C": 116.0, "EVAL\u00daO": 19166000.0, "ESPACIOS": 0.0, "VIGENCIA_1": 1012017.0, "COD_PRED_1": "257770100050131", "RANGO": "1 - 3 ha", "Area_ha_1": 1.18021067738, "Shape_Le_1": 258.886718583, "COD_PREANT": "25777000100050131000", "Shape_Length": 258.88671858327433, "Shape_Area": 1874.8569808114048}, "geometry": {"coordinates": [[[[-74.26911282487418, 5.03567029686056], [-74.26894681299656, 5.035571880262796], [-74.26905376914016, 5.035433904528262], [-74.26921422110065, 5.0352805685792745], [-74.2694128950711, 5.035142552391077], [-74.26961157475722, 5.035027532632536], [-74.26964693947825, 5.035011759884911], [-74.269817908753, 5.034935508854412], [-74.26982398552367, 5.03498246081189], [-74.26947134394311, 5.035267452361942], [-74.26912503857957, 5.0356775377104075], [-74.26911282487418, 5.03567029686056]]]], "type": "MultiPolygon"}}, {"type": "Feature", "properties": {"OBJECTID": 9, "COD_DPTO": "25", "COD_MPIO": "777", "COD_SECTVD": "010005", "NOMBRE_PRE": "EL TRIUNFO", "AREA_HA": 1.06764025108, "AREA_M2": 10676.3970433, "VIVIENDAS": 1, "VIGENCIA": 2009, "FUENTE": "CATASTRO IGAC", "SIMBOLO": 0, "Shape_Leng": 0.00442058328839, "COD_PRED": "257770100050011", "DEPARTAMEN": 25.0, "MUNICIPIO": 777.0, "NUM_\u00b4RED": "0100050011", "TIPO": 1.0, "NUM_ORDEN": 1.0, "TOTAL_REG": 1.0, "NOMBRE": "LOPEZ VIDUENES SERVIO-TULIO", "ESTADO": " ", "NUM_DOC": 17165071.0, "DIRECCI\u00d3N": "EL TRIUNFO", "COMUNA": 0.0, "DEST_ECO": "D", "AREA_T": 11802.0, "AREA_C": 92.0, "EVAL\u00daO": 48485000.0, "ESPACIOS": 0.0, "VIGENCIA_1": 1012017.0, "COD_PRED_1": "257770100050011", "RANGO": "1 - 3 ha", "Area_ha_1": 1.06764022762, "Shape_Le_1": 202.353888549, "COD_PREANT": "25777000100050011000", "Shape_Length": 202.35388854888237, "Shape_Area": 827.9579255147454}, "geometry": {"coordinates": [[[[-74.269817908753, 5.034935508854412], [-74.27004716671114, 5.0348434656320284], [-74.27009548667948, 5.034830237228378], [-74.27021528739584, 5.034797437786845], [-74.27041399682093, 5.03479738115547], [-74.27045386990815, 5.0347958891271345], [-74.27049920586474, 5.03479419280602], [-74.27062035706999, 5.0347896603246705], [-74.27067005698127, 5.034850537979146], [-74.27067421642809, 5.034855632948079], [-74.26986421079924, 5.034949952379642], [-74.26982398552367, 5.03498246081189], [-74.269817908753, 5.034935508854412]]]], "type": "MultiPolygon"}}, {"type": "Feature", "properties": {"OBJECTID": 10, "COD_DPTO": "25", "COD_MPIO": "777", "COD_SECTVD": "010007", "NOMBRE_PRE": "CASA LOTE", "AREA_HA": 0.0462272732994, "AREA_M2": 462.273124522, "VIVIENDAS": 1, "VIGENCIA": 2009, "FUENTE": "CATASTRO IGAC", "SIMBOLO": 0, "Shape_Leng": 0.000798480514131, "COD_PRED": "257770100070066", "DEPARTAMEN": 0.0, "MUNICIPIO": 0.0, "NUM_\u00b4RED": " ", "TIPO": 0.0, "NUM_ORDEN": 0.0, "TOTAL_REG": 0.0, "NOMBRE": " ", "ESTADO": " ", "NUM_DOC": 0.0, "DIRECCI\u00d3N": " ", "COMUNA": 0.0, "DEST_ECO": " ", "AREA_T": 0.0, "AREA_C": 0.0, "EVAL\u00daO": 0.0, "ESPACIOS": 0.0, "VIGENCIA_1": 0.0, "COD_PRED_1": " ", "RANGO": "<1 ha", "Area_ha_1": 0.0462272732994, "Shape_Le_1": 72.5310836875, "COD_PREANT": "25777000100070066000", "Shape_Length": 72.53108368748552, "Shape_Area": 324.3992463106398}, "geometry": {"coordinates": [[[[-74.26856322823016, 5.035607012386878], [-74.26863606929008, 5.035458713332276], [-74.26878981935687, 5.035571180198138], [-74.26870761149927, 5.035681153756457], [-74.26856322823016, 5.035607012386878]]]], "type": "MultiPolygon"}}, {"type": "Feature", "properties": {"OBJECTID": 11, "COD_DPTO": "25", "COD_MPIO": "777", "COD_SECTVD": "010007", "NOMBRE_PRE": "EL RECREO", "AREA_HA": 0.0419399915996, "AREA_M2": 419.400088938, "VIVIENDAS": 1, "VIGENCIA": 2009, "FUENTE": "CATASTRO IGAC", "SIMBOLO": 0, "Shape_Leng": 0.00074481890204, "COD_PRED": "257770100070063", "DEPARTAMEN": 0.0, "MUNICIPIO": 0.0, "NUM_\u00b4RED": " ", "TIPO": 0.0, "NUM_ORDEN": 0.0, "TOTAL_REG": 0.0, "NOMBRE": " ", "ESTADO": " ", "NUM_DOC": 0.0, "DIRECCI\u00d3N": " ", "COMUNA": 0.0, "DEST_ECO": " ", "AREA_T": 0.0, "AREA_C": 0.0, "EVAL\u00daO": 0.0, "ESPACIOS": 0.0, "VIGENCIA_1": 0.0, "COD_PRED_1": " ", "RANGO": "<1 ha", "Area_ha_1": 0.0419399915996, "Shape_Le_1": 82.4518521568, "COD_PREANT": "25777000100070063000", "Shape_Length": 82.45185215680178, "Shape_Area": 418.9290774390646}, "geometry": {"coordinates": [[[[-74.267797297965, 5.036413065546111], [-74.26790773051147, 5.036552861542008], [-74.2677423745785, 5.036649653913094], [-74.26762768550277, 5.036513793930764], [-74.267797297965, 5.036413065546111]]]], "type": "MultiPolygon"}}, {"type": "Feature", "properties": {"OBJECTID": 12, "COD_DPTO": "25", "COD_MPIO": "777", "COD_SECTVD": "010007", "NOMBRE_PRE": "DIANA ROCIO", "AREA_HA": 0.0339576919808, "AREA_M2": 339.575526553, "VIVIENDAS": 1, "VIGENCIA": 2009, "FUENTE": "CATASTRO IGAC", "SIMBOLO": 0, "Shape_Leng": 0.000661840188698, "COD_PRED": "257770100070064", "DEPARTAMEN": 0.0, "MUNICIPIO": 0.0, "NUM_\u00b4RED": " ", "TIPO": 0.0, "NUM_ORDEN": 0.0, "TOTAL_REG": 0.0, "NOMBRE": " ", "ESTADO": " ", "NUM_DOC": 0.0, "DIRECCI\u00d3N": " ", "COMUNA": 0.0, "DEST_ECO": " ", "AREA_T": 0.0, "AREA_C": 0.0, "EVAL\u00daO": 0.0, "ESPACIOS": 0.0, "VIGENCIA_1": 0.0, "COD_PRED_1": " ", "RANGO": "<1 ha", "Area_ha_1": 0.0339576919808, "Shape_Le_1": 73.2592867275, "COD_PREANT": "25777000100070064000", "Shape_Length": 73.25928672749993, "Shape_Area": 339.19622451098655}, "geometry": {"coordinates": [[[[-74.267797297965, 5.036413065546111], [-74.2679329210236, 5.036332524386144], [-74.26803956857151, 5.0364295078904115], [-74.26794209985863, 5.03653274321382], [-74.26790773051147, 5.036552861542008], [-74.267797297965, 5.036413065546111]]]], "type": "MultiPolygon"}}, {"type": "Feature", "properties": {"OBJECTID": 13, "COD_DPTO": "25", "COD_MPIO": "777", "COD_SECTVD": "010005", "NOMBRE_PRE": " ", "AREA_HA": 0.0274597206015, "AREA_M2": 274.595898864, "VIVIENDAS": 1, "VIGENCIA": 2009, "FUENTE": "CATASTRO IGAC", "SIMBOLO": 0, "Shape_Leng": 0.000823751117541, "COD_PRED": "257770100050198", "DEPARTAMEN": 0.0, "MUNICIPIO": 0.0, "NUM_\u00b4RED": " ", "TIPO": 0.0, "NUM_ORDEN": 0.0, "TOTAL_REG": 0.0, "NOMBRE": " ", "ESTADO": " ", "NUM_DOC": 0.0, "DIRECCI\u00d3N": " ", "COMUNA": 0.0, "DEST_ECO": " ", "AREA_T": 0.0, "AREA_C": 0.0, "EVAL\u00daO": 0.0, "ESPACIOS": 0.0, "VIGENCIA_1": 0.0, "COD_PRED_1": " ", "RANGO": "<1 ha", "Area_ha_1": 0.0274597206015, "Shape_Le_1": 91.18326431, "COD_PREANT": "25777000100050198000", "Shape_Length": 91.18326430998542, "Shape_Area": 274.2892242936553}, "geometry": {"coordinates": [[[[-74.27070042540151, 5.03444553323291], [-74.27072999408306, 5.034395018273416], [-74.27079443214205, 5.034345971601328], [-74.2708381564529, 5.034311198816462], [-74.27091999392148, 5.034211492638873], [-74.27093749668114, 5.034188499096009], [-74.27099681381205, 5.034300462124919], [-74.27092280413248, 5.034342830148062], [-74.27085715341629, 5.034378390396135], [-74.27083524777447, 5.0343880168326125], [-74.27077756765657, 5.034414244759004], [-74.2707236080789, 5.03444071695405], [-74.27069962867475, 5.034454354807285], [-74.27070042540151, 5.03444553323291]]]], "type": "MultiPolygon"}}, {"type": "Feature", "properties": {"OBJECTID": 14, "COD_DPTO": "25", "COD_MPIO": "777", "COD_SECTVD": "010005", "NOMBRE_PRE": "JARDIN INFANTIL LOS AMIGUITOS", "AREA_HA": 0.0100916925229, "AREA_M2": 100.916893399, "VIVIENDAS": 0, "VIGENCIA": 2009, "FUENTE": "CATASTRO IGAC", "SIMBOLO": 0, "Shape_Leng": 0.00038272947084, "COD_PRED": "257770100050079", "DEPARTAMEN": 0.0, "MUNICIPIO": 0.0, "NUM_\u00b4RED": " ", "TIPO": 0.0, "NUM_ORDEN": 0.0, "TOTAL_REG": 0.0, "NOMBRE": " ", "ESTADO": " ", "NUM_DOC": 0.0, "DIRECCI\u00d3N": " ", "COMUNA": 0.0, "DEST_ECO": " ", "AREA_T": 0.0, "AREA_C": 0.0, "EVAL\u00daO": 0.0, "ESPACIOS": 0.0, "VIGENCIA_1": 0.0, "COD_PRED_1": " ", "RANGO": "<1 ha", "Area_ha_1": 0.0100916925229, "Shape_Le_1": 42.3398882665, "COD_PREANT": "25777000100050079000", "Shape_Length": 42.33988826650857, "Shape_Area": 100.80376800368192}, "geometry": {"coordinates": [[[[-74.27067059456041, 5.034613858573057], [-74.27072934081755, 5.034591623274578], [-74.27076755256925, 5.034700629911103], [-74.27070547050263, 5.034740012313909], [-74.27067059456041, 5.034613858573057]]]], "type": "MultiPolygon"}}, {"type": "Feature", "properties": {"OBJECTID": 15, "COD_DPTO": "25", "COD_MPIO": "777", "COD_SECTVD": "010007", "NOMBRE_PRE": "LOTE DE VIVIENDA", "AREA_HA": 0.0529933400866, "AREA_M2": 529.933924109, "VIVIENDAS": 0, "VIGENCIA": 2009, "FUENTE": "CATASTRO IGAC", "SIMBOLO": 0, "Shape_Leng": 0.000830037521772, "COD_PRED": "257770100070134", "DEPARTAMEN": 0.0, "MUNICIPIO": 0.0, "NUM_\u00b4RED": " ", "TIPO": 0.0, "NUM_ORDEN": 0.0, "TOTAL_REG": 0.0, "NOMBRE": " ", "ESTADO": " ", "NUM_DOC": 0.0, "DIRECCI\u00d3N": " ", "COMUNA": 0.0, "DEST_ECO": " ", "AREA_T": 0.0, "AREA_C": 0.0, "EVAL\u00daO": 0.0, "ESPACIOS": 0.0, "VIGENCIA_1": 0.0, "COD_PRED_1": " ", "RANGO": "<1 ha", "Area_ha_1": 0.0529933400866, "Shape_Le_1": 83.7311285879, "COD_PREANT": "25777000100070134000", "Shape_Length": 83.73112858788065, "Shape_Area": 445.93676604650295}, "geometry": {"coordinates": [[[[-74.2706560743799, 5.034203452908876], [-74.2707933365471, 5.03407579325303], [-74.27091999392148, 5.034211492638873], [-74.2708381564529, 5.034311198816462], [-74.27079443214205, 5.034345971601328], [-74.2706560743799, 5.034203452908876]]]], "type": "MultiPolygon"}}, {"type": "Feature", "properties": {"OBJECTID": 16, "COD_DPTO": "25", "COD_MPIO": "777", "COD_SECTVD": "010005", "NOMBRE_PRE": "LA ESTANCIA 1", "AREA_HA": 0.0678803478123, "AREA_M2": 678.802095272, "VIVIENDAS": 0, "VIGENCIA": 2009, "FUENTE": "CATASTRO IGAC", "SIMBOLO": 0, "Shape_Leng": 0.000958110754078, "COD_PRED": "257770100050132", "DEPARTAMEN": 0.0, "MUNICIPIO": 0.0, "NUM_\u00b4RED": " ", "TIPO": 0.0, "NUM_ORDEN": 0.0, "TOTAL_REG": 0.0, "NOMBRE": " ", "ESTADO": " ", "NUM_DOC": 0.0, "DIRECCI\u00d3N": " ", "COMUNA": 0.0, "DEST_ECO": " ", "AREA_T": 0.0, "AREA_C": 0.0, "EVAL\u00daO": 0.0, "ESPACIOS": 0.0, "VIGENCIA_1": 0.0, "COD_PRED_1": " ", "RANGO": "<1 ha", "Area_ha_1": 0.0678803478123, "Shape_Le_1": 106.04021565, "COD_PREANT": "25777000100050132000", "Shape_Length": 106.04021565039477, "Shape_Area": 678.0437981983954}, "geometry": {"coordinates": [[[[-74.26877872921563, 5.035786526070611], [-74.26894681299656, 5.035571880262796], [-74.26911282487418, 5.03567029686056], [-74.26893980981764, 5.035905683176927], [-74.26877872921563, 5.035786526070611]]]], "type": "MultiPolygon"}}, {"type": "Feature", "properties": {"OBJECTID": 19, "COD_DPTO": "25", "COD_MPIO": "777", "COD_SECTVD": "010007", "NOMBRE_PRE": " ", "AREA_HA": 0.160432535968, "AREA_M2": 1604.32366149, "VIVIENDAS": 0, "VIGENCIA": 2009, "FUENTE": "CATASTRO IGAC", "SIMBOLO": 0, "Shape_Leng": 0.00146086758681, "COD_PRED": "257770100070065", "DEPARTAMEN": 0.0, "MUNICIPIO": 0.0, "NUM_\u00b4RED": " ", "TIPO": 0.0, "NUM_ORDEN": 0.0, "TOTAL_REG": 0.0, "NOMBRE": " ", "ESTADO": " ", "NUM_DOC": 0.0, "DIRECCI\u00d3N": " ", "COMUNA": 0.0, "DEST_ECO": " ", "AREA_T": 0.0, "AREA_C": 0.0, "EVAL\u00daO": 0.0, "ESPACIOS": 0.0, "VIGENCIA_1": 0.0, "COD_PRED_1": " ", "RANGO": "<1 ha", "Area_ha_1": 0.160432535968, "Shape_Le_1": 91.4567743037, "COD_PREANT": "25777000100070065000", "Shape_Length": 91.45677430373662, "Shape_Area": 437.89362191678674}, "geometry": {"coordinates": [[[[-74.26843472883806, 5.035868627151875], [-74.26856322823016, 5.035607012386878], [-74.26870761149927, 5.035681153756457], [-74.26853288167558, 5.0358898688278435], [-74.26843472883806, 5.035868627151875]]]], "type": "MultiPolygon"}}, {"type": "Feature", "properties": {"OBJECTID": 20, "COD_DPTO": "25", "COD_MPIO": "777", "COD_SECTVD": "010005", "NOMBRE_PRE": "CASA COMUNAL", "AREA_HA": 0.0755404994322, "AREA_M2": 755.403876242, "VIVIENDAS": 0, "VIGENCIA": 2009, "FUENTE": "CATASTRO IGAC", "SIMBOLO": 0, "Shape_Leng": 0.00101932762872, "COD_PRED": "257770100050188", "DEPARTAMEN": 0.0, "MUNICIPIO": 0.0, "NUM_\u00b4RED": " ", "TIPO": 0.0, "NUM_ORDEN": 0.0, "TOTAL_REG": 0.0, "NOMBRE": " ", "ESTADO": " ", "NUM_DOC": 0.0, "DIRECCI\u00d3N": " ", "COMUNA": 0.0, "DEST_ECO": " ", "AREA_T": 0.0, "AREA_C": 0.0, "EVAL\u00daO": 0.0, "ESPACIOS": 0.0, "VIGENCIA_1": 0.0, "COD_PRED_1": " ", "RANGO": "<1 ha", "Area_ha_1": 0.0755404994322, "Shape_Le_1": 78.1018020035, "COD_PREANT": "25777000100050188000", "Shape_Length": 78.10180200351158, "Shape_Area": 314.7437139948054}, "geometry": {"coordinates": [[[[-74.27154240596835, 5.033510496518907], [-74.27174193560559, 5.033363459126923], [-74.271802183289, 5.033429126026971], [-74.27161787011663, 5.033600142658536], [-74.27154240596835, 5.033510496518907]]]], "type": "MultiPolygon"}}, {"type": "Feature", "properties": {"OBJECTID": 21, "COD_DPTO": "25", "COD_MPIO": "777", "COD_SECTVD": "010005", "NOMBRE_PRE": "CAMPAMENTO", "AREA_HA": 0.0797500825624, "AREA_M2": 797.501078922, "VIVIENDAS": 0, "VIGENCIA": 2009, "FUENTE": "CATASTRO IGAC", "SIMBOLO": 0, "Shape_Leng": 0.00133623426551, "COD_PRED": "257770100050189", "DEPARTAMEN": 0.0, "MUNICIPIO": 0.0, "NUM_\u00b4RED": " ", "TIPO": 0.0, "NUM_ORDEN": 0.0, "TOTAL_REG": 0.0, "NOMBRE": " ", "ESTADO": " ", "NUM_DOC": 0.0, "DIRECCI\u00d3N": " ", "COMUNA": 0.0, "DEST_ECO": " ", "AREA_T": 0.0, "AREA_C": 0.0, "EVAL\u00daO": 0.0, "ESPACIOS": 0.0, "VIGENCIA_1": 0.0, "COD_PRED_1": " ", "RANGO": "<1 ha", "Area_ha_1": 0.0797500825624, "Shape_Le_1": 147.825536681, "COD_PREANT": "25777000100050189000", "Shape_Length": 147.82553668085706, "Shape_Area": 796.608652925494}, "geometry": {"coordinates": [[[[-74.27166091848899, 5.03371586336495], [-74.27161787011663, 5.033600142658536], [-74.271802183289, 5.033429126026971], [-74.27186775755509, 5.033500604917741], [-74.2719334872049, 5.033634876791225], [-74.27198027099855, 5.033769154902356], [-74.2719929155315, 5.033819826283705], [-74.271935499069, 5.033867456877884], [-74.27185082570438, 5.033716678607947], [-74.27176599575408, 5.033618578229949], [-74.27166091848899, 5.03371586336495]]]], "type": "MultiPolygon"}}, {"type": "Feature", "properties": {"OBJECTID": 22, "COD_DPTO": "25", "COD_MPIO": "777", "COD_SECTVD": "010005", "NOMBRE_PRE": "SALON CULTURAL", "AREA_HA": 0.0901887237764, "AREA_M2": 901.886699615, "VIVIENDAS": 0, "VIGENCIA": 2009, "FUENTE": "CATASTRO IGAC", "SIMBOLO": 0, "Shape_Leng": 0.0010740923964, "COD_PRED": "257770100050190", "DEPARTAMEN": 0.0, "MUNICIPIO": 0.0, "NUM_\u00b4RED": " ", "TIPO": 0.0, "NUM_ORDEN": 0.0, "TOTAL_REG": 0.0, "NOMBRE": " ", "ESTADO": " ", "NUM_DOC": 0.0, "DIRECCI\u00d3N": " ", "COMUNA": 0.0, "DEST_ECO": " ", "AREA_T": 0.0, "AREA_C": 0.0, "EVAL\u00daO": 0.0, "ESPACIOS": 0.0, "VIGENCIA_1": 0.0, "COD_PRED_1": " ", "RANGO": "<1 ha", "Area_ha_1": 0.0901887237764, "Shape_Le_1": 118.870896289, "COD_PREANT": "25777000100050190000", "Shape_Length": 118.87089628868561, "Shape_Area": 900.8776971322493}, "geometry": {"coordinates": [[[[-74.27160418932358, 5.03395152867862], [-74.27162053661368, 5.033756381486943], [-74.27166091848899, 5.03371586336495], [-74.27176599575408, 5.033618578229949], [-74.27185082570438, 5.033716678607947], [-74.271935499069, 5.033867456877884], [-74.27193339295277, 5.033869204547021], [-74.2718981907007, 5.033898404342582], [-74.27185650404797, 5.033921220755458], [-74.2716771224717, 5.033968144071175], [-74.27160258082448, 5.033970704588505], [-74.27160418932358, 5.03395152867862]]]], "type": "MultiPolygon"}}, {"type": "Feature", "properties": {"OBJECTID": 23, "COD_DPTO": "25", "COD_MPIO": "777", "COD_SECTVD": "010005", "NOMBRE_PRE": "BA\u00d1OS PUBLICOS", "AREA_HA": 0.00826825805597, "AREA_M2": 82.6827683918, "VIVIENDAS": 0, "VIGENCIA": 2009, "FUENTE": "CATASTRO IGAC", "SIMBOLO": 0, "Shape_Leng": 0.00038720780459, "COD_PRED": "257770100050191", "DEPARTAMEN": 0.0, "MUNICIPIO": 0.0, "NUM_\u00b4RED": " ", "TIPO": 0.0, "NUM_ORDEN": 0.0, "TOTAL_REG": 0.0, "NOMBRE": " ", "ESTADO": " ", "NUM_DOC": 0.0, "DIRECCI\u00d3N": " ", "COMUNA": 0.0, "DEST_ECO": " ", "AREA_T": 0.0, "AREA_C": 0.0, "EVAL\u00daO": 0.0, "ESPACIOS": 0.0, "VIGENCIA_1": 0.0, "COD_PRED_1": " ", "RANGO": "<1 ha", "Area_ha_1": 0.00826825805597, "Shape_Le_1": 42.8792866743, "COD_PREANT": "25777000100050191000", "Shape_Length": 42.87928667429624, "Shape_Area": 82.58925540625603}, "geometry": {"coordinates": [[[[-74.27145034506012, 5.033945666537308], [-74.27160418932358, 5.03395152867862], [-74.27160258082448, 5.033970704588505], [-74.27154194619644, 5.0339947903352735], [-74.27148892894714, 5.034024658271271], [-74.27145034506012, 5.033945666537308]]]], "type": "MultiPolygon"}}, {"type": "Feature", "properties": {"OBJECTID": 24, "COD_DPTO": "25", "COD_MPIO": "777", "COD_SECTVD": "010005", "NOMBRE_PRE": "LOTE DE VIVIENDA", "AREA_HA": 0.0089727149127, "AREA_M2": 89.7257985914, "VIVIENDAS": 1, "VIGENCIA": 2009, "FUENTE": "CATASTRO IGAC", "SIMBOLO": 0, "Shape_Leng": 0.000402509590453, "COD_PRED": "257770100050158", "DEPARTAMEN": 0.0, "MUNICIPIO": 0.0, "NUM_\u00b4RED": " ", "TIPO": 0.0, "NUM_ORDEN": 0.0, "TOTAL_REG": 0.0, "NOMBRE": " ", "ESTADO": " ", "NUM_DOC": 0.0, "DIRECCI\u00d3N": " ", "COMUNA": 0.0, "DEST_ECO": " ", "AREA_T": 0.0, "AREA_C": 0.0, "EVAL\u00daO": 0.0, "ESPACIOS": 0.0, "VIGENCIA_1": 0.0, "COD_PRED_1": " ", "RANGO": "<1 ha", "Area_ha_1": 0.0089727149127, "Shape_Le_1": 44.541989869, "COD_PREANT": "25777000100050158000", "Shape_Length": 44.54198986896776, "Shape_Area": 89.62727834573937}, "geometry": {"coordinates": [[[[-74.2713614292219, 5.033909152238816], [-74.27145034506012, 5.033945666537308], [-74.27148892894714, 5.034024658271271], [-74.2714407867559, 5.0340517832742675], [-74.2713614292219, 5.033909152238816]]]], "type": "MultiPolygon"}}, {"type": "Feature", "properties": {"OBJECTID": 25, "COD_DPTO": "25", "COD_MPIO": "777", "COD_SECTVD": "010005", "NOMBRE_PRE": "LOTE DE VIVIENDA", "AREA_HA": 0.0195579688704, "AREA_M2": 195.580270131, "VIVIENDAS": 1, "VIGENCIA": 2009, "FUENTE": "CATASTRO IGAC", "SIMBOLO": 0, "Shape_Leng": 0.000549674514432, "COD_PRED": "257770100050157", "DEPARTAMEN": 0.0, "MUNICIPIO": 0.0, "NUM_\u00b4RED": " ", "TIPO": 0.0, "NUM_ORDEN": 0.0, "TOTAL_REG": 0.0, "NOMBRE": " ", "ESTADO": " ", "NUM_DOC": 0.0, "DIRECCI\u00d3N": " ", "COMUNA": 0.0, "DEST_ECO": " ", "AREA_T": 0.0, "AREA_C": 0.0, "EVAL\u00daO": 0.0, "ESPACIOS": 0.0, "VIGENCIA_1": 0.0, "COD_PRED_1": " ", "RANGO": "<1 ha", "Area_ha_1": 0.0195579688704, "Shape_Le_1": 60.8264031733, "COD_PREANT": "25777000100050157000", "Shape_Length": 60.82640317330731, "Shape_Area": 195.36088872104543}, "geometry": {"coordinates": [[[[-74.27126821717182, 5.033915593682857], [-74.27127766043279, 5.033916100028854], [-74.2713614292219, 5.033909152238816], [-74.2714407867559, 5.0340517832742675], [-74.27136281287534, 5.034095709002657], [-74.27126821717182, 5.033915593682857]]]], "type": "MultiPolygon"}}, {"type": "Feature", "properties": {"OBJECTID": 26, "COD_DPTO": "25", "COD_MPIO": "777", "COD_SECTVD": "010005", "NOMBRE_PRE": "LA MAGOLA CASA", "AREA_HA": 0.0319397019435, "AREA_M2": 319.394373096, "VIVIENDAS": 1, "VIGENCIA": 2009, "FUENTE": "CATASTRO IGAC", "SIMBOLO": 0, "Shape_Leng": 0.000714054242999, "COD_PRED": "257770100050078", "DEPARTAMEN": 0.0, "MUNICIPIO": 0.0, "NUM_\u00b4RED": " ", "TIPO": 0.0, "NUM_ORDEN": 0.0, "TOTAL_REG": 0.0, "NOMBRE": " ", "ESTADO": " ", "NUM_DOC": 0.0, "DIRECCI\u00d3N": " ", "COMUNA": 0.0, "DEST_ECO": " ", "AREA_T": 0.0, "AREA_C": 0.0, "EVAL\u00daO": 0.0, "ESPACIOS": 0.0, "VIGENCIA_1": 0.0, "COD_PRED_1": " ", "RANGO": "<1 ha", "Area_ha_1": 0.0319397019435, "Shape_Le_1": 79.017267532, "COD_PREANT": "25777000100050078000", "Shape_Length": 79.01726753198311, "Shape_Area": 319.0403057607445}, "geometry": {"coordinates": [[[[-74.27117319080082, 5.033972766425484], [-74.27113831336186, 5.0339085817621285], [-74.27126821717182, 5.033915593682857], [-74.27136281287534, 5.034095709002657], [-74.27126935127492, 5.034148359217881], [-74.27117319080082, 5.033972766425484]]]], "type": "MultiPolygon"}}, {"type": "Feature", "properties": {"OBJECTID": 27, "COD_DPTO": "25", "COD_MPIO": "777", "COD_SECTVD": "010005", "NOMBRE_PRE": " ", "AREA_HA": 0.0240425785998, "AREA_M2": 240.427361692, "VIVIENDAS": 0, "VIGENCIA": 2009, "FUENTE": "CATASTRO IGAC", "SIMBOLO": 0, "Shape_Leng": 0.000596064429421, "COD_PRED": "257770100050195", "DEPARTAMEN": 0.0, "MUNICIPIO": 0.0, "NUM_\u00b4RED": " ", "TIPO": 0.0, "NUM_ORDEN": 0.0, "TOTAL_REG": 0.0, "NOMBRE": " ", "ESTADO": " ", "NUM_DOC": 0.0, "DIRECCI\u00d3N": " ", "COMUNA": 0.0, "DEST_ECO": " ", "AREA_T": 0.0, "AREA_C": 0.0, "EVAL\u00daO": 0.0, "ESPACIOS": 0.0, "VIGENCIA_1": 0.0, "COD_PRED_1": " ", "RANGO": "<1 ha", "Area_ha_1": 0.0240425785998, "Shape_Le_1": 65.9518000778, "COD_PREANT": "25777000100050195000", "Shape_Length": 65.95180007779629, "Shape_Area": 240.15706406022753}, "geometry": {"coordinates": [[[[-74.27108953416622, 5.034019829313005], [-74.27117319080082, 5.033972766425484], [-74.27126935127492, 5.034148359217881], [-74.27125394468655, 5.034157040122282], [-74.27118190816657, 5.034197008395931], [-74.27108953416622, 5.034019829313005]]]], "type": "MultiPolygon"}}, {"type": "Feature", "properties": {"OBJECTID": 28, "COD_DPTO": "25", "COD_MPIO": "777", "COD_SECTVD": "010005", "NOMBRE_PRE": " ", "AREA_HA": 0.0281102569916, "AREA_M2": 281.102493399, "VIVIENDAS": 1, "VIGENCIA": 2009, "FUENTE": "CATASTRO IGAC", "SIMBOLO": 0, "Shape_Leng": 0.000640175826938, "COD_PRED": "257770100050196", "DEPARTAMEN": 0.0, "MUNICIPIO": 0.0, "NUM_\u00b4RED": " ", "TIPO": 0.0, "NUM_ORDEN": 0.0, "TOTAL_REG": 0.0, "NOMBRE": " ", "ESTADO": " ", "NUM_DOC": 0.0, "DIRECCI\u00d3N": " ", "COMUNA": 0.0, "DEST_ECO": " ", "AREA_T": 0.0, "AREA_C": 0.0, "EVAL\u00daO": 0.0, "ESPACIOS": 0.0, "VIGENCIA_1": 0.0, "COD_PRED_1": " ", "RANGO": "<1 ha", "Area_ha_1": 0.0281102569916, "Shape_Le_1": 70.8308347912, "COD_PREANT": "25777000100050196000", "Shape_Length": 70.83083479119556, "Shape_Area": 280.788728295225}, "geometry": {"coordinates": [[[[-74.27100726566545, 5.0340968692204235], [-74.27099119609787, 5.034063822810448], [-74.27108256133134, 5.034005849246396], [-74.27108953416622, 5.034019829313005], [-74.27118190816657, 5.034197008395931], [-74.2710879456794, 5.0342491465471], [-74.27100726566545, 5.0340968692204235]]]], "type": "MultiPolygon"}}, {"type": "Feature", "properties": {"OBJECTID": 29, "COD_DPTO": "25", "COD_MPIO": "777", "COD_SECTVD": "010005", "NOMBRE_PRE": "CASA LOTE", "AREA_HA": 0.0191472371969, "AREA_M2": 191.472874635, "VIVIENDAS": 1, "VIGENCIA": 2009, "FUENTE": "CATASTRO IGAC", "SIMBOLO": 0, "Shape_Leng": 0.000518793231874, "COD_PRED": "257770100050197", "DEPARTAMEN": 0.0, "MUNICIPIO": 0.0, "NUM_\u00b4RED": " ", "TIPO": 0.0, "NUM_ORDEN": 0.0, "TOTAL_REG": 0.0, "NOMBRE": " ", "ESTADO": " ", "NUM_DOC": 0.0, "DIRECCI\u00d3N": " ", "COMUNA": 0.0, "DEST_ECO": " ", "AREA_T": 0.0, "AREA_C": 0.0, "EVAL\u00daO": 0.0, "ESPACIOS": 0.0, "VIGENCIA_1": 0.0, "COD_PRED_1": " ", "RANGO": "<1 ha", "Area_ha_1": 0.0191472371969, "Shape_Le_1": 57.3957951177, "COD_PREANT": "25777000100050197000", "Shape_Length": 57.39579511770622, "Shape_Area": 191.2582523179916}, "geometry": {"coordinates": [[[[-74.27093749668114, 5.034188499096009], [-74.27100726566545, 5.0340968692204235], [-74.2710879456794, 5.0342491465471], [-74.27103920689005, 5.0342761903563575], [-74.27099681381205, 5.034300462124919], [-74.27093749668114, 5.034188499096009]]]], "type": "MultiPolygon"}}, {"type": "Feature", "properties": {"OBJECTID": 30, "COD_DPTO": "25", "COD_MPIO": "777", "COD_SECTVD": "010005", "NOMBRE_PRE": " ", "AREA_HA": 0.0171303402958, "AREA_M2": 171.303902307, "VIVIENDAS": 0, "VIGENCIA": 2009, "FUENTE": "CATASTRO IGAC", "SIMBOLO": 0, "Shape_Leng": 0.000480369230912, "COD_PRED": "257770100050184", "DEPARTAMEN": 0.0, "MUNICIPIO": 0.0, "NUM_\u00b4RED": " ", "TIPO": 0.0, "NUM_ORDEN": 0.0, "TOTAL_REG": 0.0, "NOMBRE": " ", "ESTADO": " ", "NUM_DOC": 0.0, "DIRECCI\u00d3N": " ", "COMUNA": 0.0, "DEST_ECO": " ", "AREA_T": 0.0, "AREA_C": 0.0, "EVAL\u00daO": 0.0, "ESPACIOS": 0.0, "VIGENCIA_1": 0.0, "COD_PRED_1": " ", "RANGO": "<1 ha", "Area_ha_1": 0.0171303402958, "Shape_Le_1": 53.149776297, "COD_PREANT": "25777000100050184000", "Shape_Length": 53.14977629700691, "Shape_Area": 171.11258101417752}, "geometry": {"coordinates": [[[[-74.27067059456041, 5.034613858573057], [-74.27070547050263, 5.034740012313909], [-74.27065973283594, 5.034769026338568], [-74.27062035706999, 5.0347896603246705], [-74.27057319623276, 5.034650722163686], [-74.27067059456041, 5.034613858573057]]]], "type": "MultiPolygon"}}, {"type": "Feature", "properties": {"OBJECTID": 33, "COD_DPTO": "25", "COD_MPIO": "777", "COD_SECTVD": "010005", "NOMBRE_PRE": "EL PROGRESO", "AREA_HA": 0.278211046335, "AREA_M2": 2782.11320417, "VIVIENDAS": 1, "VIGENCIA": 2009, "FUENTE": "CATASTRO IGAC", "SIMBOLO": 0, "Shape_Leng": 0.00253355704739, "COD_PRED": "257770100050004", "DEPARTAMEN": 0.0, "MUNICIPIO": 0.0, "NUM_\u00b4RED": " ", "TIPO": 0.0, "NUM_ORDEN": 0.0, "TOTAL_REG": 0.0, "NOMBRE": " ", "ESTADO": " ", "NUM_DOC": 0.0, "DIRECCI\u00d3N": " ", "COMUNA": 0.0, "DEST_ECO": " ", "AREA_T": 0.0, "AREA_C": 0.0, "EVAL\u00daO": 0.0, "ESPACIOS": 0.0, "VIGENCIA_1": 0.0, "COD_PRED_1": " ", "RANGO": "<1 ha", "Area_ha_1": 0.278211046335, "Shape_Le_1": 89.267749851, "COD_PREANT": "25777000100050004000", "Shape_Length": 89.26774985095575, "Shape_Area": 517.008471254861}, "geometry": {"coordinates": [[[[-74.26782365113337, 5.036744824790239], [-74.26800705061225, 5.0366451389592255], [-74.2680773922211, 5.036769031480936], [-74.26798125516034, 5.036913198455173], [-74.26791121017317, 5.036934467551321], [-74.26789071951646, 5.036897250371838], [-74.26782365113337, 5.036744824790239]]]], "type": "MultiPolygon"}}, {"type": "Feature", "properties": {"OBJECTID": 34, "COD_DPTO": "25", "COD_MPIO": "777", "COD_SECTVD": "010005", "NOMBRE_PRE": "CONCENTRACION GABRIELA MISTRAL", "AREA_HA": 0.144272829183, "AREA_M2": 1442.72567629, "VIVIENDAS": 0, "VIGENCIA": 2009, "FUENTE": "CATASTRO IGAC", "SIMBOLO": 0, "Shape_Leng": 0.00150086918361, "COD_PRED": "257770100050008", "DEPARTAMEN": 0.0, "MUNICIPIO": 0.0, "NUM_\u00b4RED": " ", "TIPO": 0.0, "NUM_ORDEN": 0.0, "TOTAL_REG": 0.0, "NOMBRE": " ", "ESTADO": " ", "NUM_DOC": 0.0, "DIRECCI\u00d3N": " ", "COMUNA": 0.0, "DEST_ECO": " ", "AREA_T": 0.0, "AREA_C": 0.0, "EVAL\u00daO": 0.0, "ESPACIOS": 0.0, "VIGENCIA_1": 0.0, "COD_PRED_1": " ", "RANGO": "<1 ha", "Area_ha_1": 0.144272829183, "Shape_Le_1": 162.797065492, "COD_PREANT": "25777000100050008000", "Shape_Length": 162.79706549207322, "Shape_Area": 1414.940828178721}, "geometry": {"coordinates": [[[[-74.26848049272982, 5.036183540830651], [-74.26854953740057, 5.036108493023143], [-74.26864120866632, 5.035978180033292], [-74.26877872921563, 5.035786526070611], [-74.26893980981764, 5.035905683176927], [-74.26896626278317, 5.035925251356445], [-74.26888794738784, 5.036050135750778], [-74.26862111967216, 5.0363324651966215], [-74.2686062060062, 5.03631667196997], [-74.26848049272982, 5.036183540830651]]]], "type": "MultiPolygon"}}, {"type": "Feature", "properties": {"OBJECTID": 35, "COD_DPTO": "25", "COD_MPIO": "777", "COD_SECTVD": "010005", "NOMBRE_PRE": "PALMIRA", "AREA_HA": 0.180405389365, "AREA_M2": 1804.0548729, "VIVIENDAS": 0, "VIGENCIA": 2009, "FUENTE": "CATASTRO IGAC", "SIMBOLO": 0, "Shape_Leng": 0.00176938419755, "COD_PRED": "257770100050076", "DEPARTAMEN": 0.0, "MUNICIPIO": 0.0, "NUM_\u00b4RED": " ", "TIPO": 0.0, "NUM_ORDEN": 0.0, "TOTAL_REG": 0.0, "NOMBRE": " ", "ESTADO": " ", "NUM_DOC": 0.0, "DIRECCI\u00d3N": " ", "COMUNA": 0.0, "DEST_ECO": " ", "AREA_T": 0.0, "AREA_C": 0.0, "EVAL\u00daO": 0.0, "ESPACIOS": 0.0, "VIGENCIA_1": 0.0, "COD_PRED_1": " ", "RANGO": "<1 ha", "Area_ha_1": 0.180405389365, "Shape_Le_1": 189.958720339, "COD_PREANT": "25777000100050076000", "Shape_Length": 189.95872033926335, "Shape_Area": 1527.6957496176672}, "geometry": {"coordinates": [[[[-74.26800705061225, 5.0366451389592255], [-74.26818278192611, 5.03646881667878], [-74.26832031952952, 5.036353812266011], [-74.26845784548668, 5.036208154919435], [-74.26848049272982, 5.036183540830651], [-74.2686062060062, 5.03631667196997], [-74.26862111967216, 5.0363324651966215], [-74.26845835202303, 5.03651462089077], [-74.26810679589008, 5.036724937376284], [-74.2680773922211, 5.036769031480936], [-74.26800705061225, 5.0366451389592255]]]], "type": "MultiPolygon"}}, {"type": "Feature", "properties": {"OBJECTID": 36, "COD_DPTO": "25", "COD_MPIO": "777", "COD_SECTVD": "010005", "NOMBRE_PRE": "LOTE DE VIVIENDA", "AREA_HA": 0.0394634371127, "AREA_M2": 394.634828975, "VIVIENDAS": 1, "VIGENCIA": 2009, "FUENTE": "CATASTRO IGAC", "SIMBOLO": 0, "Shape_Leng": 0.000750342486575, "COD_PRED": "257770100050177", "DEPARTAMEN": 0.0, "MUNICIPIO": 0.0, "NUM_\u00b4RED": " ", "TIPO": 0.0, "NUM_ORDEN": 0.0, "TOTAL_REG": 0.0, "NOMBRE": " ", "ESTADO": " ", "NUM_DOC": 0.0, "DIRECCI\u00d3N": " ", "COMUNA": 0.0, "DEST_ECO": " ", "AREA_T": 0.0, "AREA_C": 0.0, "EVAL\u00daO": 0.0, "ESPACIOS": 0.0, "VIGENCIA_1": 0.0, "COD_PRED_1": " ", "RANGO": "<1 ha", "Area_ha_1": 0.0394634371127, "Shape_Le_1": 32.8335964138, "COD_PREANT": "25777000100050177000", "Shape_Length": 32.833596413816686, "Shape_Area": 45.263247104856404}, "geometry": {"coordinates": [[[[-74.27220931943953, 5.0338891944816835], [-74.27228593560535, 5.033851462888211], [-74.27229260507073, 5.033866255136569], [-74.27230348575443, 5.0338626381884275], [-74.27232733652006, 5.033868269213026], [-74.27222673838028, 5.033927569306413], [-74.27220931943953, 5.0338891944816835]]]], "type": "MultiPolygon"}}, {"type": "Feature", "properties": {"OBJECTID": 37, "COD_DPTO": "25", "COD_MPIO": "777", "COD_SECTVD": "010005", "NOMBRE_PRE": "CASA DE HABITACION", "AREA_HA": 0.0222635533767, "AREA_M2": 222.635243711, "VIVIENDAS": 1, "VIGENCIA": 2009, "FUENTE": "CATASTRO IGAC", "SIMBOLO": 0, "Shape_Leng": 0.000626993782472, "COD_PRED": "257770100050172", "DEPARTAMEN": 0.0, "MUNICIPIO": 0.0, "NUM_\u00b4RED": " ", "TIPO": 0.0, "NUM_ORDEN": 0.0, "TOTAL_REG": 0.0, "NOMBRE": " ", "ESTADO": " ", "NUM_DOC": 0.0, "DIRECCI\u00d3N": " ", "COMUNA": 0.0, "DEST_ECO": " ", "AREA_T": 0.0, "AREA_C": 0.0, "EVAL\u00daO": 0.0, "ESPACIOS": 0.0, "VIGENCIA_1": 0.0, "COD_PRED_1": " ", "RANGO": "<1 ha", "Area_ha_1": 0.0222635533767, "Shape_Le_1": 28.8501120442, "COD_PREANT": "25777000100050172000", "Shape_Length": 28.85011204417989, "Shape_Area": 47.085780683566334}, "geometry": {"coordinates": [[[[-74.27213575731342, 5.033924532326985], [-74.27220693906446, 5.0338858504593285], [-74.27220931943953, 5.0338891944816835], [-74.27222673838028, 5.033927569306413], [-74.27217258290014, 5.033959493414811], [-74.27216128612619, 5.0339718606141375], [-74.27213575731342, 5.033924532326985]]]], "type": "MultiPolygon"}}, {"type": "Feature", "properties": {"OBJECTID": 38, "COD_DPTO": "25", "COD_MPIO": "777", "COD_SECTVD": "010005", "NOMBRE_PRE": "CASA ALTO DE LA MAGOLA", "AREA_HA": 0.0207418441549, "AREA_M2": 207.418024104, "VIVIENDAS": 1, "VIGENCIA": 2009, "FUENTE": "CATASTRO IGAC", "SIMBOLO": 0, "Shape_Leng": 0.000620500480648, "COD_PRED": "257770100050173", "DEPARTAMEN": 0.0, "MUNICIPIO": 0.0, "NUM_\u00b4RED": " ", "TIPO": 0.0, "NUM_ORDEN": 0.0, "TOTAL_REG": 0.0, "NOMBRE": " ", "ESTADO": " ", "NUM_DOC": 0.0, "DIRECCI\u00d3N": " ", "COMUNA": 0.0, "DEST_ECO": " ", "AREA_T": 0.0, "AREA_C": 0.0, "EVAL\u00daO": 0.0, "ESPACIOS": 0.0, "VIGENCIA_1": 0.0, "COD_PRED_1": " ", "RANGO": "<1 ha", "Area_ha_1": 0.0207418441549, "Shape_Le_1": 30.3249840846, "COD_PREANT": "25777000100050173000", "Shape_Length": 30.324984084605582, "Shape_Area": 55.725270323365706}, "geometry": {"coordinates": [[[[-74.27207512189416, 5.033957479754573], [-74.27213575731342, 5.033924532326985], [-74.27216128612619, 5.0339718606141375], [-74.27211172779869, 5.034026117118611], [-74.27207512189416, 5.033957479754573]]]], "type": "MultiPolygon"}}, {"type": "Feature", "properties": {"OBJECTID": 39, "COD_DPTO": "25", "COD_MPIO": "777", "COD_SECTVD": "010005", "NOMBRE_PRE": "JARDIN INFANTIL LOS TRAVIESOS", "AREA_HA": 0.0363164566002, "AREA_M2": 363.165088838, "VIVIENDAS": 1, "VIGENCIA": 2009, "FUENTE": "CATASTRO IGAC", "SIMBOLO": 0, "Shape_Leng": 0.000798027978447, "COD_PRED": "257770100050077", "DEPARTAMEN": 0.0, "MUNICIPIO": 0.0, "NUM_\u00b4RED": " ", "TIPO": 0.0, "NUM_ORDEN": 0.0, "TOTAL_REG": 0.0, "NOMBRE": " ", "ESTADO": " ", "NUM_DOC": 0.0, "DIRECCI\u00d3N": " ", "COMUNA": 0.0, "DEST_ECO": " ", "AREA_T": 0.0, "AREA_C": 0.0, "EVAL\u00daO": 0.0, "ESPACIOS": 0.0, "VIGENCIA_1": 0.0, "COD_PRED_1": " ", "RANGO": "<1 ha", "Area_ha_1": 0.0363164566002, "Shape_Le_1": 83.1178431025, "COD_PREANT": "25777000100050077000", "Shape_Length": 83.11784310254816, "Shape_Area": 336.50546280912727}, "geometry": {"coordinates": [[[[-74.27182016377174, 5.034041788830647], [-74.27188381337172, 5.034028174782799], [-74.27188809888118, 5.034040104375206], [-74.27190189624514, 5.034036760413486], [-74.27199453044884, 5.033994364962653], [-74.27199672102242, 5.033993362685501], [-74.27203198564045, 5.033977222681966], [-74.27203418703057, 5.033976214954777], [-74.27207512189416, 5.033957479754573], [-74.27211172779869, 5.034026117118611], [-74.27206842063924, 5.034073529243231], [-74.27202116016812, 5.034101205395487], [-74.27187532974581, 5.034146829972286], [-74.27184213783076, 5.034083652738145], [-74.27182016377174, 5.034041788830647]]]], "type": "MultiPolygon"}}, {"type": "Feature", "properties": {"OBJECTID": 40, "COD_DPTO": "25", "COD_MPIO": "777", "COD_SECTVD": "010005", "NOMBRE_PRE": "LOTE DE VIVIENDA", "AREA_HA": 0.0145273113807, "AREA_M2": 145.272799365, "VIVIENDAS": 1, "VIGENCIA": 2009, "FUENTE": "CATASTRO IGAC", "SIMBOLO": 0, "Shape_Leng": 0.000459278099864, "COD_PRED": "257770100050156", "DEPARTAMEN": 0.0, "MUNICIPIO": 0.0, "NUM_\u00b4RED": " ", "TIPO": 0.0, "NUM_ORDEN": 0.0, "TOTAL_REG": 0.0, "NOMBRE": " ", "ESTADO": " ", "NUM_DOC": 0.0, "DIRECCI\u00d3N": " ", "COMUNA": 0.0, "DEST_ECO": " ", "AREA_T": 0.0, "AREA_C": 0.0, "EVAL\u00daO": 0.0, "ESPACIOS": 0.0, "VIGENCIA_1": 0.0, "COD_PRED_1": " ", "RANGO": "<1 ha", "Area_ha_1": 0.0145273113807, "Shape_Le_1": 50.8534673259, "COD_PREANT": "25777000100050156000", "Shape_Length": 50.85346732586869, "Shape_Area": 145.1107467666737}, "geometry": {"coordinates": [[[[-74.27162454479728, 5.0340821722799705], [-74.27170724258565, 5.034065929686147], [-74.27177326961713, 5.034051818791267], [-74.27178521773507, 5.03409699033965], [-74.27179311128371, 5.034129745059164], [-74.27164646005227, 5.034156940364148], [-74.27162454479728, 5.0340821722799705]]]], "type": "MultiPolygon"}}, {"type": "Feature", "properties": {"OBJECTID": 41, "COD_DPTO": "25", "COD_MPIO": "777", "COD_SECTVD": "010005", "NOMBRE_PRE": "LOTE DE VIVIENDA", "AREA_HA": 0.00958080711674, "AREA_M2": 95.8078648678, "VIVIENDAS": 1, "VIGENCIA": 2009, "FUENTE": "CATASTRO IGAC", "SIMBOLO": 0, "Shape_Leng": 0.000357939365546, "COD_PRED": "257770100050153", "DEPARTAMEN": 0.0, "MUNICIPIO": 0.0, "NUM_\u00b4RED": " ", "TIPO": 0.0, "NUM_ORDEN": 0.0, "TOTAL_REG": 0.0, "NOMBRE": " ", "ESTADO": " ", "NUM_DOC": 0.0, "DIRECCI\u00d3N": " ", "COMUNA": 0.0, "DEST_ECO": " ", "AREA_T": 0.0, "AREA_C": 0.0, "EVAL\u00daO": 0.0, "ESPACIOS": 0.0, "VIGENCIA_1": 0.0, "COD_PRED_1": " ", "RANGO": "<1 ha", "Area_ha_1": 0.00958080711674, "Shape_Le_1": 39.6172405329, "COD_PREANT": "25777000100050153000", "Shape_Length": 39.61724053292302, "Shape_Area": 95.70074312820326}, "geometry": {"coordinates": [[[[-74.2715277125929, 5.034130771975164], [-74.27162205457509, 5.03408266211828], [-74.27162454479728, 5.0340821722799705], [-74.27164646005227, 5.034156940364148], [-74.27155959934815, 5.034198826858295], [-74.2715277125929, 5.034130771975164]]]], "type": "MultiPolygon"}}, {"type": "Feature", "properties": {"OBJECTID": 42, "COD_DPTO": "25", "COD_MPIO": "777", "COD_SECTVD": "010005", "NOMBRE_PRE": "LOTE DE VIVIENDA", "AREA_HA": 0.0122036068896, "AREA_M2": 122.035618787, "VIVIENDAS": 1, "VIGENCIA": 2009, "FUENTE": "CATASTRO IGAC", "SIMBOLO": 0, "Shape_Leng": 0.000406072646519, "COD_PRED": "257770100050155", "DEPARTAMEN": 0.0, "MUNICIPIO": 0.0, "NUM_\u00b4RED": " ", "TIPO": 0.0, "NUM_ORDEN": 0.0, "TOTAL_REG": 0.0, "NOMBRE": " ", "ESTADO": " ", "NUM_DOC": 0.0, "DIRECCI\u00d3N": " ", "COMUNA": 0.0, "DEST_ECO": " ", "AREA_T": 0.0, "AREA_C": 0.0, "EVAL\u00daO": 0.0, "ESPACIOS": 0.0, "VIGENCIA_1": 0.0, "COD_PRED_1": " ", "RANGO": "<1 ha", "Area_ha_1": 0.0122036068896, "Shape_Le_1": 44.9484782828, "COD_PREANT": "25777000100050155000", "Shape_Length": 44.9484782828081, "Shape_Area": 121.89932172030754}, "geometry": {"coordinates": [[[[-74.271418859299, 5.034186290638233], [-74.2715277125929, 5.034130771975164], [-74.27155959934815, 5.034198826858295], [-74.27156196671763, 5.034204301719184], [-74.27145791032832, 5.034260970978494], [-74.271418859299, 5.034186290638233]]]], "type": "MultiPolygon"}}, {"type": "Feature", "properties": {"OBJECTID": 43, "COD_DPTO": "25", "COD_MPIO": "777", "COD_SECTVD": "010005", "NOMBRE_PRE": " ", "AREA_HA": 0.0286637055117, "AREA_M2": 286.63755512, "VIVIENDAS": 1, "VIGENCIA": 2009, "FUENTE": "CATASTRO IGAC", "SIMBOLO": 0, "Shape_Leng": 0.000646539469343, "COD_PRED": "257770100050180", "DEPARTAMEN": 0.0, "MUNICIPIO": 0.0, "NUM_\u00b4RED": " ", "TIPO": 0.0, "NUM_ORDEN": 0.0, "TOTAL_REG": 0.0, "NOMBRE": " ", "ESTADO": " ", "NUM_DOC": 0.0, "DIRECCI\u00d3N": " ", "COMUNA": 0.0, "DEST_ECO": " ", "AREA_T": 0.0, "AREA_C": 0.0, "EVAL\u00daO": 0.0, "ESPACIOS": 0.0, "VIGENCIA_1": 0.0, "COD_PRED_1": " ", "RANGO": "<1 ha", "Area_ha_1": 0.0286637055117, "Shape_Le_1": 71.569657446, "COD_PREANT": "25777000100050180000", "Shape_Length": 71.56965744601459, "Shape_Area": 286.3152147814504}, "geometry": {"coordinates": [[[[-74.27122908775404, 5.034287954809987], [-74.27130369805447, 5.034243595019497], [-74.27140933702726, 5.034174836336781], [-74.271418859299, 5.034186290638233], [-74.27145791032832, 5.034260970978494], [-74.27146489042583, 5.034274968215349], [-74.27127962362135, 5.034380661742496], [-74.27122908775404, 5.034287954809987]]]], "type": "MultiPolygon"}}, {"type": "Feature", "properties": {"OBJECTID": 44, "COD_DPTO": "25", "COD_MPIO": "777", "COD_SECTVD": "010005", "NOMBRE_PRE": "LOTE DE VIVIENDA", "AREA_HA": 0.0261488338313, "AREA_M2": 261.489565327, "VIVIENDAS": 1, "VIGENCIA": 2009, "FUENTE": "CATASTRO IGAC", "SIMBOLO": 0, "Shape_Leng": 0.00064407666214, "COD_PRED": "257770100050159", "DEPARTAMEN": 0.0, "MUNICIPIO": 0.0, "NUM_\u00b4RED": " ", "TIPO": 0.0, "NUM_ORDEN": 0.0, "TOTAL_REG": 0.0, "NOMBRE": " ", "ESTADO": " ", "NUM_DOC": 0.0, "DIRECCI\u00d3N": " ", "COMUNA": 0.0, "DEST_ECO": " ", "AREA_T": 0.0, "AREA_C": 0.0, "EVAL\u00daO": 0.0, "ESPACIOS": 0.0, "VIGENCIA_1": 0.0, "COD_PRED_1": " ", "RANGO": "<1 ha", "Area_ha_1": 0.0261488338313, "Shape_Le_1": 71.260055731, "COD_PREANT": "25777000100050159000", "Shape_Length": 71.26005573098286, "Shape_Area": 261.1952503434638}, "geometry": {"coordinates": [[[[-74.27114957923564, 5.034335222242238], [-74.27122908775404, 5.034287954809987], [-74.27127962362135, 5.034380661742496], [-74.27133922719494, 5.0344914090110215], [-74.27130349331428, 5.0345103213152465], [-74.27125661698037, 5.034535128452721], [-74.2712549842476, 5.03453207250315], [-74.27114957923564, 5.034335222242238]]]], "type": "MultiPolygon"}}, {"type": "Feature", "properties": {"OBJECTID": 45, "COD_DPTO": "25", "COD_MPIO": "777", "COD_SECTVD": "010005", "NOMBRE_PRE": " ", "AREA_HA": 0.0419676153128, "AREA_M2": 419.675388741, "VIVIENDAS": 1, "VIGENCIA": 2009, "FUENTE": "CATASTRO IGAC", "SIMBOLO": 0, "Shape_Leng": 0.000815103677801, "COD_PRED": "257770100050181", "DEPARTAMEN": 0.0, "MUNICIPIO": 0.0, "NUM_\u00b4RED": " ", "TIPO": 0.0, "NUM_ORDEN": 0.0, "TOTAL_REG": 0.0, "NOMBRE": " ", "ESTADO": " ", "NUM_DOC": 0.0, "DIRECCI\u00d3N": " ", "COMUNA": 0.0, "DEST_ECO": " ", "AREA_T": 0.0, "AREA_C": 0.0, "EVAL\u00daO": 0.0, "ESPACIOS": 0.0, "VIGENCIA_1": 0.0, "COD_PRED_1": " ", "RANGO": "<1 ha", "Area_ha_1": 0.0419676153128, "Shape_Le_1": 89.2530772857, "COD_PREANT": "25777000100050181000", "Shape_Length": 89.25307728567007, "Shape_Area": 414.1757496607342}, "geometry": {"coordinates": [[[[-74.27107025787777, 5.034567178558967], [-74.27104625996466, 5.034521094044941], [-74.27109848392433, 5.034492023905743], [-74.27104815372493, 5.034397427325282], [-74.27112619676771, 5.034349126764062], [-74.27114957923564, 5.034335222242238], [-74.2712549842476, 5.03453207250315], [-74.27125661698037, 5.034535128452721], [-74.27125793617844, 5.03453749012607], [-74.27117029660437, 5.034585816684379], [-74.27109635394501, 5.0346190270920985], [-74.27109232781798, 5.034611032877747], [-74.27107025787777, 5.034567178558967]]]], "type": "MultiPolygon"}}, {"type": "Feature", "properties": {"OBJECTID": 46, "COD_DPTO": "25", "COD_MPIO": "777", "COD_SECTVD": "010005", "NOMBRE_PRE": "CASA MAGOLA", "AREA_HA": 0.00797863904477, "AREA_M2": 79.7862124685, "VIVIENDAS": 1, "VIGENCIA": 2009, "FUENTE": "CATASTRO IGAC", "SIMBOLO": 0, "Shape_Leng": 0.000332838698563, "COD_PRED": "257770100050182", "DEPARTAMEN": 0.0, "MUNICIPIO": 0.0, "NUM_\u00b4RED": " ", "TIPO": 0.0, "NUM_ORDEN": 0.0, "TOTAL_REG": 0.0, "NOMBRE": " ", "ESTADO": " ", "NUM_DOC": 0.0, "DIRECCI\u00d3N": " ", "COMUNA": 0.0, "DEST_ECO": " ", "AREA_T": 0.0, "AREA_C": 0.0, "EVAL\u00daO": 0.0, "ESPACIOS": 0.0, "VIGENCIA_1": 0.0, "COD_PRED_1": " ", "RANGO": "<1 ha", "Area_ha_1": 0.00797863904477, "Shape_Le_1": 36.8284911664, "COD_PREANT": "25777000100050182000", "Shape_Length": 36.82849116641396, "Shape_Area": 79.69603460674583}, "geometry": {"coordinates": [[[[-74.27101343131507, 5.034465615011953], [-74.2709958108142, 5.034429825556319], [-74.27104815372493, 5.034397427325282], [-74.27109848392433, 5.034492023905743], [-74.27104625996466, 5.034521094044941], [-74.27101343131507, 5.034465615011953]]]], "type": "MultiPolygon"}}, {"type": "Feature", "properties": {"OBJECTID": 47, "COD_DPTO": "25", "COD_MPIO": "777", "COD_SECTVD": "010005", "NOMBRE_PRE": "VILLA PAOLA", "AREA_HA": 0.0181267085939, "AREA_M2": 181.267678181, "VIVIENDAS": 1, "VIGENCIA": 2009, "FUENTE": "CATASTRO IGAC", "SIMBOLO": 0, "Shape_Leng": 0.000486265977951, "COD_PRED": "257770100050147", "DEPARTAMEN": 0.0, "MUNICIPIO": 0.0, "NUM_\u00b4RED": " ", "TIPO": 0.0, "NUM_ORDEN": 0.0, "TOTAL_REG": 0.0, "NOMBRE": " ", "ESTADO": " ", "NUM_DOC": 0.0, "DIRECCI\u00d3N": " ", "COMUNA": 0.0, "DEST_ECO": " ", "AREA_T": 0.0, "AREA_C": 0.0, "EVAL\u00daO": 0.0, "ESPACIOS": 0.0, "VIGENCIA_1": 0.0, "COD_PRED_1": " ", "RANGO": "<1 ha", "Area_ha_1": 0.0181267085939, "Shape_Le_1": 53.8233444861, "COD_PREANT": "25777000100050147000", "Shape_Length": 53.823344486082625, "Shape_Area": 181.0638828619666}, "geometry": {"coordinates": [[[[-74.27090148388577, 5.0345196738735], [-74.27101343131507, 5.034465615011953], [-74.27104625996466, 5.034521094044941], [-74.27107025787777, 5.034567178558967], [-74.27094742881025, 5.034621126577991], [-74.27090148388577, 5.0345196738735]]]], "type": "MultiPolygon"}}, {"type": "Feature", "properties": {"OBJECTID": 48, "COD_DPTO": "25", "COD_MPIO": "777", "COD_SECTVD": "010005", "NOMBRE_PRE": "LOTE DE VIVIENDA", "AREA_HA": 0.0167485581281, "AREA_M2": 167.485285852, "VIVIENDAS": 1, "VIGENCIA": 2009, "FUENTE": "CATASTRO IGAC", "SIMBOLO": 0, "Shape_Leng": 0.000471150937046, "COD_PRED": "257770100050154", "DEPARTAMEN": 0.0, "MUNICIPIO": 0.0, "NUM_\u00b4RED": " ", "TIPO": 0.0, "NUM_ORDEN": 0.0, "TOTAL_REG": 0.0, "NOMBRE": " ", "ESTADO": " ", "NUM_DOC": 0.0, "DIRECCI\u00d3N": " ", "COMUNA": 0.0, "DEST_ECO": " ", "AREA_T": 0.0, "AREA_C": 0.0, "EVAL\u00daO": 0.0, "ESPACIOS": 0.0, "VIGENCIA_1": 0.0, "COD_PRED_1": " ", "RANGO": "<1 ha", "Area_ha_1": 0.0167485581281, "Shape_Le_1": 52.1464455599, "COD_PREANT": "25777000100050154000", "Shape_Length": 52.146445559923706, "Shape_Area": 167.297768839026}, "geometry": {"coordinates": [[[[-74.27079234267042, 5.034567776353307], [-74.27083640709094, 5.034551098959089], [-74.27090148388577, 5.0345196738735], [-74.27094742881025, 5.034621126577991], [-74.27082943087535, 5.034672949717902], [-74.27079234267042, 5.034567776353307]]]], "type": "MultiPolygon"}}, {"type": "Feature", "properties": {"OBJECTID": 49, "COD_DPTO": "25", "COD_MPIO": "777", "COD_SECTVD": "010005", "NOMBRE_PRE": " ", "AREA_HA": 0.00937127082928, "AREA_M2": 93.7128284628, "VIVIENDAS": 0, "VIGENCIA": 2009, "FUENTE": "CATASTRO IGAC", "SIMBOLO": 0, "Shape_Leng": 0.000362217031691, "COD_PRED": "257770100050183", "DEPARTAMEN": 0.0, "MUNICIPIO": 0.0, "NUM_\u00b4RED": " ", "TIPO": 0.0, "NUM_ORDEN": 0.0, "TOTAL_REG": 0.0, "NOMBRE": " ", "ESTADO": " ", "NUM_DOC": 0.0, "DIRECCI\u00d3N": " ", "COMUNA": 0.0, "DEST_ECO": " ", "AREA_T": 0.0, "AREA_C": 0.0, "EVAL\u00daO": 0.0, "ESPACIOS": 0.0, "VIGENCIA_1": 0.0, "COD_PRED_1": " ", "RANGO": "<1 ha", "Area_ha_1": 0.00937127082928, "Shape_Le_1": 40.0761081157, "COD_PREANT": "25777000100050183000", "Shape_Length": 40.07610811567538, "Shape_Area": 93.60766861143205}, "geometry": {"coordinates": [[[[-74.27072934081755, 5.034591623274578], [-74.27079234267042, 5.034567776353307], [-74.27082943087535, 5.034672949717902], [-74.2707701335105, 5.034698997132136], [-74.27076755256925, 5.034700629911103], [-74.27072934081755, 5.034591623274578]]]], "type": "MultiPolygon"}}, {"type": "Feature", "properties": {"OBJECTID": 51, "COD_DPTO": "25", "COD_MPIO": "777", "COD_SECTVD": "010005", "NOMBRE_PRE": "LA PRIMAVERA", "AREA_HA": 20.5807361352, "AREA_M2": 205807.372276, "VIVIENDAS": 1, "VIGENCIA": 2009, "FUENTE": "CATASTRO IGAC", "SIMBOLO": 0, "Shape_Leng": 0.0291502115825, "COD_PRED": "257770100050113", "DEPARTAMEN": 25.0, "MUNICIPIO": 777.0, "NUM_\u00b4RED": "0100050113", "TIPO": 1.0, "NUM_ORDEN": 1.0, "TOTAL_REG": 1.0, "NOMBRE": "JIMENEZ CAMELO CARLOS-EDUARDO", "ESTADO": " ", "NUM_DOC": 17052927.0, "DIRECCI\u00d3N": "LA PRIMAVERA", "COMUNA": 0.0, "DEST_ECO": "D", "AREA_T": 177039.0, "AREA_C": 143.0, "EVAL\u00daO": 116172000.0, "ESPACIOS": 0.0, "VIGENCIA_1": 1012017.0, "COD_PRED_1": "257770100050113", "RANGO": "20 - 35 ha", "Area_ha_1": 20.5807361352, "Shape_Le_1": 232.539006522, "COD_PREANT": "25777000100050113000", "Shape_Length": 232.53900652237172, "Shape_Area": 1073.8982953759617}, "geometry": {"coordinates": [[[[-74.27164646005227, 5.034156940364148], [-74.27179311128371, 5.034129745059164], [-74.27178521773507, 5.03409699033965], [-74.27177326961713, 5.034051818791267], [-74.27182016377174, 5.034041788830647], [-74.27184213783076, 5.034083652738145], [-74.27187532974581, 5.034146829972286], [-74.27202116016812, 5.034101205395487], [-74.27156991206711, 5.034365459601487], [-74.27125793617844, 5.03453749012607], [-74.27125661698037, 5.034535128452721], [-74.27130349331428, 5.0345103213152465], [-74.27133922719494, 5.0344914090110215], [-74.27127962362135, 5.034380661742496], [-74.27146489042583, 5.034274968215349], [-74.27145791032832, 5.034260970978494], [-74.27156196671763, 5.034204301719184], [-74.27155959934815, 5.034198826858295], [-74.27164646005227, 5.034156940364148]]]], "type": "MultiPolygon"}}, {"type": "Feature", "properties": {"OBJECTID": 52, "COD_DPTO": "25", "COD_MPIO": "777", "COD_SECTVD": "010005", "NOMBRE_PRE": "LA PRIMAVERA", "AREA_HA": 20.5807361352, "AREA_M2": 205807.372276, "VIVIENDAS": 1, "VIGENCIA": 2009, "FUENTE": "CATASTRO IGAC", "SIMBOLO": 0, "Shape_Leng": 0.0291502115825, "COD_PRED": "257770100050113", "DEPARTAMEN": 25.0, "MUNICIPIO": 777.0, "NUM_\u00b4RED": "0100050113", "TIPO": 1.0, "NUM_ORDEN": 1.0, "TOTAL_REG": 1.0, "NOMBRE": "JIMENEZ CAMELO CARLOS-EDUARDO", "ESTADO": " ", "NUM_DOC": 17052927.0, "DIRECCI\u00d3N": "LA PRIMAVERA", "COMUNA": 0.0, "DEST_ECO": "D", "AREA_T": 177039.0, "AREA_C": 143.0, "EVAL\u00daO": 116172000.0, "ESPACIOS": 0.0, "VIGENCIA_1": 1012017.0, "COD_PRED_1": "257770100050113", "RANGO": "20 - 35 ha", "Area_ha_1": 20.5807361352, "Shape_Le_1": 143.155182649, "COD_PREANT": "25777000100050113000", "Shape_Length": 143.1551826493273, "Shape_Area": 502.28369524155056}, "geometry": {"coordinates": [[[[-74.27094742881025, 5.034621126577991], [-74.27107025787777, 5.034567178558967], [-74.27109232781798, 5.034611032877747], [-74.27109635394501, 5.0346190270920985], [-74.27117029660437, 5.034585816684379], [-74.27068280142615, 5.034854633573127], [-74.27067421642809, 5.034855632948079], [-74.27067005698127, 5.034850537979146], [-74.27062035706999, 5.0347896603246705], [-74.27065973283594, 5.034769026338568], [-74.27070547050263, 5.034740012313909], [-74.27076755256925, 5.034700629911103], [-74.2707701335105, 5.034698997132136], [-74.27082943087535, 5.034672949717902], [-74.27094742881025, 5.034621126577991]]]], "type": "MultiPolygon"}}, {"type": "Feature", "properties": {"OBJECTID": 2681, "COD_DPTO": "25", "COD_MPIO": "777", "COD_SECTVD": "010005", "NOMBRE_PRE": "TRES ESQUINAS", "AREA_HA": 0.07916480403, "AREA_M2": 791.646608248, "VIVIENDAS": 1, "VIGENCIA": 2009, "FUENTE": "CATASTRO IGAC", "SIMBOLO": 0, "Shape_Leng": 0.00125296077032, "COD_PRED": "257770100050002", "DEPARTAMEN": 0.0, "MUNICIPIO": 0.0, "NUM_\u00b4RED": " ", "TIPO": 0.0, "NUM_ORDEN": 0.0, "TOTAL_REG": 0.0, "NOMBRE": " ", "ESTADO": " ", "NUM_DOC": 0.0, "DIRECCI\u00d3N": " ", "COMUNA": 0.0, "DEST_ECO": " ", "AREA_T": 0.0, "AREA_C": 0.0, "EVAL\u00daO": 0.0, "ESPACIOS": 0.0, "VIGENCIA_1": 0.0, "COD_PRED_1": " ", "RANGO": "<1 ha", "Area_ha_1": 0.07916480403, "Shape_Le_1": 138.638186379, "COD_PREANT": "25777000100050002000", "Shape_Length": 138.63818637862045, "Shape_Area": 790.7590142794905}, "geometry": {"coordinates": [[[[-74.2672556277736, 5.03702336686279], [-74.26726340120315, 5.0370621904373865], [-74.26727120557615, 5.037101150576781], [-74.26729099809931, 5.037199986299184], [-74.26729926620797, 5.0372412545939245], [-74.26738457846855, 5.037388939724983], [-74.26740620563095, 5.037415257249677], [-74.26719871779827, 5.037349154698104], [-74.2670416383111, 5.03726293420687], [-74.26704421844792, 5.037258545406088], [-74.26716646058773, 5.03706691050203], [-74.2672428543097, 5.036959586767094], [-74.2672556277736, 5.03702336686279]]]], "type": "MultiPolygon"}}, {"type": "Feature", "properties": {"OBJECTID": 2682, "COD_DPTO": "25", "COD_MPIO": "777", "COD_SECTVD": "010005", "NOMBRE_PRE": "SANTA ROSA", "AREA_HA": 0.0541574816048, "AREA_M2": 541.575335549, "VIVIENDAS": 0, "VIGENCIA": 2009, "FUENTE": "CATASTRO IGAC", "SIMBOLO": 0, "Shape_Leng": 0.000883618563757, "COD_PRED": "257770100050007", "DEPARTAMEN": 0.0, "MUNICIPIO": 0.0, "NUM_\u00b4RED": " ", "TIPO": 0.0, "NUM_ORDEN": 0.0, "TOTAL_REG": 0.0, "NOMBRE": " ", "ESTADO": " ", "NUM_DOC": 0.0, "DIRECCI\u00d3N": " ", "COMUNA": 0.0, "DEST_ECO": " ", "AREA_T": 0.0, "AREA_C": 0.0, "EVAL\u00daO": 0.0, "ESPACIOS": 0.0, "VIGENCIA_1": 0.0, "COD_PRED_1": " ", "RANGO": "<1 ha", "Area_ha_1": 0.0541574816048, "Shape_Le_1": 97.7789337698, "COD_PREANT": "25777000100050007000", "Shape_Length": 97.77893376980336, "Shape_Area": 540.9674218760024}, "geometry": {"coordinates": [[[[-74.2672556277736, 5.03702336686279], [-74.26744426066016, 5.036877103408951], [-74.26752799689396, 5.037025871027655], [-74.26729099809931, 5.037199986299184], [-74.26727120557615, 5.037101150576781], [-74.26726340120315, 5.0370621904373865], [-74.2672556277736, 5.03702336686279]]]], "type": "MultiPolygon"}}, {"type": "Feature", "properties": {"OBJECTID": 2697, "COD_DPTO": "25", "COD_MPIO": "777", "COD_SECTVD": "010005", "NOMBRE_PRE": "LA LENTEJA", "AREA_HA": 0.78786447064, "AREA_M2": 7878.64181928, "VIVIENDAS": 2, "VIGENCIA": 2009, "FUENTE": "CATASTRO IGAC", "SIMBOLO": 0, "Shape_Leng": 0.00386310593982, "COD_PRED": "257770100050003", "DEPARTAMEN": 0.0, "MUNICIPIO": 0.0, "NUM_\u00b4RED": " ", "TIPO": 0.0, "NUM_ORDEN": 0.0, "TOTAL_REG": 0.0, "NOMBRE": " ", "ESTADO": " ", "NUM_DOC": 0.0, "DIRECCI\u00d3N": " ", "COMUNA": 0.0, "DEST_ECO": " ", "AREA_T": 0.0, "AREA_C": 0.0, "EVAL\u00daO": 0.0, "ESPACIOS": 0.0, "VIGENCIA_1": 0.0, "COD_PRED_1": " ", "RANGO": "<1 ha", "Area_ha_1": 0.78786447064, "Shape_Le_1": 427.585853744, "COD_PREANT": "25777000100050003000", "Shape_Length": 427.5858537441271, "Shape_Area": 7869.804753256007}, "geometry": {"coordinates": [[[[-74.26740620563095, 5.037415257249677], [-74.26738457846855, 5.037388939724983], [-74.26729926620797, 5.0372412545939245], [-74.26729099809931, 5.037199986299184], [-74.26752799689396, 5.037025871027655], [-74.26744426066016, 5.036877103408951], [-74.26753617836188, 5.036805832999814], [-74.26754600973686, 5.036807313108042], [-74.26758930471851, 5.0367715034857605], [-74.26762494173852, 5.036760208157384], [-74.26782365113337, 5.036744824790239], [-74.26789071951646, 5.036897250371838], [-74.26795551907361, 5.037014944035428], [-74.26799801525095, 5.037092130560441], [-74.26811870898382, 5.037287010839387], [-74.26827964462674, 5.037562527453382], [-74.26842713751684, 5.0377036290467725], [-74.26847870266215, 5.037779912933142], [-74.26839556405686, 5.0378162300860385], [-74.2684006667132, 5.037829865481135], [-74.26847272928927, 5.037945420403391], [-74.26835376012353, 5.037987244387447], [-74.26819091653128, 5.037816268047966], [-74.26787304704968, 5.037676429505577], [-74.26765595711949, 5.037575428557904], [-74.26754627736813, 5.037538800453777], [-74.26749315384392, 5.037521063029086], [-74.26740620563095, 5.037415257249677]]]], "type": "MultiPolygon"}}]}