{"type": "FeatureCollection", "features": [{"type": "Feature", "properties": {"NOMBRE_PRE": "HISPANIA ALTA", "AREA_HA": 0.9721915163034062, "NOMBRE": "BOCATOMA LAGUNA HISPANA", "CODIGO": "257770200070164", "Shape_Length": 534.2846614101082, "Shape_Area": 9721.915163034062, "Infraestructura": "Bocatoma Laguna Hispana", "Perimetro": 534.2846614101082}, "geometry": {"coordinates": [[[[-74.1975085033021, 5.032427118052528], [-74.19751475262215, 5.032378773380821], [-74.19754409349981, 5.032360545964548], [-74.19759741104482, 5.032343300531543], [-74.19769796025768, 5.032352288765817], [-74.19776015637338, 5.03235971068941], [-74.19783675329693, 5.032367726831476], [-74.19785652639084, 5.032349094446595], [-74.19785216746531, 5.032334327534493], [-74.19781480969, 5.032298768659012], [-74.19779126204011, 5.032283219073973], [-74.19777265495796, 5.032263011397181], [-74.19774533095519, 5.032213280748593], [-74.19771248383881, 5.03218763138427], [-74.19769344684255, 5.032181992219431], [-74.19768357473147, 5.0321913083828855], [-74.19766802595312, 5.032229554181642], [-74.19764884534703, 5.032228770584952], [-74.19757285720735, 5.0322013574109485], [-74.1975350875739, 5.032180366092089], [-74.19751170070299, 5.032159969941558], [-74.197450545141, 5.032118600559365], [-74.19741307991129, 5.032087915252213], [-74.19738519144441, 5.0320576176983], [-74.19733407872559, 5.032002093713427], [-74.19729675713589, 5.031966561875023], [-74.19727501471205, 5.031939009120914], [-74.19726903036886, 5.031931425902141], [-74.19725625089528, 5.03187746917806], [-74.19724739130979, 5.031852810810067], [-74.19724870011704, 5.031809141415242], [-74.19724942634353, 5.0317848879811296], [-74.19726466987743, 5.031756355171113], [-74.19728528394023, 5.0317086129482975], [-74.19734539814381, 5.031623588882746], [-74.19737531252346, 5.0315859283455335], [-74.19740478612707, 5.031562827296405], [-74.19745344208692, 5.031540491754528], [-74.19748728358141, 5.031532138603309], [-74.19753550868847, 5.031524361621459], [-74.19755962078268, 5.031520469058415], [-74.19757894497688, 5.031516396188501], [-74.19765027868284, 5.03153870113878], [-74.19767904502422, 5.031539862524333], [-74.19771290455883, 5.031531509328883], [-74.19773222873476, 5.031527427406327], [-74.19775126657993, 5.031533048476449], [-74.19778469617549, 5.031539254744564], [-74.19780853097647, 5.031545074197189], [-74.19783236489195, 5.031550902698748], [-74.19785155536736, 5.031551667275164], [-74.19788949560733, 5.031567783962281], [-74.19790868519883, 5.031568558491609], [-74.19793295894074, 5.031559809408031], [-74.19794793413828, 5.031540969596509], [-74.19795796787368, 5.031526788781856], [-74.19797715746192, 5.0315275624046105], [-74.1979866086505, 5.0315328056893724], [-74.19799620344628, 5.031533193405205], [-74.198024854132, 5.031539201244403], [-74.19803852063414, 5.0315640670085475], [-74.19804768461204, 5.0315790223343475], [-74.19806600535087, 5.031608932998518], [-74.19808476502932, 5.031624276036147], [-74.19810382003813, 5.031629906111267], [-74.19813203090746, 5.031650491524569], [-74.19814585004345, 5.031670500794909], [-74.19815458411416, 5.031700024631706], [-74.19816389260478, 5.0317101243845865], [-74.19819211251888, 5.031730718825608], [-74.1982249866882, 5.031756367212452], [-74.19827590344855, 5.031821648229322], [-74.19829409866537, 5.031856424370889], [-74.19830763062114, 5.031886154725006], [-74.198315629578, 5.0319399772406355], [-74.19831941501471, 5.031974177277052], [-74.19832814911656, 5.032003710156645], [-74.1983302885483, 5.03201510342658], [-74.19833644430584, 5.032047819708484], [-74.19832961259802, 5.032115634616704], [-74.1983237932946, 5.032149438818629], [-74.19830852278861, 5.032177998838814], [-74.19826400092165, 5.03221993988199], [-74.19824378082649, 5.032253158011733], [-74.19823316455866, 5.032286763834374], [-74.19822182126798, 5.032344659278071], [-74.19824494805859, 5.032374785484232], [-74.19827360787343, 5.032380830384182], [-74.19829267194561, 5.032386469479645], [-74.19833064840145, 5.032402622253069], [-74.19833981333672, 5.032417595664816], [-74.19834883467105, 5.032437425549289], [-74.19834331067659, 5.032461507742399], [-74.19831872350889, 5.032479950840537], [-74.19828976836538, 5.03248361890475], [-74.1982322970219, 5.032476395548257], [-74.19818953260717, 5.032460035324978], [-74.19812305798186, 5.032432982036705], [-74.19809934867097, 5.032422288067504], [-74.19806633173106, 5.03240147805687], [-74.19800918369246, 5.032384541664962], [-74.19796091334109, 5.032392273537243], [-74.19794128475667, 5.032406049449614], [-74.19793052484883, 5.032444501792004], [-74.19792485723363, 5.032473440458863], [-74.19790973929985, 5.032497126793486], [-74.1979132284594, 5.0325410207984875], [-74.1979559748149, 5.032557372025212], [-74.1980035190519, 5.032573929771346], [-74.19805048976117, 5.032609903452299], [-74.19805936747026, 5.032634579862433], [-74.19803929995022, 5.032662924309274], [-74.1979866625106, 5.0326558802453905], [-74.19792486015584, 5.032633871806424], [-74.19786773012719, 5.0326169272295855], [-74.19777688315311, 5.03260344319501], [-74.1977104635587, 5.032576389762898], [-74.19760671327019, 5.032513785529343], [-74.19754090244162, 5.032467326022231], [-74.1975085033021, 5.032427118052528]]]], "type": "MultiPolygon"}}, {"type": "Feature", "properties": {"NOMBRE_PRE": "LA PLANTA", "AREA_HA": 0.431224928919453, "NOMBRE": "MUNICIPIO-DE-SUPATA-CUNDINAMARCA", "CODIGO": "257770100110127", "Shape_Length": 283.7759348876453, "Shape_Area": 4312.24928919453, "Infraestructura": "PTAR existente casco urbano", "Perimetro": 283.7759348876453}, "geometry": {"coordinates": [[[[-74.24176191684758, 5.065052342390275], [-74.24196615072059, 5.065096183072088], [-74.24219956577655, 5.065140008380324], [-74.24243298626668, 5.065183838110187], [-74.24255698817635, 5.0652130606756165], [-74.24260806450616, 5.06530813431443], [-74.24260809977507, 5.065461720617053], [-74.24246222537514, 5.065461757352961], [-74.2422944861326, 5.065512998624238], [-74.24214132168355, 5.065556919998732], [-74.24193709337283, 5.065564286330718], [-74.24182039152558, 5.0655716302914255], [-74.24168181271706, 5.06559359997685], [-74.24171091561034, 5.065301036476037], [-74.24176191684758, 5.065052342390275]]]], "type": "MultiPolygon"}}, {"type": "Feature", "properties": {"NOMBRE_PRE": "EL MANANTIAL", "AREA_HA": 0.2063050266542956, "NOMBRE": "MUNICIPIO-DE-SUPATA", "CODIGO": "257770100100145", "Shape_Length": 204.73916100777933, "Shape_Area": 2063.050266542956, "Infraestructura": "PTAP existente casco urbano", "Perimetro": 204.73916100777933}, "geometry": {"coordinates": [[[[-74.2277900896201, 5.05753169427983], [-74.22792127713113, 5.057356047856458], [-74.22804652453001, 5.057248351760966], [-74.2282846485896, 5.057046938866237], [-74.22843614101681, 5.057531046305921], [-74.22842359792702, 5.057531552349992], [-74.2277900896201, 5.05753169427983]]]], "type": "MultiPolygon"}}, {"type": "Feature", "properties": {"NOMBRE_PRE": "AGUA REGADA", "AREA_HA": 0.09174974120305873, "NOMBRE": "MURCIA FONSECA MARIA-ANTONIA", "CODIGO": "257770100050005", "Shape_Length": 122.25778030804801, "Shape_Area": 917.4974120305874, "Infraestructura": "PTAR proyectada La Magola", "Perimetro": 122.25778030804801}, "geometry": {"coordinates": [[[[-74.26883746608658, 5.038319262457293], [-74.2688125840824, 5.038283519679891], [-74.26888886048742, 5.038208862136284], [-74.26894693277056, 5.038152019487282], [-74.26899107054749, 5.038108817691353], [-74.26900365702684, 5.038094705348238], [-74.26909296508816, 5.038208451299273], [-74.26910175308552, 5.038217650481599], [-74.26911257947275, 5.038233433560405], [-74.26917389466956, 5.03831152694477], [-74.26916907665775, 5.038315793445238], [-74.26912436523578, 5.0383553780639945], [-74.26908761656794, 5.03839224811688], [-74.26897024917432, 5.038510002013326], [-74.26894411310172, 5.038472458418065], [-74.26892275347548, 5.038441776580598], [-74.268916545639, 5.038432859185403], [-74.26888374571467, 5.038385741288031], [-74.26888284724677, 5.0383844500765225], [-74.26888154705216, 5.038382584193652], [-74.2688565962802, 5.038346743834576], [-74.26884741798364, 5.038333557940884], [-74.26883746608658, 5.038319262457293]]]], "type": "MultiPolygon"}}, {"type": "Feature", "properties": {"NOMBRE_PRE": "SAN MIGUEL", "AREA_HA": 0.6718447393111758, "NOMBRE": "PACHON RINCON PEDRO-IGNACIO", "CODIGO": "257770100110070", "Shape_Length": 348.5331977993096, "Shape_Area": 6718.447393111758, "Infraestructura": "Proyecci\u00f3n de traslado PTAR casco urbano", "Perimetro": 348.5331977993096}, "geometry": {"coordinates": [[[[-74.24522981964404, 5.069811149443661], [-74.24626362353919, 5.069225710255468], [-74.24633096564241, 5.069371328213125], [-74.24638431261052, 5.069592699431494], [-74.2463668882678, 5.069648051320353], [-74.24633491025966, 5.069743417552215], [-74.24631512329947, 5.069793430186009], [-74.24630624461471, 5.0698133250822535], [-74.24629123772799, 5.069843325857393], [-74.24626472472612, 5.069887186079515], [-74.24624817616288, 5.069909399408783], [-74.2462432892751, 5.069915117278501], [-74.24623039708129, 5.06992845460723], [-74.2462165328521, 5.069940733371824], [-74.24621092964003, 5.069945105359544], [-74.24618470564324, 5.0699627481409735], [-74.24617832422943, 5.069966444830448], [-74.24615116287522, 5.069979938147505], [-74.24612378268641, 5.069990833269892], [-74.24611164210663, 5.069994744642577], [-74.24607119259014, 5.070004244402789], [-74.24605820718122, 5.070006144199717], [-74.24601121819772, 5.070009381700595], [-74.24583227814587, 5.07000763555435], [-74.2458295756404, 5.070007622666291], [-74.2458121969288, 5.0700081872813465], [-74.24576092022839, 5.070011510841038], [-74.24576060535422, 5.070011531353649], [-74.24575991971192, 5.0700115987260945], [-74.2457584391711, 5.070011694774652], [-74.2457438269365, 5.07001316520102], [-74.24571911820803, 5.070016355222092], [-74.24571827744514, 5.070016464514693], [-74.24570273330909, 5.0700189845066275], [-74.2456668788615, 5.070025874963076], [-74.24566495671759, 5.070026252353646], [-74.24566026309263, 5.070027350789797], [-74.24565132301045, 5.070029345027589], [-74.24564913602782, 5.070029955464768], [-74.24564771639537, 5.070030287551314], [-74.2456391246108, 5.070032751619343], [-74.24558814020813, 5.070048291356068], [-74.24557979068885, 5.070050985683351], [-74.24556322325138, 5.0700572436071], [-74.24555792821393, 5.070059514931172], [-74.24555788403282, 5.070059532207705], [-74.24555768658605, 5.070059617640328], [-74.24552561242777, 5.070073796294498], [-74.24551502494914, 5.070078752435596], [-74.24550667762831, 5.070083065464146], [-74.24549123123391, 5.070091389623721], [-74.24548396802865, 5.070095449025965], [-74.24547539768686, 5.070100628387709], [-74.245452991874, 5.070114740456652], [-74.24545170855424, 5.070115575354943], [-74.24545093170818, 5.07011607811675], [-74.2454486985156, 5.070117531021147], [-74.24538352988394, 5.0700376912113585], [-74.24522981964404, 5.069811149443661]]]], "type": "MultiPolygon"}}, {"type": "Feature", "properties": {"NOMBRE_PRE": "LOS CUROS", "AREA_HA": 0.0712581714116157, "NOMBRE": "SIERRA PACHECO VICENTE ABELARDO", "CODIGO": "257770100110064", "Shape_Length": 117.09431065279371, "Shape_Area": 712.581714116157, "Infraestructura": "Planta alcanos existente", "Perimetro": 117.09431065279371}, "geometry": {"coordinates": [[[[-74.24178491894942, 5.064505779089348], [-74.24183126469586, 5.064495194337927], [-74.24182374705562, 5.064546536037593], [-74.24181860407661, 5.064581667091701], [-74.24181287322683, 5.064620813925059], [-74.24180017822333, 5.064684541579506], [-74.24179591587024, 5.064705938611185], [-74.24176916378222, 5.064840240533245], [-74.24149369535179, 5.06468778886756], [-74.24162053404152, 5.064597353847786], [-74.24168995468807, 5.0645478568182885], [-74.24178491894942, 5.064505779089348]]]], "type": "MultiPolygon"}}, {"type": "Feature", "properties": {"NOMBRE_PRE": "EL PEDREGAL", "AREA_HA": 0.05640835157434503, "NOMBRE": "LEON INFANTE ELSA", "CODIGO": "257770100070144", "Shape_Length": 123.26302689825857, "Shape_Area": 564.0835157434503, "Infraestructura": "PTAP existente La Magola", "Perimetro": 123.26302689825857}, "geometry": {"coordinates": [[[[-74.27116585723996, 5.033430953154406], [-74.27129409262778, 5.033401240597013], [-74.271301150866, 5.03339508049048], [-74.27136203765028, 5.0333419555456675], [-74.27138819529264, 5.03331913239457], [-74.27141321799597, 5.0332973004084165], [-74.27147145442419, 5.0332393399384046], [-74.27152134382654, 5.033189688282319], [-74.27154697494474, 5.033220511002543], [-74.27155862520681, 5.0332345208363165], [-74.27155049231119, 5.033252267232061], [-74.27154988405006, 5.033253593955845], [-74.27153636219569, 5.033283114215136], [-74.27149513175631, 5.033373122166089], [-74.2714893672194, 5.033385705656674], [-74.27147119580441, 5.033425369690747], [-74.27119989859848, 5.0335352900796195], [-74.27119701070805, 5.0335177751165014], [-74.27119298549515, 5.033500487669725], [-74.27119023755392, 5.033490922935493], [-74.27118737186889, 5.033481591870237], [-74.27118497546257, 5.033474169927461], [-74.27117873467944, 5.03345755726491], [-74.2711714237635, 5.033441389140021], [-74.27116585723996, 5.033430953154406]]]], "type": "MultiPolygon"}}, {"type": "Feature", "properties": {"NOMBRE_PRE": "LOTE DE TERRENO LA JUNGLA", "AREA_HA": 0.9036987808917285, "NOMBRE": "MUNICIPIO-DE-SUPATA", "CODIGO": "257770100110146", "Shape_Length": 390.5178607498469, "Shape_Area": 9036.987808917285, "Infraestructura": "Alternativa para manejo de residuos s\u00f3lidos, RCD y celda de residuos peligrosos", "Perimetro": 390.5178607498469}, "geometry": {"coordinates": [[[[-74.24644592834716, 5.068124278786972], [-74.24614104486204, 5.067763866860712], [-74.24588306952825, 5.067481810523622], [-74.24569431813424, 5.067272719462419], [-74.24579704011651, 5.06723889161816], [-74.2460002318115, 5.067207492367649], [-74.24616434372444, 5.067176105918701], [-74.24637533751174, 5.067129031973341], [-74.24657075278664, 5.067254367939688], [-74.24668800776482, 5.067356215411477], [-74.24685213398783, 5.067371849035297], [-74.24689123072376, 5.067465881171796], [-74.24693817662487, 5.067677462879777], [-74.24694603920726, 5.067865540577982], [-74.2467897739288, 5.06803015177951], [-74.24665694093322, 5.068132064199481], [-74.24651329153261, 5.068182589745008], [-74.24644592834716, 5.068124278786972]]]], "type": "MultiPolygon"}}, {"type": "Feature", "properties": {"NOMBRE_PRE": "BONANZA", "AREA_HA": 0.008629348426502863, "NOMBRE": "BONANZA", "CODIGO": "257770100100011", "Shape_Length": 57.7533117422335, "Shape_Area": 86.29348426502862, "Infraestructura": "Tanque de almacenamiento", "Perimetro": 57.7533117422335}, "geometry": {"coordinates": [[[[-74.22739861015545, 5.057148459527759], [-74.22740083016362, 5.057147183150469], [-74.22740305017177, 5.057145906773174], [-74.2274052692793, 5.057144631302375], [-74.22740749018973, 5.05714335492336], [-74.22740970929725, 5.057142079452569], [-74.22741016627893, 5.057141817094956], [-74.22740980959057, 5.057141193446664], [-74.2273902454183, 5.057151686565442], [-74.22738921055722, 5.057149822792399], [-74.22738764402429, 5.057150724242589], [-74.2273662237593, 5.057113296331379], [-74.22735867917976, 5.057117454681823], [-74.22735716531858, 5.05711470238058], [-74.22735555101404, 5.057115631065672], [-74.22733974631686, 5.0570880152131155], [-74.22734183202307, 5.05708681509503], [-74.22739304900279, 5.057057347736191], [-74.22741217177722, 5.057087970344145], [-74.22743388981979, 5.057128278627168], [-74.2274376048068, 5.057134101327942], [-74.2274371352285, 5.05713438271059], [-74.22743735250009, 5.057134762322294], [-74.22741386351697, 5.05714827682076], [-74.22741360282174, 5.057147837573373], [-74.22741132313296, 5.05714904620246], [-74.22740905426173, 5.0571502493821265], [-74.22740678448986, 5.057151453468325], [-74.2274045156186, 5.057152656647997], [-74.22740224674733, 5.057153859827662], [-74.22739997787606, 5.057155063007323], [-74.22739639014559, 5.057149735000231], [-74.22739861015545, 5.057148459527759]]], [[[-74.22739947163343, 5.057167497058228], [-74.22743345996463, 5.057149650316756], [-74.22746030562094, 5.057199396081995], [-74.22742631729024, 5.057217243730111], [-74.22739947163343, 5.057167497058228]]]], "type": "MultiPolygon"}}]}