{"type": "FeatureCollection", "features": [{"type": "Feature", "properties": {"PUBLICADO_": "N", "TITLE_TYPE": "CC", "TENURE_STA": "A", "MINING_CLA": "PEQ", "TENURE_ID": "738R", "TENURE_S01": "EXPT", "CENTROID_C": "-74.24392,5.19925", "CODIGO_EXP": "738R", "TITULO_EST": "Activo", "MODALIDAD": "CONTRATO DE CONCESION (L 685)", "MUNICIPIOS": "PACHO", "DEPARTAMEN": "Cundinamarca", "AREA_HA": 44.17984, "CLASIFICAC": "Peque\u00f1a", "ETAPA": "Explotaci\u00f3n", "SOLICITANT": "(31964) ROMAN CORDOBA MEDINA", "MINERALES": "ESMERALDA", "MINERALES_": " ", "FECHA_DE_S": "1996-09-16T00:00:00+00:00", "FECHA_DE_E": "2005-01-04T00:00:00+00:00", "FECHA_DE_A": "2005-01-04T00:00:00+00:00", "FECHA_DE01": "2035-01-03T00:00:00+00:00", "OBJECTID": 171826.0, "PAR": "ZONA CENTRO", "TIPO_TERMI": " ", "SHAPE_1": " ", "TERMINATIO": " ", "ACTIVE_TEN": "Y", "ACTIVE_APP": "N", "Shape_Length": 2833.459308244989, "Shape_Area": 441295.7882306817}, "geometry": {"coordinates": [[[[-74.24180396584948, 5.19581528525016], [-74.24604304932963, 5.194729061342645], [-74.24604536467999, 5.203771955853973], [-74.24180595164823, 5.203773033482919], [-74.24180396584948, 5.19581528525016]]]], "type": "MultiPolygon"}}, {"type": "Feature", "properties": {"PUBLICADO_": "Y", "TITLE_TYPE": "CCD2", "TENURE_STA": "A", "MINING_CLA": "MED", "TENURE_ID": "13316", "TENURE_S01": "EXPT", "CENTROID_C": "-74.19237,4.86954", "CODIGO_EXP": "13316", "TITULO_EST": "Activo", "MODALIDAD": "CONTRATO DE CONCESION (D 2655)", "MUNICIPIOS": "EL ROSAL, MADRID, SUBACHOQUE", "DEPARTAMEN": "Cundinamarca", "AREA_HA": 275.6515, "CLASIFICAC": "Mediana", "ETAPA": "Explotaci\u00f3n", "SOLICITANT": "(57926) BARBARA FORERO DE RAMOS, (29254) BERNARDO ANTONIO  FORERO GONZALEZ, (57339) GLORIA YANETH FORERO DUARTE, (57925) LUCILA ELISA FORERO GONZALEZ, (57337) LUIS CARLOS FORERO GONZALEZ, (57338) MARCELA FORERO DUARTE, (57340) MARTIN FORERO DUARTE", "MINERALES": "GRAVAS", "MINERALES_": " ", "FECHA_DE_S": "1992-06-30T00:00:00+00:00", "FECHA_DE_E": "1992-06-30T00:00:00+00:00", "FECHA_DE_A": "1992-06-30T00:00:00+00:00", "FECHA_DE01": "2024-09-25T00:00:00+00:00", "OBJECTID": 176910.0, "PAR": "ZONA CENTRO", "TIPO_TERMI": " ", "SHAPE_1": " ", "TERMINATIO": " ", "ACTIVE_TEN": "Y", "ACTIVE_APP": "N", "Shape_Length": 12625.995418281243, "Shape_Area": 1418159.3824581862}, "geometry": {"coordinates": [[[[-74.18126291463611, 4.884966346976674], [-74.18126196488555, 4.878370109312802], [-74.18799900446545, 4.867119693550376], [-74.18722622319584, 4.866654098578963], [-74.18908300575981, 4.863553236287122], [-74.18123503386633, 4.85909178113088], [-74.18123497028164, 4.858649600727876], [-74.18132770869644, 4.858679041831153], [-74.18145311802091, 4.858697560388787], [-74.1815734519275, 4.858715329561408], [-74.18172089064561, 4.858684170086076], [-74.18186831361008, 4.858544036528659], [-74.1820209145162, 4.858445415049124], [-74.18211451915698, 4.8583849209425685], [-74.18226146573116, 4.858357157183926], [-74.18245030580658, 4.858411616683999], [-74.18267466808936, 4.858476316298351], [-74.18294438843324, 4.858541273762223], [-74.18313322387193, 4.858562000733605], [-74.18323927298952, 4.858525660087854], [-74.18327288976826, 4.858450410061503], [-74.18332068573132, 4.8583434088597235], [-74.18334009251168, 4.858120874521906], [-74.18335815661933, 4.857853621885178], [-74.18337624124204, 4.857705720811975], [-74.18342537799974, 4.857635658132892], [-74.1834657139763, 4.857597521775304], [-74.18355986664706, 4.857508496155918], [-74.18374351624436, 4.857451384494703], [-74.18393752006382, 4.857456545381312], [-74.18417808280925, 4.857448723308071], [-74.18428865063369, 4.857408035927079], [-74.18954726512494, 4.86277799665329], [-74.19324387299058, 4.856652679221664], [-74.19388921681401, 4.8569638008258496], [-74.19395210808318, 4.856994941549822], [-74.19399873550334, 4.857018026369503], [-74.1943218511203, 4.857178014287865], [-74.19436276716236, 4.857198271631895], [-74.19494834017564, 4.857488204370109], [-74.19498438178573, 4.857506049874708], [-74.19534913073026, 4.8576866497068165], [-74.19571871999207, 4.857869644851939], [-74.19575283044186, 4.857886531891982], [-74.1961712259965, 4.858093693328316], [-74.19642962902978, 4.858221631585561], [-74.19651165218384, 4.858233288692984], [-74.19697570713208, 4.858156377804227], [-74.19759735503736, 4.857973087963745], [-74.19761605760645, 4.857967573277733], [-74.19769655600746, 4.857943838631346], [-74.197844679472, 4.857882550057205], [-74.19819467856192, 4.85773773519124], [-74.1982101465781, 4.8577313358833205], [-74.19842649836237, 4.857554318322545], [-74.19850296174484, 4.85749175628734], [-74.19873723323933, 4.857401327278172], [-74.19876854845837, 4.857389239167226], [-74.19881932852527, 4.857369636213668], [-74.19907024234895, 4.857272787607553], [-74.19917684510276, 4.857231635450446], [-74.19945540684472, 4.857105187580288], [-74.19981270702048, 4.857489395948791], [-74.19977776814984, 4.857545297967782], [-74.19970538548209, 4.85763215844555], [-74.19965471628328, 4.857682825038447], [-74.19958233528989, 4.857726255402145], [-74.19947777932438, 4.8577633530646045], [-74.19936377744217, 4.857790496267517], [-74.19926063074735, 4.857790496011798], [-74.19916291263294, 4.857790496041071], [-74.19907605258608, 4.857790496657514], [-74.19898919433899, 4.857790496354748], [-74.19891861913578, 4.857790496049058], [-74.19882633097527, 4.857812212293015], [-74.1987286143615, 4.85786107136677], [-74.1986417551327, 4.857920784496989], [-74.19855489522577, 4.857991358318001], [-74.19848974998462, 4.858056504362958], [-74.19842460506321, 4.858116220507604], [-74.19835946049665, 4.8582139395897554], [-74.19831060131538, 4.85827365483858], [-74.19826174145331, 4.858344226261103], [-74.19821831321747, 4.858409370801918], [-74.19815316824105, 4.8584690878388725], [-74.19809888020525, 4.858517946599335], [-74.19802287891046, 4.858534232882967], [-74.19792516064479, 4.858534232759339], [-74.19783830136711, 4.8585342341431295], [-74.19776501259268, 4.858544413393265], [-74.19774058378108, 4.858564770266561], [-74.1976876533569, 4.858605484911731], [-74.19764693779895, 4.858633984340846], [-74.1976184370308, 4.8586624874090845], [-74.19759400809244, 4.858699130353812], [-74.19756550720135, 4.858743919495804], [-74.19752886244747, 4.858796848494285], [-74.19750850612422, 4.8588579219133265], [-74.19750443296675, 4.858906779228493], [-74.19749221869623, 4.858959711889478], [-74.19749221917999, 4.859016710888825], [-74.19749222057341, 4.859073713505769], [-74.19749221926023, 4.859130715222599], [-74.1975085056047, 4.859179573475486], [-74.19753700602261, 4.859204003089563], [-74.19754514950519, 4.85924879048614], [-74.19754514915894, 4.859297648710218], [-74.19752886304846, 4.859342437876433], [-74.19748000443049, 4.859387224273529], [-74.1974433596768, 4.859436082436427], [-74.19743114472735, 4.8594564393307635], [-74.1974148595657, 4.859493084100274], [-74.19741485927368, 4.859533799741084], [-74.19741485898388, 4.859574516286672], [-74.1974148603823, 4.859631518904322], [-74.1974311449067, 4.859684447095302], [-74.19746371888407, 4.859733306275382], [-74.19747593256214, 4.859765879350822], [-74.197484076108, 4.859802520542432], [-74.1974840758263, 4.85984323708666], [-74.19748000448746, 4.859892097113481], [-74.1974718621698, 4.859936882673808], [-74.1974515032097, 4.859985740868848], [-74.19741893121073, 4.860038670786982], [-74.1973985732083, 4.860079388204848], [-74.19737821531355, 4.860103816832889], [-74.19735378633206, 4.860140462497912], [-74.19733750039988, 4.860156749450948], [-74.1973089986572, 4.860185248001334], [-74.19728049790656, 4.860201534933318], [-74.19724792533941, 4.860205609336767], [-74.19721128088793, 4.860205608367453], [-74.19718278025177, 4.860205609219675], [-74.1971339219683, 4.860193390271436], [-74.1971094933916, 4.860173035115031], [-74.19708099206001, 4.860144531936291], [-74.19706470660562, 4.8600956736709655], [-74.19706470691514, 4.860054960740105], [-74.19706470631844, 4.860014245096332], [-74.19706063474486, 4.85996945498289], [-74.19704841846882, 4.859924669378759], [-74.19703187849676, 4.859865504617252], [-74.1970227175795, 4.859810536937002], [-74.19700668607486, 4.859762446418555], [-74.19698607425262, 4.859725797493302], [-74.19693568782341, 4.859668541393401], [-74.19690591537626, 4.859659383058522], [-74.19684178922616, 4.859657090955717], [-74.19678453224137, 4.859659384106019], [-74.19673414562352, 4.859682282567651], [-74.19669750234324, 4.8597074757161405], [-74.19665169636231, 4.85973496349574], [-74.19662192360346, 4.859762445434891], [-74.19659215119404, 4.859801376218089], [-74.19655092566995, 4.859851761697688], [-74.19654176551701, 4.8598723746585355], [-74.19652344222659, 4.859892989405931], [-74.19650054096186, 4.8599135978012], [-74.19647992870506, 4.859931921050561], [-74.19646160775588, 4.85994108061322], [-74.1964043502296, 4.8599502450366705], [-74.19635854534528, 4.859950243988099], [-74.1963287719779, 4.859941082011215], [-74.19630357936472, 4.859922762236795], [-74.19628754780894, 4.859883824975995], [-74.19627609563594, 4.859838020052244], [-74.19626693541854, 4.859762444783068], [-74.19624632381029, 4.859654799944777], [-74.19623029091942, 4.8595654816027904], [-74.19619822763023, 4.859462420149336], [-74.19615700328924, 4.859379971650401], [-74.19612265043666, 4.859343326251941], [-74.19608600627058, 4.859315842727054], [-74.1960264587849, 4.859288360016788], [-74.19597836421657, 4.859272332072325], [-74.19593713969077, 4.85926087853472], [-74.19590507593765, 4.859260877499966], [-74.1958546895262, 4.859260877293633], [-74.19580430530847, 4.859267751094067], [-74.19577911279846, 4.859288359909852], [-74.19575621110337, 4.859306684483569], [-74.19573101764648, 4.859331875373113], [-74.19571269467019, 4.859363938045042], [-74.19570124445781, 4.8594005850784905], [-74.1956966624858, 4.8594418083380875], [-74.19569437260712, 4.859487612320347], [-74.19569895463547, 4.859533418592217], [-74.19571956642291, 4.859565480978261], [-74.19574246811818, 4.85959525369411], [-74.19576308128676, 4.859625026848483], [-74.19577911207371, 4.859645639459368], [-74.19580430600449, 4.8596662539130415], [-74.19584095009333, 4.859702895263348], [-74.19586156143035, 4.8597372532034155], [-74.19587988401646, 4.859794508374928], [-74.19588217297814, 4.859844893543541], [-74.19587072165, 4.859904438277814], [-74.19584782040869, 4.859968563680797], [-74.19582033703591, 4.859996046962566], [-74.19576079078008, 4.8600235337335835], [-74.19568063235185, 4.8600555966071495], [-74.19559360214197, 4.860073920011955], [-74.19554092703903, 4.860083078049837], [-74.19551344283867, 4.860101402606764], [-74.19548367047781, 4.860126591663449], [-74.19546992862605, 4.860156366937762], [-74.19546076811885, 4.860209042645231], [-74.19546076766746, 4.8602548461893305], [-74.1954630579372, 4.860307520590733], [-74.19548595995492, 4.8603533269484895], [-74.19551573350327, 4.86039226248453], [-74.195534056016, 4.8604105827113875], [-74.19562108450198, 4.860483870911451], [-74.19566002035887, 4.860518227113779], [-74.19570124350321, 4.860541130406502], [-74.19574475891389, 4.860550289744341], [-74.19578369270826, 4.860564030231756], [-74.19583178824075, 4.860584642049025], [-74.19589820485024, 4.860635027449852], [-74.19594630049309, 4.8606945733016484], [-74.19596691371912, 4.860724349152863], [-74.19597607438871, 4.860749538821618], [-74.1959829441773, 4.860786184117175], [-74.19598752629732, 4.860827411020248], [-74.19598752545629, 4.860870921709576], [-74.19598523519045, 4.860914438271087], [-74.19597607454382, 4.860937343173349], [-74.19595775355744, 4.860946500920779], [-74.19592339758505, 4.860946501259387], [-74.1958959154159, 4.8609373415412], [-74.19587759287171, 4.860919017711075], [-74.19586385061886, 4.860893825311914], [-74.19583178849705, 4.860854892957762], [-74.19580430598134, 4.86083427986272], [-74.19576079020155, 4.860813667161444], [-74.19571956644188, 4.860806797514393], [-74.19567834032013, 4.860811378527336], [-74.19563253605337, 4.860834279664835], [-74.19560276368229, 4.860859474162101], [-74.19557757056064, 4.86089153545509], [-74.19556153922392, 4.860973985111447], [-74.19556153995667, 4.861040403456219], [-74.19556840883217, 4.861173237916065], [-74.19556840849518, 4.86125797641152], [-74.19556840876301, 4.8613266848881995], [-74.19556840855381, 4.861397679877996], [-74.19554779730652, 4.861445775731404], [-74.1954997014995, 4.861496160708386], [-74.19545160753275, 4.861541965416649], [-74.19542183379534, 4.861564868880377], [-74.1953920596281, 4.861585483116982], [-74.19536915781013, 4.861608386152288], [-74.19533938453321, 4.861628995861647], [-74.19530732134638, 4.861651897954148], [-74.19528441956724, 4.861670220723753], [-74.19526838747524, 4.861686251129301], [-74.19526151572062, 4.861716026890141], [-74.1952638065675, 4.861757249726834], [-74.19527754749372, 4.861780151104342], [-74.19530044970426, 4.861812215760486], [-74.19532335290317, 4.861835118076146], [-74.19534625524334, 4.861853439223494], [-74.19539434954449, 4.861871763636882], [-74.19542870351123, 4.86189924580428], [-74.19545847722837, 4.861929018988084], [-74.19547679923956, 4.8619587925803], [-74.1954836703595, 4.861997726203076], [-74.1954653492566, 4.862016046282568], [-74.19544244550413, 4.8620526928319165], [-74.19542641367308, 4.862089336238039], [-74.19540580210027, 4.862121399361767], [-74.19537831910844, 4.862146590707407], [-74.19535541693477, 4.862158044897505], [-74.19530503158627, 4.862164915096705], [-74.19525464546743, 4.862158046311615], [-74.19522487160849, 4.862142011196995], [-74.19519738956036, 4.86211452768932], [-74.19516074563154, 4.862093917253997], [-74.19513326203625, 4.862087045838797], [-74.19508974746402, 4.862073304408608], [-74.19502562003336, 4.86203666020729], [-74.19498439637174, 4.862011467664428], [-74.19492713950812, 4.8619771158762095], [-74.19487904378063, 4.861965661827645], [-74.19480346580396, 4.861949631903326], [-74.19466147131381, 4.861951922248862], [-74.19460879523822, 4.861951921533502], [-74.19456756973912, 4.861931309228355], [-74.19452176455523, 4.861901535459679], [-74.1944667998238, 4.86182824730612], [-74.19443473580515, 4.8617984754117165], [-74.19440267221376, 4.8617709927421675], [-74.19437748035035, 4.861761829810781], [-74.19432022285231, 4.861748090058918], [-74.19427441828982, 4.86174579966983], [-74.19423777389052, 4.861770992734715], [-74.19420571017304, 4.861796185824064], [-74.19416677664454, 4.861832826368873], [-74.19411181169187, 4.861903826503975], [-74.19402936342225, 4.862022921983742], [-74.19392630085899, 4.862164913694736], [-74.19385530398634, 4.862306909209594], [-74.19377514555374, 4.862462647277555], [-74.19369040518254, 4.862645869631904], [-74.19362398849366, 4.862785573230413], [-74.1935644413907, 4.862893212744962], [-74.1935224540862, 4.8629661207889825], [-74.1934613797461, 4.8630363535743015], [-74.19343084262898, 4.863066891508737], [-74.19340030734902, 4.863094375626291], [-74.19335450205662, 4.863106588772979], [-74.1933102234917, 4.86310162637819], [-74.19325067769681, 4.863094756488077], [-74.19322090424335, 4.863081013226267], [-74.19319800231959, 4.863064983945893], [-74.19314532637067, 4.863058970518175], [-74.19310410101507, 4.863058969332613], [-74.19307661864813, 4.863058969141922], [-74.19304741640578, 4.863065839682544], [-74.19302680523033, 4.863081299975592], [-74.19299073389551, 4.863103630902062], [-74.19296496740364, 4.863119090369846], [-74.19294607348664, 4.863137983273455], [-74.19292202611325, 4.863162031995771], [-74.19290484892811, 4.863191233342582], [-74.19289282602952, 4.863239329346133], [-74.19286534315374, 4.863314905376958], [-74.1928361429338, 4.8634110956539045], [-74.19280694117573, 4.863503852090447], [-74.19277774174806, 4.863589734502214], [-74.19276056435245, 4.863661880158782], [-74.19269529144269, 4.863739172615827], [-74.19264891507697, 4.863787268823207], [-74.19256646524013, 4.8638611297930865], [-74.19245481500135, 4.863986522062454], [-74.19240533063888, 4.864069288848827], [-74.19238497249812, 4.864089647454786], [-74.1923564721767, 4.864118146786143], [-74.1923361131851, 4.8641344345457105], [-74.19229539800581, 4.864158863840244], [-74.19223432521028, 4.864162936929102], [-74.19216510885592, 4.864142577626559], [-74.19214475066711, 4.864097790906682], [-74.192104035718, 4.864036716107029], [-74.19203481913928, 4.863967500282809], [-74.19197781799308, 4.863926784100255], [-74.19190452899879, 4.8638942121880815], [-74.19181495553363, 4.863886068831481], [-74.19175388128092, 4.86393085849733], [-74.19172130882653, 4.86397157393634], [-74.19167652297433, 4.864032645316907], [-74.19160323422489, 4.86411000436846], [-74.1915625186631, 4.864158862334172], [-74.19153401638556, 4.864195509673655], [-74.1914892306745, 4.864244364884525], [-74.19145258631376, 4.864281011243657], [-74.19140779896408, 4.864317653004552], [-74.19136708457695, 4.864346156720098], [-74.19135019980062, 4.8643549661919305], [-74.19083449566303, 4.864044266853565], [-74.18359278831674, 4.876137501604728], [-74.18703649315958, 4.878212259662534], [-74.18701815612023, 4.878231615730489], [-74.1869643517464, 4.878291085199375], [-74.1869077133828, 4.878336393575263], [-74.18685673918483, 4.878370377879325], [-74.18676612173212, 4.878398693769798], [-74.18668682859335, 4.878412853399366], [-74.1866528483046, 4.878427015297778], [-74.18659337817228, 4.8784553304230664], [-74.18654806858177, 4.878480819155799], [-74.18649143236854, 4.8785119686404235], [-74.18643479524721, 4.878543118123123], [-74.18638948563986, 4.878568605038326], [-74.18635267191314, 4.878594094134946], [-74.18633001607769, 4.87863373879986], [-74.18632718370728, 4.8786847113685585], [-74.186341343524, 4.87872719008992], [-74.18637532544467, 4.878778161865452], [-74.18640364487142, 4.878806483851028], [-74.18643196299068, 4.878848957461314], [-74.18645744946356, 4.878891436977285], [-74.1864631138763, 4.878936749264439], [-74.18643196305779, 4.878976393560585], [-74.18639797962588, 4.879004709798368], [-74.18635267056324, 4.879061346578554], [-74.18631302525792, 4.87911515207496], [-74.18629320240044, 4.879146306192031], [-74.18627337909226, 4.8791802870153775], [-74.18627054753819, 4.879208604315726], [-74.18627054767514, 4.879242589026342], [-74.186284706091, 4.879270903456273], [-74.18639231750686, 4.879409667081685], [-74.18644895421964, 4.87948046175824], [-74.18644706678471, 4.8795131857468625], [-74.18642157974033, 4.879555663937865], [-74.18639326147047, 4.8795953113774395], [-74.18634795091761, 4.879626459862764], [-74.1863026412881, 4.879663273518378], [-74.18624883575939, 4.879700087705101], [-74.18620352610168, 4.879731240706497], [-74.18616104946159, 4.879765221740365], [-74.18614972069244, 4.879802035980045], [-74.1861497203848, 4.879838849207701], [-74.1861497210063, 4.8798813285127824], [-74.18615821796325, 4.879920974245048], [-74.18618936651254, 4.879977612577689], [-74.18620919108403, 4.880028584929915], [-74.1861893673426, 4.880071063066778], [-74.18617520877893, 4.880124866971661], [-74.18616671220875, 4.880181504770527], [-74.186166713363, 4.880243803587623], [-74.1861752073063, 4.880314601899583], [-74.18621202145516, 4.880368405319272], [-74.18624600438395, 4.880419377984394], [-74.1862799871243, 4.8804250428281355], [-74.18635078305839, 4.880467522796823], [-74.18641025180582, 4.880495838576833], [-74.18648671141382, 4.880512828357301], [-74.18653768506611, 4.880518493920422], [-74.18659149035645, 4.880518494730086], [-74.18663963230803, 4.880518493783383], [-74.18669910183449, 4.88051849543003], [-74.18673591441086, 4.88051849550215], [-74.1867843361689, 4.880534500584205], [-74.18682587061372, 4.880538275419218], [-74.18687495536936, 4.8805609298598345], [-74.18693914365745, 4.8806024632158795], [-74.18697690162054, 4.880655327496671], [-74.18700710764645, 4.880723288728321], [-74.18705997121492, 4.880893200182785], [-74.18715436512373, 4.881123527301534], [-74.1871732441304, 4.881176386041488], [-74.18721100305211, 4.881229249389493], [-74.18724498393973, 4.881270781834259], [-74.18727519015113, 4.881308538743044], [-74.18730539720241, 4.8813349707337945], [-74.18734693259314, 4.881338744617314], [-74.18739223964204, 4.8813425226838625], [-74.18743754985809, 4.881372726445295], [-74.18746397992619, 4.88141048549817], [-74.18749796286838, 4.881486002613999], [-74.18750173817334, 4.881538863627382], [-74.18749418809563, 4.881606826466635], [-74.18745642839049, 4.881671015304439], [-74.18741403078596, 4.881780215216498], [-74.18736037658667, 4.881875930383026], [-74.1872888224725, 4.8819297761195966], [-74.18719341817771, 4.88199558886277], [-74.18712186135672, 4.8820314926192125], [-74.1870860917472, 4.882097294869536], [-74.18710399788918, 4.882192996548413], [-74.18715171976612, 4.882276729708631], [-74.18724715010515, 4.88237242181072], [-74.18733661703016, 4.882462132627196], [-74.1874499296602, 4.882503981610543], [-74.18752747153877, 4.882599676354625], [-74.18764079531356, 4.882707326674747], [-74.18773025631984, 4.882755164385646], [-74.18782567687407, 4.882797019622306], [-74.18799862223895, 4.882826898731568], [-74.18815368028564, 4.8828687451403665], [-74.18832663049763, 4.88292853074113], [-74.1884638009561, 4.882988324470847], [-74.18869042799145, 4.883078011052158], [-74.18877392657083, 4.883137814733999], [-74.18892899291086, 4.883233492231376], [-74.18901845802178, 4.8833112417373385], [-74.18909599441922, 4.883377026932579], [-74.18920931763205, 4.883484673274582], [-74.18936438287074, 4.883568389634268], [-74.18950752002397, 4.883646128047106], [-74.18961487469196, 4.883723870153875], [-74.18970433931578, 4.883795636769959], [-74.18976398636815, 4.883861421008355], [-74.18985344769112, 4.883927203029351], [-74.18996080639509, 4.884016910577579], [-74.19001038093862, 4.884036790514554], [-74.18925506694124, 4.885298103503084], [-74.18749701554036, 4.885298376603205], [-74.18126291463611, 4.884966346976674]]]], "type": "MultiPolygon"}}, {"type": "Feature", "properties": {"PUBLICADO_": "N", "TITLE_TYPE": "LET", "TENURE_STA": "A", "MINING_CLA": "MED", "TENURE_ID": "6460", "TENURE_S01": "EXPT", "CENTROID_C": "-74.11698,5.07415", "CODIGO_EXP": "6460", "TITULO_EST": "Activo", "MODALIDAD": "LICENCIA DE EXPLOTACION", "MUNICIPIOS": "PACHO, SUBACHOQUE", "DEPARTAMEN": "Cundinamarca", "AREA_HA": 169.25914, "CLASIFICAC": "Mediana", "ETAPA": "Explotaci\u00f3n", "SOLICITANT": "(41229) DARIO MORALES FERNANDEZ, (34849) MANUEL HERNANDO GARZON BERNAL, (25643) MARCO LEONARDO MORALES FERNANDEZ, (13190) MERCEDES ROJAS DE GARZON", "MINERALES": "ANTRACITA, CARB\u00d3N, CARB\u00d3N METAL\u00daRGICO, CARB\u00d3N T\u00c9RMICO", "MINERALES_": "CARBON", "FECHA_DE_S": "1990-09-05T00:00:00+00:00", "FECHA_DE_E": "1990-09-05T00:00:00+00:00", "FECHA_DE_A": "1990-09-05T00:00:00+00:00", "FECHA_DE01": "2012-01-14T00:00:00+00:00", "OBJECTID": 173442.0, "PAR": "ZONA CENTRO", "TIPO_TERMI": " ", "SHAPE_1": " ", "TERMINATIO": " ", "ACTIVE_TEN": "Y", "ACTIVE_APP": "N", "Shape_Length": 5896.37504795238, "Shape_Area": 1690531.727914391}, "geometry": {"coordinates": [[[[-74.11271349658452, 5.072430263592587], [-74.1239652374974, 5.066430459015485], [-74.12528253869816, 5.068914361107342], [-74.1272680024352, 5.072658133971228], [-74.1099895568449, 5.081871582085737], [-74.10668690900748, 5.075643818638825], [-74.11271349658452, 5.072430263592587]]]], "type": "MultiPolygon"}}, {"type": "Feature", "properties": {"PUBLICADO_": "N", "TITLE_TYPE": "RMC", "TENURE_STA": "A", "MINING_CLA": "PEQ", "TENURE_ID": "019", "TENURE_S01": "EXPT", "CENTROID_C": "-74.30366,4.87562", "CODIGO_EXP": "019", "TITULO_EST": "Activo", "MODALIDAD": "REGISTRO MINERO DE CANTERAS", "MUNICIPIOS": "SAN FRANCISCO", "DEPARTAMEN": "Cundinamarca", "AREA_HA": 9.4799, "CLASIFICAC": "Peque\u00f1a", "ETAPA": "Explotaci\u00f3n", "SOLICITANT": "(62560) LUIS ALEJANDRO  FLOREZ LOPEZ", "MINERALES": "ARENAS ARCILLOSAS, ARENAS FELDESP\u00c1TICAS, ARENAS INDUSTRIALES, ARENAS Y GRAVAS SILICEAS, GRAVAS, RECEBO", "MINERALES_": "MATERIALES DE CONSTRUCCION", "FECHA_DE_S": "1992-11-26T00:00:00+00:00", "FECHA_DE_E": "1992-11-26T00:00:00+00:00", "FECHA_DE_A": "1992-11-26T00:00:00+00:00", "OBJECTID": 176420.0, "PAR": "ZONA CENTRO", "TIPO_TERMI": " ", "SHAPE_1": " ", "TERMINATIO": " ", "ACTIVE_TEN": "Y", "ACTIVE_APP": "N", "Shape_Length": 1237.7782775420342, "Shape_Area": 94695.16300448097}, "geometry": {"coordinates": [[[[-74.30218033099122, 4.87502818564225], [-74.30440153447971, 4.873841839067192], [-74.30528018665626, 4.876892369479798], [-74.30223293673882, 4.8774046551631836], [-74.30204101369405, 4.875777167070765], [-74.30218033099122, 4.87502818564225]]]], "type": "MultiPolygon"}}, {"type": "Feature", "properties": {"PUBLICADO_": "Y", "TITLE_TYPE": "CC", "TENURE_STA": "A", "MINING_CLA": "PEQ", "TENURE_ID": "GGJ-081", "TENURE_S01": "EXPT", "CENTROID_C": "-74.20358,5.19732", "CODIGO_EXP": "GGJ-081", "TITULO_EST": "Activo", "MODALIDAD": "CONTRATO DE CONCESION (L 685)", "MUNICIPIOS": "PACHO, VILLAG\u00d3MEZ", "DEPARTAMEN": "Cundinamarca", "AREA_HA": 47.63978, "CLASIFICAC": "Peque\u00f1a", "ETAPA": "Explotaci\u00f3n", "SOLICITANT": "(40653) GLORIA  REYES MOJICA, (17088) MARTIN EMILIO SIERRA REYES", "MINERALES": "ARENAS Y GRAVAS SILICEAS", "MINERALES_": " ", "FECHA_DE_S": "2005-07-19T00:00:00+00:00", "FECHA_DE_E": "2006-12-28T00:00:00+00:00", "FECHA_DE_A": "2006-12-28T00:00:00+00:00", "FECHA_DE01": "2036-12-27T00:00:00+00:00", "OBJECTID": 172579.0, "PAR": "ZONA CENTRO", "TIPO_TERMI": " ", "SHAPE_1": " ", "TERMINATIO": " ", "ACTIVE_TEN": "Y", "ACTIVE_APP": "N", "Shape_Length": 2765.237886292079, "Shape_Area": 346414.5136690246}, "geometry": {"coordinates": [[[[-74.20278345203643, 5.192733807547119], [-74.20314081753403, 5.19256152813411], [-74.20814858460186, 5.195913265327991], [-74.20371669964831, 5.202086245217285], [-74.20256114897478, 5.201093218175676], [-74.20348154482441, 5.197536558314952], [-74.20235384856568, 5.197298624411735], [-74.20236306105083, 5.197270766394518], [-74.20238339924576, 5.1971616821420055], [-74.20243134503991, 5.196782907513142], [-74.2026039527006, 5.196274673181783], [-74.2027190234951, 5.195766445382396], [-74.20274779168265, 5.195402050566914], [-74.20278135259498, 5.1948650528070655], [-74.20276217527075, 5.194428744569715], [-74.20271422789678, 5.194021197511199], [-74.20268546220443, 5.193637626945939], [-74.20273340687369, 5.193239671949502], [-74.20278135303596, 5.192817746420721], [-74.20278345203643, 5.192733807547119]]]], "type": "MultiPolygon"}}, {"type": "Feature", "properties": {"PUBLICADO_": "Y", "TITLE_TYPE": "CCD2", "TENURE_STA": "A", "MINING_CLA": "PEQ", "TENURE_ID": "141", "TENURE_S01": "EXPT", "CENTROID_C": "-74.06991,5.12061", "CODIGO_EXP": "141", "TITULO_EST": "Activo", "MODALIDAD": "CONTRATO DE CONCESION (D 2655)", "MUNICIPIOS": "PACHO, ZIPAQUIR\u00c1", "DEPARTAMEN": "Cundinamarca", "AREA_HA": 233.69855, "CLASIFICAC": "Peque\u00f1a", "ETAPA": "Explotaci\u00f3n", "SOLICITANT": "(16621) EXPLOTACIONES CARBONIFERAS YERBABUENA S.A.S.", "MINERALES": "ANTRACITA, CARB\u00d3N METAL\u00daRGICO, CARB\u00d3N T\u00c9RMICO", "MINERALES_": " ", "FECHA_DE_S": "1990-05-22T00:00:00+00:00", "FECHA_DE_E": "1990-05-22T00:00:00+00:00", "FECHA_DE_A": "1990-05-22T00:00:00+00:00", "FECHA_DE01": "2035-08-02T00:00:00+00:00", "OBJECTID": 171694.0, "PAR": "ZONA CENTRO", "TIPO_TERMI": " ", "SHAPE_1": " ", "TERMINATIO": " ", "ACTIVE_TEN": "Y", "ACTIVE_APP": "N", "Shape_Length": 2146.9110122920238, "Shape_Area": 145434.4055789762}, "geometry": {"coordinates": [[[[-74.07393701767087, 5.12372563694352], [-74.07407492215148, 5.123669162744385], [-74.07368339806905, 5.12474766180423], [-74.07349218273109, 5.1245033284106425], [-74.0732815069026, 5.1242054750265575], [-74.07315309186697, 5.123977088385768], [-74.07324817598189, 5.123932712711219], [-74.07335805271715, 5.1239010173988255], [-74.07349328514026, 5.123865099959195], [-74.07363063118194, 5.123827066090453], [-74.0737679772017, 5.123789032195585], [-74.07393701767087, 5.12372563694352]]], [[[-74.07086235724391, 5.12530072869597], [-74.07086621488808, 5.125299954912047], [-74.0709835405853, 5.125316246900876], [-74.07122623388203, 5.125349942992176], [-74.07143642828524, 5.125379127484814], [-74.07161709903204, 5.1254491761772885], [-74.07179667170645, 5.125518800459535], [-74.07195870271805, 5.125581621456265], [-74.07209436477677, 5.125634219116613], [-74.07210160171509, 5.125636434760324], [-74.0722539791724, 5.1256830521650665], [-74.0723531536376, 5.125713387941189], [-74.07252130569391, 5.125724548876453], [-74.07261087065672, 5.125730492020217], [-74.07268535469358, 5.125735437045369], [-74.07268848026861, 5.125735643541012], [-74.0727679599899, 5.125740918596086], [-74.07280901128054, 5.125743646668451], [-74.07293718608403, 5.125752148196683], [-74.07294968388355, 5.125752981420516], [-74.07306438606186, 5.125752981708842], [-74.07319921226546, 5.125752983496376], [-74.0733184393872, 5.125752985194391], [-74.0710664562285, 5.131956309787689], [-74.07100643143765, 5.1319344023255855], [-74.07100611701144, 5.13191957303328], [-74.07100406292423, 5.131822677283727], [-74.07100202951291, 5.131726813044282], [-74.07099225809526, 5.131645972570186], [-74.07097837788768, 5.131531135090924], [-74.07094209175536, 5.1314323738903544], [-74.0709116794141, 5.1313496026484176], [-74.07089558751379, 5.131305807047713], [-74.07083998427674, 5.13120016957689], [-74.07078791640747, 5.131101247503602], [-74.0707832285564, 5.131092337923092], [-74.07073607421441, 5.13098989854264], [-74.07068350348106, 5.13087568237433], [-74.07067678281136, 5.130861084602319], [-74.07064221380053, 5.1307648007208835], [-74.07062355885041, 5.130712840285254], [-74.07061371798972, 5.130615190240989], [-74.07060145644148, 5.130493555392563], [-74.07060100129013, 5.13048903997716], [-74.07059289694902, 5.130375237001622], [-74.07058509669167, 5.130265732526152], [-74.07058464203666, 5.130259348564869], [-74.0705628264626, 5.130139036343062], [-74.07055928899943, 5.130121297879091], [-74.07054302323367, 5.130039738937204], [-74.07051620426142, 5.129905268534858], [-74.07051374432974, 5.1298929330199545], [-74.07050817626455, 5.129869207754348], [-74.07048289090876, 5.129761455424142], [-74.0704645524494, 5.129683296808532], [-74.07045636213701, 5.129648391809713], [-74.07044829725736, 5.129614021375343], [-74.07036693999132, 5.129524856574128], [-74.0702705128769, 5.129419175167722], [-74.07021376489402, 5.129356981138458], [-74.07017013161273, 5.129253073508257], [-74.07019180394616, 5.129064788297914], [-74.07021240164838, 5.1288858403750694], [-74.07021923106619, 5.1288265024021165], [-74.07022416415398, 5.128717710424296], [-74.07023014453102, 5.128585873412871], [-74.07022988483365, 5.1284646247157175], [-74.07022970394478, 5.128379313485857], [-74.07022480490313, 5.128362788908473], [-74.07018449084381, 5.128226816354327], [-74.0701631095209, 5.128154702774983], [-74.07015934585637, 5.128142012921225], [-74.07015773401505, 5.12813657285933], [-74.07012055500608, 5.1279847879667795], [-74.07009608704092, 5.1278848974912075], [-74.07006868688475, 5.127773030608832], [-74.07006613723922, 5.127762626219137], [-74.07004493490052, 5.127691751088926], [-74.07002688257049, 5.127631411452428], [-74.07004716319686, 5.127559554784235], [-74.07008697168445, 5.127418492151781], [-74.07014309315446, 5.127337603760883], [-74.07023205506898, 5.127209389365875], [-74.07024295957486, 5.127193676236588], [-74.07028824938646, 5.127100186730778], [-74.07029257178007, 5.127091263864744], [-74.07029663785748, 5.127082873488137], [-74.0703124056894, 5.127050323546445], [-74.0703258297526, 5.127022613124295], [-74.07033202274793, 5.1269994735145925], [-74.0703450096408, 5.126950942891243], [-74.07036627118656, 5.126871488243494], [-74.07038775157686, 5.12679122066122], [-74.0704097198704, 5.126709130770093], [-74.07042644048447, 5.126646647219856], [-74.07043307742626, 5.126621844631134], [-74.07043757403183, 5.126548452591044], [-74.07044445858935, 5.126436055987797], [-74.07045339994568, 5.12629010446993], [-74.07046146097433, 5.126158530008439], [-74.07046549545943, 5.126092688026759], [-74.07046721133061, 5.126064675978017], [-74.07048526061398, 5.125980663478648], [-74.07050380689645, 5.125894329170086], [-74.0705196263207, 5.125820695580418], [-74.07053460394852, 5.125750978748799], [-74.07053546096581, 5.125746990481159], [-74.07053690222018, 5.125731826158814], [-74.07054763659954, 5.125618832236365], [-74.07055596389857, 5.125531186693491], [-74.07056195238023, 5.125468152856087], [-74.07056471514662, 5.125439079459054], [-74.0705647150716, 5.125414643592993], [-74.0705994479734, 5.1253895849521705], [-74.07066883265229, 5.12533953114282], [-74.07076747866526, 5.125319751253724], [-74.07086235724391, 5.12530072869597]]]], "type": "MultiPolygon"}}, {"type": "Feature", "properties": {"PUBLICADO_": "N", "TITLE_TYPE": "CC", "TENURE_STA": "TL", "MINING_CLA": "PEQ", "TENURE_ID": "IE8-14589X", "TENURE_S01": "CONS", "CENTROID_C": "-74.30346,4.87389", "CODIGO_EXP": "IE8-14589X", "TITULO_EST": "Titulo terminado-en proceso de liquidacion", "MODALIDAD": "CONTRATO DE CONCESION (L 685)", "MUNICIPIOS": "SAN FRANCISCO", "DEPARTAMEN": "Cundinamarca", "AREA_HA": 1.32676, "CLASIFICAC": "Peque\u00f1a", "ETAPA": "Construcci\u00f3n y montaje", "SOLICITANT": "(45230) MILTON SAMUEL GONZALEZ FORERO", "MINERALES": "ANHIDRITA, ANTRACITA, ARCILLA COMUN, ARCILLAS, ARCILLAS ESPECIALES, ARCILLAS REFRACTARIAS, ARENAS, ARENAS ARCILLOSAS, ARENAS FELDESP\u00c1TICAS, ARENAS INDUSTRIALES, ARENAS Y GRAVAS SILICEAS, ARENISCAS, ASFALTO NATURAL, AZUFRE, BAUXITA, BENTONITA, CALCITA, C", "MINERALES_": "ASBESTO, DEMAS_CONCESIBLES, ROCA O PIEDRA CALIZA (PARA CONSTRUCCI\u00d3N)", "FECHA_DE_S": "2007-05-08T00:00:00+00:00", "FECHA_DE_E": "2015-04-10T00:00:00+00:00", "FECHA_DE_A": "2015-04-10T00:00:00+00:00", "FECHA_DE01": "2020-02-27T00:00:00+00:00", "OBJECTID": 178657.0, "PAR": "ZONA CENTRO", "TIPO_TERMI": "CADUCIDAD", "SHAPE_1": " ", "TERMINATIO": "CAD", "ACTIVE_TEN": "N", "ACTIVE_APP": "N", "Shape_Length": 480.9800809966724, "Shape_Area": 13253.058877906464}, "geometry": {"coordinates": [[[[-74.30300270800703, 4.873133592478935], [-74.30310857984746, 4.873133114028172], [-74.30319156292937, 4.873170860497997], [-74.30335245984713, 4.873244591637292], [-74.30360439676124, 4.8734191512397125], [-74.3038180173202, 4.873633283874911], [-74.30388309081756, 4.87373159487834], [-74.30396979065767, 4.873863503306919], [-74.3040257434755, 4.874038916924381], [-74.30289359992118, 4.874644260972817], [-74.30289311144132, 4.873134442764177], [-74.30300270800703, 4.873133592478935]]]], "type": "MultiPolygon"}}, {"type": "Feature", "properties": {"PUBLICADO_": "Y", "TITLE_TYPE": "CCD2", "TENURE_STA": "A", "MINING_CLA": "MED", "TENURE_ID": "18134", "TENURE_S01": "EXPT", "CENTROID_C": "-74.31196,4.89551", "CODIGO_EXP": "18134", "TITULO_EST": "Activo", "MODALIDAD": "CONTRATO DE CONCESION (D 2655)", "MUNICIPIOS": "LA VEGA, SAN FRANCISCO", "DEPARTAMEN": "Cundinamarca", "AREA_HA": 62.81738, "CLASIFICAC": "Mediana", "ETAPA": "Explotaci\u00f3n", "SOLICITANT": "(40422) MARIO ALBERTO  HUERTAS COTES", "MINERALES": "RECEBO", "MINERALES_": " ", "FECHA_DE_S": "1994-06-22T00:00:00+00:00", "FECHA_DE_E": "1994-06-22T00:00:00+00:00", "FECHA_DE_A": "1994-06-22T00:00:00+00:00", "FECHA_DE01": "2032-01-10T00:00:00+00:00", "OBJECTID": 177125.0, "PAR": "ZONA CENTRO", "TIPO_TERMI": " ", "SHAPE_1": " ", "TERMINATIO": " ", "ACTIVE_TEN": "Y", "ACTIVE_APP": "N", "Shape_Length": 3501.1903046672996, "Shape_Area": 627485.6878988956}, "geometry": {"coordinates": [[[[-74.30659563478848, 4.891914619303549], [-74.31732429392038, 4.8919109666768135], [-74.31632780048518, 4.89290510474886], [-74.31587630130029, 4.893355537399656], [-74.31558374883059, 4.893647398821002], [-74.31472904789428, 4.894500077172206], [-74.31276135342387, 4.896463113413487], [-74.31202793749428, 4.8971947913844165], [-74.31052439640644, 4.898694768068558], [-74.3101685580953, 4.899049762983753], [-74.31011416670259, 4.899104024991681], [-74.30659801248153, 4.899105203700327], [-74.30659563478848, 4.891914619303549]]]], "type": "MultiPolygon"}}, {"type": "Feature", "properties": {"PUBLICADO_": "Y", "TITLE_TYPE": "CCD2", "TENURE_STA": "A", "MINING_CLA": "MED", "TENURE_ID": "22302", "TENURE_S01": "EXPT", "CENTROID_C": "-74.26234,4.92625", "CODIGO_EXP": "22302", "TITULO_EST": "Activo", "MODALIDAD": "CONTRATO DE CONCESION (D 2655)", "MUNICIPIOS": "EL ROSAL, SAN FRANCISCO", "DEPARTAMEN": "Cundinamarca", "AREA_HA": 1001.09239, "CLASIFICAC": "Mediana", "ETAPA": "Explotaci\u00f3n", "SOLICITANT": "(33962) JOSE ELIAS YA\u00c3\u2018EZ PAEZ", "MINERALES": "RECEBO", "MINERALES_": " ", "FECHA_DE_S": "2003-04-24T00:00:00+00:00", "FECHA_DE_E": "2006-05-04T00:00:00+00:00", "FECHA_DE_A": "2006-05-04T00:00:00+00:00", "FECHA_DE01": "2037-08-14T00:00:00+00:00", "OBJECTID": 175739.0, "PAR": "ZONA CENTRO", "TIPO_TERMI": " ", "SHAPE_1": " ", "TERMINATIO": " ", "ACTIVE_TEN": "Y", "ACTIVE_APP": "N", "Shape_Length": 24123.685009726516, "Shape_Area": 9533644.413940914}, "geometry": {"coordinates": [[[[-74.27731122120821, 4.89459275439313], [-74.27989193745809, 4.894592010533778], [-74.27989256935895, 4.8967622923629355], [-74.27596949898435, 4.896763429013561], [-74.27604463679529, 4.896733256157429], [-74.2760801798092, 4.8967189847479435], [-74.27627298257067, 4.896539818576077], [-74.27652195465359, 4.896091075436664], [-74.2769074654473, 4.895413930783091], [-74.27722870036325, 4.894769041965526], [-74.27731122120821, 4.89459275439313]]], [[[-74.24110889486691, 4.944510394319451], [-74.24121705241726, 4.9444470663988405], [-74.24137035370978, 4.944447030793784], [-74.2414334744946, 4.944465091199199], [-74.24152362519554, 4.9444741070953855], [-74.2416228269564, 4.944492158697821], [-74.24168594781742, 4.944510257078469], [-74.24173100107201, 4.944501207751902], [-74.24181217162099, 4.944483076975276], [-74.2419113198037, 4.944428788658165], [-74.2419924510099, 4.944401656835298], [-74.24206460595406, 4.944365452054651], [-74.24212770839095, 4.944311210458968], [-74.24221783996516, 4.944238811942344], [-74.24225390918156, 4.944184576674178], [-74.24229895059564, 4.944121265578959], [-74.24234402410296, 4.944039840025178], [-74.24238003721327, 4.943904191412208], [-74.24243410731412, 4.943759500613768], [-74.24244310686515, 4.943714271946434], [-74.24249718965856, 4.943623844691546], [-74.2425422665021, 4.943551495330582], [-74.24259635168036, 4.943470105361413], [-74.24267746903585, 4.943388672856024], [-74.24275859765645, 4.943352500976846], [-74.24278566471567, 4.943334382884761], [-74.24290286086749, 4.94323490223588], [-74.24297497712679, 4.943189659275701], [-74.24300200152106, 4.943153501059267], [-74.24311019162019, 4.943072061187828], [-74.24320931856333, 4.942936397370271], [-74.24329045614104, 4.942782661942634], [-74.24333548702893, 4.942674123677106], [-74.24338956721658, 4.942574658208557], [-74.2434436409754, 4.942448043785716], [-74.24347969717665, 4.94233950697155], [-74.24351571880148, 4.942240009321755], [-74.24355176380257, 4.942086283369529], [-74.2436148536893, 4.941986780191983], [-74.24366893863564, 4.941905390196618], [-74.24375004387656, 4.9417697303087715], [-74.24385821120731, 4.941597875025074], [-74.24391223906603, 4.941435107916988], [-74.24392126272866, 4.941335617483494], [-74.24393025914586, 4.941272312446345], [-74.24395780456284, 4.941154715407815], [-74.24396366977011, 4.941145684308998], [-74.24407534942323, 4.940975956895063], [-74.24429122053627, 4.9406518925173915], [-74.24431130007608, 4.940622064732824], [-74.2443809187064, 4.940612077967931], [-74.2444169584991, 4.940593994585698], [-74.24451615325192, 4.940584932226523], [-74.24459728959458, 4.940575873882918], [-74.24479563958816, 4.940548676600015], [-74.2449398758992, 4.94048534031485], [-74.24503003662981, 4.940376791515872], [-74.245084116428, 4.9402773251084575], [-74.24511113018607, 4.940195942457243], [-74.24514719245803, 4.9401145192949265], [-74.24521025234156, 4.93988844890478], [-74.24521924621921, 4.939816108413394], [-74.24881677097535, 4.939815222866817], [-74.2488157707297, 4.935772464113598], [-74.24882109865779, 4.935762255942918], [-74.24885000886566, 4.935704391242121], [-74.2488965576428, 4.935627135789196], [-74.2489203523997, 4.935592278344247], [-74.24893965941818, 4.935567784926734], [-74.2489732003591, 4.935533093727756], [-74.24904128161553, 4.935460714516014], [-74.249080799211, 4.935417315912335], [-74.24910541338711, 4.935385506142927], [-74.2491520997575, 4.935314795842495], [-74.24918644633183, 4.935255528402945], [-74.24920516465693, 4.93522016928654], [-74.24923458598695, 4.935159226351914], [-74.24926500757765, 4.935088040862429], [-74.24928037079812, 4.935048329574899], [-74.24931095636168, 4.934960151390511], [-74.24932602131746, 4.934911463110713], [-74.24934805440581, 4.934832374483132], [-74.24936923021937, 4.934745925911247], [-74.24940888801083, 4.934554687851422], [-74.24944510546155, 4.934346324539952], [-74.24946741214667, 4.934202265311628], [-74.2495078114685, 4.933913593802993], [-74.2495473495314, 4.933605302146802], [-74.24959479684647, 4.933231502544936], [-74.2496182770174, 4.933062258365285], [-74.24965577789364, 4.93282913878581], [-74.24968381764835, 4.932680725681184], [-74.24970448371539, 4.932581739184025], [-74.24975197465639, 4.932376476290709], [-74.24979382943167, 4.932211477316171], [-74.24982436507196, 4.932097145630334], [-74.24989020497736, 4.931863620779034], [-74.2499689495201, 4.931603327197487], [-74.25004876907833, 4.931355898939925], [-74.25014959822136, 4.931042713705478], [-74.2501947671608, 4.93089015511404], [-74.25025376542793, 4.930666454036572], [-74.25032105852043, 4.930404480066443], [-74.250352444246, 4.930301923836579], [-74.25036804957861, 4.930260040556584], [-74.25037843875519, 4.93023552501674], [-74.25039910470147, 4.93019392266058], [-74.25040935915663, 4.9301764811996325], [-74.25042652245553, 4.930151951105014], [-74.25048238918846, 4.93016596740291], [-74.25050942172946, 4.930165959970492], [-74.25056352560749, 4.930165947743804], [-74.25060861803131, 4.930165935278486], [-74.25063565147653, 4.93016592964885], [-74.25068974852717, 4.930147802172274], [-74.25071682240238, 4.930156870828628], [-74.25077993089896, 4.930138742673492], [-74.25086702715785, 4.930095022889791], [-74.25091060557558, 4.93009538060855], [-74.25095261827809, 4.930091128537422], [-74.25100562329854, 4.930080970872762], [-74.25103674564191, 4.930072993371934], [-74.25114381203848, 4.930034822279536], [-74.25120446810367, 4.930011665235123], [-74.25130312191683, 4.929970050861311], [-74.25134248215019, 4.9299512480456515], [-74.25140474000881, 4.929916800436942], [-74.2514495959282, 4.929885399520012], [-74.25147253695324, 4.929865469454398], [-74.25149825382792, 4.929837815207825], [-74.2515090613348, 4.929826198783363], [-74.2515571638581, 4.92976482436587], [-74.25157921068731, 4.9297332365711455], [-74.25160908592855, 4.929685569997863], [-74.25163439112667, 4.9296384838713605], [-74.25164507083842, 4.929615468861872], [-74.25166053157926, 4.929575429854868], [-74.25166657608199, 4.929555290019158], [-74.25167356429743, 4.929524107887303], [-74.25167949339021, 4.929473159411948], [-74.25168006324522, 4.929414207106403], [-74.25167839647929, 4.929380676093382], [-74.25167549152141, 4.929344006808498], [-74.2516671032847, 4.929261983276371], [-74.2516542771953, 4.929137895234098], [-74.25164883217207, 4.929071045288838], [-74.25164397172772, 4.928966596578077], [-74.25164456022434, 4.92887036144611], [-74.25164680135123, 4.928820352776086], [-74.25165271318147, 4.928741860038186], [-74.25166760193495, 4.928613600201023], [-74.25167789852377, 4.9285435049143045], [-74.2517044650453, 4.928388537464118], [-74.25175164782708, 4.9281481359249435], [-74.25177862522985, 4.928015566332117], [-74.2518208560312, 4.927804972303001], [-74.2518489137348, 4.927658668343882], [-74.25186257075367, 4.927584229969426], [-74.25188227103824, 4.927471643287325], [-74.25192564454836, 4.92746769717665], [-74.25197247527834, 4.927465810240422], [-74.25201493192763, 4.927467010612473], [-74.25203638199568, 4.927468959907327], [-74.25206889684596, 4.927473862485133], [-74.2521184710525, 4.927486482654937], [-74.25216848942809, 4.927505537912881], [-74.25225573989394, 4.927546833003405], [-74.25228632637314, 4.927560616312181], [-74.25233245767457, 4.927576411599133], [-74.25237903714265, 4.927587766125495], [-74.25239957865726, 4.927591585555436], [-74.25241578091487, 4.927593480479068], [-74.25244463271365, 4.9275933546565245], [-74.2525016152258, 4.927590544652774], [-74.2525347038658, 4.927587754317768], [-74.25254950699666, 4.927584394011007], [-74.25256399481077, 4.927578854605833], [-74.25259081421545, 4.92756385568686], [-74.25260617443458, 4.927552558223753], [-74.25261346655726, 4.927545427236161], [-74.25262460817507, 4.927531119266874], [-74.25263631451182, 4.927511503511492], [-74.25265689629688, 4.927466976944928], [-74.25266474224117, 4.927441493517583], [-74.25266684761431, 4.927428858376484], [-74.25266816859686, 4.9274073186488625], [-74.25266768406709, 4.92738077780747], [-74.25266230278952, 4.927321012446801], [-74.25264940767228, 4.927242471009377], [-74.25264673128706, 4.927218994370486], [-74.25264373579519, 4.927170598001141], [-74.25264336263646, 4.927130301997767], [-74.25304222988304, 4.927117818763175], [-74.2538538211758, 4.927596909552304], [-74.25520643074144, 4.928310951725386], [-74.25565709167444, 4.927741123971362], [-74.25592411104093, 4.926534465186208], [-74.25594545977216, 4.92655790833299], [-74.25595842991389, 4.926574356826551], [-74.25597812899376, 4.9266032690492185], [-74.25599090210034, 4.926627688392529], [-74.25599640666202, 4.9266419758181135], [-74.25600243665492, 4.926667043072453], [-74.25600475106243, 4.926691785278047], [-74.25600261629383, 4.926736300573986], [-74.25599928014246, 4.926768938877328], [-74.25599584209941, 4.92679103180282], [-74.25598635128691, 4.926837433949653], [-74.25597059937326, 4.926902411925201], [-74.25593500295902, 4.927037380115058], [-74.25591590859315, 4.927108578644865], [-74.25591119847228, 4.927131114616132], [-74.25590760750158, 4.927155362185633], [-74.25590315684526, 4.927204140801115], [-74.25590277009148, 4.927240799038666], [-74.2559041909626, 4.927256182663857], [-74.25591047384594, 4.92728524599], [-74.25591551640831, 4.927297550037393], [-74.25592541841215, 4.9273106320923565], [-74.25593320236365, 4.927316588237917], [-74.25595053405308, 4.927326160975805], [-74.25597557562405, 4.927337314332723], [-74.25603087779018, 4.927357799754024], [-74.2560513993409, 4.927363486634798], [-74.2560781963169, 4.927367355658862], [-74.25610637297883, 4.927368515786552], [-74.25611588581121, 4.927369397199185], [-74.25614459359768, 4.927372355990562], [-74.25621221697293, 4.927378369196821], [-74.25623124241731, 4.9273824166663065], [-74.25624040441112, 4.927387189426022], [-74.25625952127831, 4.927401007772957], [-74.25630008538248, 4.927434494187241], [-74.25632301982999, 4.927455387272669], [-74.25635424258435, 4.927488030855681], [-74.25637639333219, 4.927518662991662], [-74.25638629885057, 4.927536972121243], [-74.256397504059, 4.92756665769394], [-74.25640078130768, 4.927581921991527], [-74.25640122619471, 4.927589678997682], [-74.25639916544162, 4.927602976369909], [-74.2563919941569, 4.927627345613736], [-74.25638740033149, 4.927644546601394], [-74.25638251969796, 4.927666107508853], [-74.25637217234195, 4.927714190603452], [-74.25635502398666, 4.9277791784592635], [-74.25633817941986, 4.927842123583621], [-74.25633595646254, 4.927855036718004], [-74.25633803636212, 4.927879308858967], [-74.25634858696608, 4.927922621212318], [-74.25635834124148, 4.927949258504099], [-74.25637172835631, 4.927976349479634], [-74.2563938004044, 4.92801021736196], [-74.25640593133859, 4.9280250812888475], [-74.25642367823754, 4.928042446357432], [-74.25643469106194, 4.928050871049289], [-74.2564560717895, 4.928064413663253], [-74.25650427872029, 4.928089684405122], [-74.25657647199905, 4.928123831242856], [-74.25676065080879, 4.928207037859859], [-74.25681412405211, 4.928231158557642], [-74.2569379132102, 4.928286995648019], [-74.25701244989982, 4.928321428440958], [-74.25707452623219, 4.928351006950403], [-74.25717178731676, 4.928399173397445], [-74.25725376554264, 4.9284416693274355], [-74.25729406722239, 4.928465550680973], [-74.2573488496298, 4.928503659931657], [-74.25737494807666, 4.928525112485], [-74.25738147636997, 4.9285315939617025], [-74.2573810705734, 4.928472182169297], [-74.25739823804258, 4.928043135697763], [-74.25740002683672, 4.927998436494521], [-74.25748102245007, 4.92757731489447], [-74.25750703450665, 4.927431426568927], [-74.2575254111283, 4.92732835925892], [-74.25753818860244, 4.927256688597356], [-74.25767166557281, 4.926835548299299], [-74.25785285605168, 4.926419182942034], [-74.2580626558352, 4.925950168673314], [-74.2581628099942, 4.925806584027189], [-74.2583822036198, 4.925519409381476], [-74.25870177579951, 4.925198711976401], [-74.25896412799965, 4.924988089744197], [-74.25926943462032, 4.9248253075895185], [-74.2594936744929, 4.924830030587161], [-74.25970359854846, 4.924820404998835], [-74.26001370295462, 4.924767679940706], [-74.26023793381393, 4.924734120220913], [-74.26045260582907, 4.924638357514965], [-74.2606434102932, 4.924499533957468], [-74.26081990064921, 4.924351140177064], [-74.2608771109848, 4.924202782395507], [-74.2609724597272, 4.923934781808095], [-74.26108213229735, 4.923709846522083], [-74.2614636792285, 4.923207290033157], [-74.26230790295388, 4.922293072071793], [-74.26249390163336, 4.922029829870129], [-74.26258124854544, 4.921873736717341], [-74.26269004407037, 4.9217256674413195], [-74.26684452290182, 4.921724556225467], [-74.26684240744893, 4.913966525975344], [-74.26696831590026, 4.913755916309936], [-74.26733627307951, 4.913170551415728], [-74.26741658733363, 4.913042787481345], [-74.26758823957769, 4.912680807992315], [-74.26774184758213, 4.912518811608877], [-74.26793449560805, 4.911773664300057], [-74.26793439886279, 4.911429773540871], [-74.26793431391981, 4.91113603711949], [-74.26787702466517, 4.91062021862669], [-74.26767683512986, 4.909961155586871], [-74.26752662992516, 4.909244763858375], [-74.2673836443974, 4.908793447851462], [-74.26728358527623, 4.9085928755484325], [-74.26714777526033, 4.908256189413351], [-74.2669119164237, 4.907754750288843], [-74.26684066992989, 4.907592464383262], [-74.26684034352165, 4.906397690081863], [-74.26688290191521, 4.9061786042814735], [-74.2668401861769, 4.905822439023607], [-74.2668395696712, 4.903557267770686], [-74.26729918277438, 4.902860827205762], [-74.26796610365754, 4.901856898066179], [-74.26826387354077, 4.901509462600173], [-74.26836728411836, 4.901449705643951], [-74.26856010842447, 4.901335018261288], [-74.26868576073966, 4.901254118054407], [-74.26893861138214, 4.901091322989489], [-74.26936710615894, 4.900818953423208], [-74.26938037944419, 4.900810779530153], [-74.2696813362519, 4.900625425671941], [-74.26985983945421, 4.900388953811265], [-74.27013831400222, 4.900052147131024], [-74.27032394974009, 4.899772682457577], [-74.2704809819314, 4.899392927259007], [-74.27073084609879, 4.898920008725352], [-74.2709236231882, 4.8986477073770525], [-74.2710521038578, 4.898332439507613], [-74.27119489967387, 4.898117463934425], [-74.271301991749, 4.897945489266926], [-74.27143767454044, 4.897837987417965], [-74.27155907726527, 4.897751977413753], [-74.27175189990045, 4.897637294039388], [-74.27205184776336, 4.897458095136378], [-74.27225182833538, 4.897393560493565], [-74.27249465240882, 4.897286023034594], [-74.27275893451963, 4.897278783125589], [-74.27289463236389, 4.897228591441827], [-74.27303034655746, 4.897228552180266], [-74.27323036243551, 4.897285807677295], [-74.27333750670991, 4.897292940827729], [-74.27354465983376, 4.897328701646407], [-74.27380181468816, 4.897378776219499], [-74.27403038497908, 4.897378710138334], [-74.27430893676546, 4.897314150167554], [-74.27455892684893, 4.897285421409476], [-74.27475176331973, 4.897220881608059], [-74.2749588658187, 4.89708469925548], [-74.27512312402663, 4.896998676756874], [-74.27536595549765, 4.896912633845483], [-74.2756281233431, 4.896864344979131], [-74.2756320667205, 4.9106896979775945], [-74.28487341113166, 4.910686978927054], [-74.28487400695256, 4.912676430218261], [-74.27585805219884, 4.9126790862763], [-74.27586323611497, 4.930764982766303], [-74.2578307870253, 4.930769947333974], [-74.25783786570435, 4.95789882117119], [-74.23980462700023, 4.957903321292656], [-74.2398016277927, 4.945098489719602], [-74.23989178521619, 4.944971865768535], [-74.23990979900805, 4.944935673810571], [-74.23992781671866, 4.9449175935441225], [-74.24004501840234, 4.944836189629246], [-74.24012614347983, 4.944781907208137], [-74.24022532798942, 4.94472761993534], [-74.24027041533402, 4.944700496036525], [-74.24039662918676, 4.944628127892852], [-74.24049577903929, 4.94458287795428], [-74.24062200780189, 4.944573810652311], [-74.24073021500527, 4.944564747209554], [-74.24087446374354, 4.944546601586713], [-74.24099168021057, 4.944528496603749], [-74.24110889486691, 4.944510394319451]]]], "type": "MultiPolygon"}}, {"type": "Feature", "properties": {"PUBLICADO_": "N", "TITLE_TYPE": "CC", "TENURE_STA": "A", "MINING_CLA": "PEQ", "TENURE_ID": "GHC-091", "TENURE_S01": "EXPT", "CENTROID_C": "-74.31592,5.15361", "CODIGO_EXP": "GHC-091", "TITULO_EST": "Activo", "MODALIDAD": "CONTRATO DE CONCESION (L 685)", "MUNICIPIOS": "VERGARA", "DEPARTAMEN": "Cundinamarca", "AREA_HA": 907.26957, "CLASIFICAC": "Peque\u00f1a", "ETAPA": "Explotaci\u00f3n", "SOLICITANT": "(21604) JOSE DANILO  CERQUERA REINA, (24240) VIRGILIO ANTONIO CUAN ORTIZ", "MINERALES": "ESMERALDA", "MINERALES_": " ", "FECHA_DE_S": "2005-08-12T00:00:00+00:00", "FECHA_DE_E": "2009-02-26T00:00:00+00:00", "FECHA_DE_A": "2009-02-26T00:00:00+00:00", "FECHA_DE01": "2039-02-25T00:00:00+00:00", "OBJECTID": 174893.0, "PAR": "ZONA CENTRO", "TIPO_TERMI": " ", "SHAPE_1": " ", "TERMINATIO": " ", "ACTIVE_TEN": "Y", "ACTIVE_APP": "N", "Shape_Length": 16757.401393908658, "Shape_Area": 9062843.117579475}, "geometry": {"coordinates": [[[[-74.30270854578811, 5.184382963252635], [-74.32043540060525, 5.1196568014115575], [-74.32913470887563, 5.133308242510042], [-74.31427297149783, 5.187570994850929], [-74.30270854578811, 5.184382963252635]]]], "type": "MultiPolygon"}}, {"type": "Feature", "properties": {"PUBLICADO_": "Y", "TITLE_TYPE": "LET", "TENURE_STA": "A", "MINING_CLA": "PEQ", "TENURE_ID": "22310", "TENURE_S01": "EXPT", "CENTROID_C": "-74.15236,5.13041", "CODIGO_EXP": "22310", "TITULO_EST": "Activo", "MODALIDAD": "LICENCIA DE EXPLOTACION", "MUNICIPIOS": "PACHO", "DEPARTAMEN": "Cundinamarca", "AREA_HA": 50.99955, "CLASIFICAC": "Peque\u00f1a", "ETAPA": "Explotaci\u00f3n", "SOLICITANT": "(17443) HUGO HERNAN ORTIZ GARZON", "MINERALES": "ROCA O PIEDRA CALIZA", "MINERALES_": " ", "FECHA_DE_S": "2002-05-22T00:00:00+00:00", "FECHA_DE_E": "2002-05-22T00:00:00+00:00", "FECHA_DE_A": "2002-05-22T00:00:00+00:00", "FECHA_DE01": "2016-08-14T00:00:00+00:00", "OBJECTID": 178481.0, "PAR": "ZONA CENTRO", "TIPO_TERMI": " ", "SHAPE_1": " ", "TERMINATIO": " ", "ACTIVE_TEN": "Y", "ACTIVE_APP": "N", "Shape_Length": 2898.249947572208, "Shape_Area": 509384.64702802914}, "geometry": {"coordinates": [[[[-74.14965534949286, 5.126569794226471], [-74.15506671563968, 5.1265692142135135], [-74.15506756770176, 5.13425569616054], [-74.1496561376636, 5.134256277189106], [-74.14965534949286, 5.126569794226471]]]], "type": "MultiPolygon"}}, {"type": "Feature", "properties": {"PUBLICADO_": "N", "TITLE_TYPE": "CC", "TENURE_STA": "A", "MINING_CLA": "PEQ", "TENURE_ID": "FFO-131", "TENURE_S01": "EXPT", "CENTROID_C": "-74.05135,5.16727", "CODIGO_EXP": "FFO-131", "TITULO_EST": "Activo", "MODALIDAD": "CONTRATO DE CONCESION (L 685)", "MUNICIPIOS": "COGUA, PACHO, TAUSA, ZIPAQUIR\u00c1", "DEPARTAMEN": "Cundinamarca", "AREA_HA": 644.99835, "CLASIFICAC": "Peque\u00f1a", "ETAPA": "Explotaci\u00f3n", "SOLICITANT": "(44960) BOGOTA COQUE LLC SUCURSAL COLOMBIANA, (10285) JORGE ENRIQUE TORRES GONZALEZ, (10559) LUIS OMAR TORRES GONZALEZ", "MINERALES": "ANTRACITA, CARB\u00d3N, CARB\u00d3N METAL\u00daRGICO, CARB\u00d3N T\u00c9RMICO", "MINERALES_": "CARBON", "FECHA_DE_S": "2004-06-24T00:00:00+00:00", "FECHA_DE_E": "2007-06-22T00:00:00+00:00", "FECHA_DE_A": "2007-06-22T00:00:00+00:00", "FECHA_DE01": "2035-06-21T00:00:00+00:00", "OBJECTID": 175861.0, "PAR": "ZONA CENTRO", "TIPO_TERMI": " ", "SHAPE_1": " ", "TERMINATIO": " ", "ACTIVE_TEN": "Y", "ACTIVE_APP": "N", "Shape_Length": 9591.317506554, "Shape_Area": 5014297.331885456}, "geometry": {"coordinates": [[[[-74.04817043924615, 5.153485785549637], [-74.0484734785862, 5.15332843867509], [-74.04880565927965, 5.153136125612507], [-74.04889199646841, 5.153042879382597], [-74.04959728476165, 5.152972196826766], [-74.04967398638198, 5.153019572324438], [-74.04980219437722, 5.153188575946197], [-74.04994788852439, 5.153270162873892], [-74.05015185769615, 5.153351751288503], [-74.05028589598257, 5.153404197035094], [-74.05050734710103, 5.153421680831013], [-74.0507287994755, 5.153433339900331], [-74.05096773657003, 5.153392541869866], [-74.0512008437827, 5.153270164033675], [-74.05132905250233, 5.153130294633373], [-74.05142812412538, 5.152937984619592], [-74.05149496734005, 5.1527820167448235], [-74.06280028180647, 5.1516490302629085], [-74.06289861528201, 5.1517845117759675], [-74.06295616102945, 5.1518960661641815], [-74.0629799986941, 5.152158283655384], [-74.06299997499775, 5.152497857344381], [-74.06299426546062, 5.15288375059752], [-74.06300328923733, 5.1529085080356545], [-74.06303438970922, 5.152993853699524], [-74.06303708515574, 5.153001253713687], [-74.06310537705971, 5.153170812818097], [-74.06316095076296, 5.153308799769156], [-74.06320285920665, 5.15341285626656], [-74.0632047659509, 5.153417591862422], [-74.0632356354137, 5.153494233985726], [-74.06324024549365, 5.153505682787246], [-74.06326162375856, 5.153582046689972], [-74.06326200236212, 5.153583405165681], [-74.06326914843645, 5.153608937584529], [-74.06330657018434, 5.153742611491576], [-74.06334098499785, 5.153865547852142], [-74.06337167471693, 5.153975177144305], [-74.06339503134272, 5.154058611063687], [-74.06340409878884, 5.154091151166573], [-74.06342540688848, 5.154167621945886], [-74.06346280253827, 5.154301830647386], [-74.06350923932987, 5.154468479045607], [-74.06354352083234, 5.154591508800568], [-74.06356887287774, 5.154682487755985], [-74.06357883556687, 5.154718242247855], [-74.06358676264696, 5.154743957038686], [-74.06363072277057, 5.154886572701401], [-74.06367770729162, 5.155038993851856], [-74.06374329638938, 5.1552517718941315], [-74.06377671720797, 5.155298992504464], [-74.05585559217819, 5.183090966547911], [-74.04826394171772, 5.1811876970194986], [-74.04829129864619, 5.180980564185219], [-74.04846099083083, 5.180132097384216], [-74.04866984649385, 5.1792444708455925], [-74.04868144358697, 5.179070502259386], [-74.04856882287362, 5.1789318329895675], [-74.04843041077531, 5.1788329672726565], [-74.04821290773714, 5.178724214668261], [-74.04796574363228, 5.178645124741119], [-74.04761971630265, 5.178477051453111], [-74.04736266626395, 5.17821011579076], [-74.04717482237002, 5.177814656348863], [-74.04706607077306, 5.177092939150436], [-74.04694743234337, 5.176450316605431], [-74.0469573190126, 5.175916443280489], [-74.0469519912894, 5.175551428448966], [-74.04681626865337, 5.175106556244409], [-74.0467248963616, 5.174532208847511], [-74.04668672895713, 5.174228033771627], [-74.0467271908873, 5.174037591315341], [-74.04680252727961, 5.173886919103766], [-74.04686803596566, 5.17372969738891], [-74.04690406557015, 5.173608504722767], [-74.0469368202072, 5.173451284638099], [-74.04693354545748, 5.173300613805174], [-74.04690734081605, 5.173061508086787], [-74.04686803683083, 5.1729075586991735], [-74.046799251067, 5.172707758463855], [-74.04673374226054, 5.172527607483079], [-74.04671408956581, 5.172435894252603], [-74.04670753913814, 5.172331078580857], [-74.0467140887279, 5.172255743661178], [-74.04674684443098, 5.172173857639582], [-74.04682873042766, 5.172019911684374], [-74.04687786269368, 5.171931476311991], [-74.0469171672322, 5.171843039072028], [-74.04692699394077, 5.171764426732542], [-74.04692371814778, 5.171636686204116], [-74.0469073409185, 5.171531872287826], [-74.046861485189, 5.171417228582397], [-74.04680580171366, 5.171309140594077], [-74.04673701810408, 5.171187949989448], [-74.0466289282601, 5.171063479861636], [-74.04644550301408, 5.170857126569073], [-74.04633086202203, 5.170713007967167], [-74.04623587414729, 5.170536133174678], [-74.04609830556451, 5.170293748128394], [-74.04598693892072, 5.170169284142797], [-74.0458821253695, 5.170064470344632], [-74.04581661594948, 5.169985857376061], [-74.04571835234722, 5.169864664534271], [-74.04564629213924, 5.169805709794891], [-74.0455807833424, 5.169753302744199], [-74.0455316514022, 5.169671414243513], [-74.04552213849891, 5.1696344216271095], [-74.04550217166768, 5.1695567750284965], [-74.04550872294493, 5.169435582154767], [-74.04550544809145, 5.1693340420756435], [-74.04548579478042, 5.169180095366158], [-74.04545304138401, 5.168947537899067], [-74.04539735953314, 5.168757562515205], [-74.04531547271883, 5.168502076952333], [-74.0451877290232, 5.168072993285225], [-74.04511239391742, 5.167879744727364], [-74.0450468857107, 5.167742175660592], [-74.04500430417671, 5.167627531721133], [-74.04498465126377, 5.167463758961081], [-74.04498792677092, 5.16726395719875], [-74.0450075794113, 5.167015022935859], [-74.04502395690629, 5.16681849694299], [-74.04502723184991, 5.166657997337273], [-74.04501740577358, 5.1664319930901925], [-74.04501413025272, 5.166147030245889], [-74.04502723219059, 5.16591119753539], [-74.04506326200872, 5.165731046298104], [-74.04510584302085, 5.1655672751030695], [-74.04518117890845, 5.16531834054088], [-74.0452139332821, 5.165206973926565], [-74.04523686149885, 5.165118537535901], [-74.0452401365829, 5.165010446236988], [-74.04523030989185, 5.164889254077213], [-74.0451942797157, 5.164797540509481], [-74.04511239445571, 5.164676350262339], [-74.04502723150416, 5.16453877999315], [-74.04498137643994, 5.164450343731052], [-74.04495517192845, 5.164371732779309], [-74.04494862097984, 5.1642832960569365], [-74.04494862061733, 5.164191583777386], [-74.04496172296781, 5.164109698544573], [-74.04498792807121, 5.164034361106653], [-74.04503050817897, 5.163985228919617], [-74.04514842546145, 5.163949199206388], [-74.04528599440714, 5.16390661842911], [-74.04540390889369, 5.163873863405917], [-74.04546614324464, 5.163824734124199], [-74.04549234616348, 5.163710091813735], [-74.0455119991965, 5.163552869835226], [-74.04553165183353, 5.1634218520087325], [-74.04554475270147, 5.163313763536767], [-74.04552837613238, 5.163212225100583], [-74.04547269319536, 5.163028797240442], [-74.04540063347086, 5.1628224460926], [-74.0453285741119, 5.162596442036699], [-74.04531547186599, 5.162501453076334], [-74.04532857378297, 5.162386809716487], [-74.04536132774653, 5.162239413880668], [-74.04544321415494, 5.162147701638555], [-74.04553492754579, 5.162092017833538], [-74.04565284385515, 5.1620363379299405], [-74.04576420982889, 5.161967553598845], [-74.04583626893785, 5.161911870452872], [-74.0458853999039, 5.1618267072737165], [-74.04593125629835, 5.161695690641814], [-74.04594435821402, 5.161574496933504], [-74.04592798130423, 5.161319015577792], [-74.04590505266786, 5.161027499481932], [-74.04589522702074, 5.160785116190135], [-74.04589195102912, 5.160598413282728], [-74.04586247193943, 5.160428090047716], [-74.0458329930963, 5.160359305063374], [-74.04581333984568, 5.1603003497999405], [-74.04578058702977, 5.160093995464842], [-74.04574455617346, 5.159838508417129], [-74.04572490408378, 5.1596518071098165], [-74.04569542380204, 5.15945200587132], [-74.04569870109525, 5.159324262585893], [-74.04573800490435, 5.159153941944708], [-74.04578713706049, 5.158986891620435], [-74.04582316733726, 5.1587084768889016], [-74.0458460952437, 5.158462821040144], [-74.04585919691262, 5.158249915061871], [-74.04584937105089, 5.1582040579032515], [-74.0458102199847, 5.158013912157305], [-74.04573446036439, 5.15783325086449], [-74.04569949311231, 5.157646764751392], [-74.04574611436543, 5.157431138775549], [-74.04589180924998, 5.1571747201981175], [-74.04613074288588, 5.156673538099997], [-74.04646292185465, 5.156026667645401], [-74.04672516883947, 5.1555196532300105], [-74.04695244878519, 5.155187474806947], [-74.047214696269, 5.154925230498367], [-74.04736038779046, 5.154773707098497], [-74.04754104705232, 5.154622189425058], [-74.047669258158, 5.1544357025325], [-74.04775084436217, 5.154016109162031], [-74.04781494958141, 5.153794655995571], [-74.04793733026403, 5.153608167839419], [-74.04817043924615, 5.153485785549637]]]], "type": "MultiPolygon"}}, {"type": "Feature", "properties": {"PUBLICADO_": "N", "TITLE_TYPE": "CC", "TENURE_STA": "A", "MINING_CLA": "MED", "TENURE_ID": "HC9-093", "TENURE_S01": "EXPT", "CENTROID_C": "-74.23191,5.07863", "CODIGO_EXP": "HC9-093", "TITULO_EST": "Activo", "MODALIDAD": "CONTRATO DE CONCESION (L 685)", "MUNICIPIOS": "SUPAT\u00c1", "DEPARTAMEN": "Cundinamarca", "AREA_HA": 539.99787, "CLASIFICAC": "Mediana", "ETAPA": "Explotaci\u00f3n", "SOLICITANT": "(39857) CARLOS ALIRIO GIL RODRIGUEZ, (10523) DEMETRIO  HEREDIA VELA, (41706) JOSE RAMON CASTILLO SANCHEZ, (19450) LIBARDO RIA\u00d1O CARO, (35920) LUIS CASTRO QUI\u00d1ONEZ, (15545) MARIN BELLO TULIO EMIRO, (30861) ORLANDO GALVIS MONGUI", "MINERALES": "ANHIDRITA, ANTRACITA, ARCILLA COMUN, ARCILLAS, ARCILLAS ESPECIALES, ARCILLAS REFRACTARIAS, ARENAS, ARENAS ARCILLOSAS, ARENAS FELDESP\u00c1TICAS, ARENAS INDUSTRIALES, ARENAS Y GRAVAS SILICEAS, ARENISCAS, ASFALTO NATURAL, AZUFRE, BAUXITA, BENTONITA, CALCITA, C", "MINERALES_": "ASBESTO, ASOCIADOS, DEMAS_CONCESIBLES, MINERAL DE ESTA?O, MINERAL DE PLOMO, MINERAL DE ZINC, ROCA O PIEDRA CALIZA (PARA CONSTRUCCI\u00d3N)", "FECHA_DE_S": "2006-03-09T00:00:00+00:00", "FECHA_DE_E": "2006-10-05T00:00:00+00:00", "FECHA_DE_A": "2006-10-05T00:00:00+00:00", "FECHA_DE01": "2036-10-04T00:00:00+00:00", "OBJECTID": 174119.0, "PAR": "ZONA CENTRO", "TIPO_TERMI": " ", "SHAPE_1": " ", "TERMINATIO": " ", "ACTIVE_TEN": "Y", "ACTIVE_APP": "N", "Shape_Length": 9394.596974961361, "Shape_Area": 5393793.236664492}, "geometry": {"coordinates": [[[[-74.22288536138778, 5.066422530173729], [-74.24092155474273, 5.066418401558844], [-74.24092746706562, 5.090834320260723], [-74.22289059375736, 5.090838470248249], [-74.22288536138778, 5.066422530173729]]]], "type": "MultiPolygon"}}]}