{"type": "FeatureCollection", "features": [{"type": "Feature", "properties": {"Orden": "Orden 2", "Longitud": 959.978159765017, "SHAPE_Length": 959.978159765017}, "geometry": {"coordinates": [[[-74.27190327154342, 5.033924489826749], [-74.27177445137356, 5.033992717492014], [-74.27164490952518, 5.034040129753841], [-74.27140371764861, 5.034124181978516], [-74.27131640591655, 5.034167992934505], [-74.27115324402395, 5.034288629504584], [-74.27101441791454, 5.0344049514838645], [-74.27073532604155, 5.034614627967864], [-74.27065230851349, 5.034657720208574], [-74.27051632402019, 5.034702263076797], [-74.27027439686393, 5.034722432791708], [-74.27000526656654, 5.034733997433769], [-74.26989790268532, 5.034739771435933], [-74.26982775984091, 5.034754147160892], [-74.2697032367142, 5.034830268678881], [-74.26945562446447, 5.034989690292273], [-74.269256680949, 5.035136176870808], [-74.26905488559139, 5.035322861246944], [-74.2688631062501, 5.035492313983223], [-74.26879155096243, 5.035569855809155], [-74.26869281541929, 5.03571344246797], [-74.2686513209606, 5.035786668585906], [-74.26856118262585, 5.035954656416338], [-74.26848535230597, 5.036101107362544], [-74.26838661226566, 5.036230337497921], [-74.2682678276006, 5.036349525371403], [-74.26814331042654, 5.03644574419887], [-74.26796440083382, 5.036567820624725], [-74.2678942643193, 5.036605165538798], [-74.26765522413274, 5.036708596147344], [-74.26738182717419, 5.036816344377118], [-74.26724441542753, 5.036879549281326], [-74.26718715997553, 5.03690397106725], [-74.26714708170421, 5.036921209634916], [-74.26709412332407, 5.036954242210085], [-74.26706550116411, 5.036987269011739], [-74.26700254288188, 5.03709208469293], [-74.26690953797208, 5.0372528956857545], [-74.26683798995839, 5.037357712707798], [-74.26677073011734, 5.037438124236475], [-74.26667483938847, 5.0375228513252095], [-74.26656176889149, 5.037600405086147], [-74.26646586825433, 5.037650678131452], [-74.26633131139013, 5.037685170620843], [-74.26622394496947, 5.037689508225659], [-74.26615522574413, 5.037673737321836], [-74.26609078944067, 5.037617768470048], [-74.26603923030062, 5.037540262823241], [-74.26597907896884, 5.037448403783474], [-74.26591893448496, 5.03738525507292], [-74.26587598018372, 5.037357991838239], [-74.26582157549552, 5.037339344711591], [-74.26574284013209, 5.037342239452768], [-74.26564979137267, 5.037352315414569], [-74.26556819404254, 5.037356645294022], [-74.26549947624406, 5.0373509230659925], [-74.26542216298715, 5.037319362754161], [-74.26535343407998, 5.037270573635521], [-74.26528327111446, 5.03721460676531], [-74.26520595246811, 5.037164383928023], [-74.26512290700403, 5.037112727240739], [-74.26503127276732, 5.037061073666499], [-74.26490418192952, 5.036996936648446]]], "type": "MultiLineString"}}, {"type": "Feature", "properties": {"Orden": "Orden 2", "Longitud": 216.7393101099483, "SHAPE_Length": 216.7393101099483}, "geometry": {"coordinates": [[[-74.2736231463013, 5.033359432808723], [-74.27332611161923, 5.033402589223123], [-74.27331033012393, 5.033408300676341], [-74.27329419531864, 5.033412913811172], [-74.27327778311667, 5.033416406926424], [-74.27326117073554, 5.033418763585716], [-74.27324443633204, 5.03341997270286], [-74.27322765863913, 5.033420028587375], [-74.27321091659616, 5.033418930975925], [-74.273194288968, 5.033416685035252], [-74.27317785398795, 5.033413301330492], [-74.27316168898109, 5.03340879578062], [-74.27314586999648, 5.033403189584747], [-74.27313047146467, 5.033396509119242], [-74.27311556583199, 5.033388785813862], [-74.2731012232261, 5.033380056006241], [-74.27308751112835, 5.033370360768302], [-74.27300040501956, 5.033308179349014], [-74.27298243860065, 5.033301610819865], [-74.27296405129024, 5.0332963421762935], [-74.27294533647532, 5.0332924001778165], [-74.27292638921676, 5.0332898048468655], [-74.27290730574522, 5.033288569365208], [-74.27288818299208, 5.033288700006389], [-74.27286911807742, 5.033290196109227], [-74.27285020783901, 5.033293050074412], [-74.2728315483203, 5.03329724740542], [-74.27281323429735, 5.033302766784938], [-74.2727953587886, 5.033309580178283], [-74.27277801258397, 5.033317652979946], [-74.2727612837871, 5.033326944187049], [-74.27274525736605, 5.033337406610554], [-74.27273001472149, 5.033348987107483], [-74.27271563326963, 5.03336162686159], [-74.27270218605591, 5.033375261675694], [-74.27261989116175, 5.033442280181582], [-74.27250929764537, 5.033528449842654], [-74.27243594686696, 5.03358290305463], [-74.2722803003297, 5.033702580519295], [-74.27214074934697, 5.033786961834367], [-74.27210795098001, 5.033812094377651], [-74.27208350079201, 5.033831841510582], [-74.27197734283257, 5.033885107447326], [-74.27190327154342, 5.033924489826749]]], "type": "MultiLineString"}}, {"type": "Feature", "properties": {"Orden": "Orden 4", "Longitud": 72.32618872363228, "SHAPE_Length": 72.32618872363228}, "geometry": {"coordinates": [[[-74.27208350079201, 5.033831841510582], [-74.27211213361824, 5.033838412337986], [-74.27214374923149, 5.033846776987767], [-74.27216462702151, 5.033849162872738], [-74.27223858117044, 5.03381684087185], [-74.27236382192896, 5.0337486137967895], [-74.27242823116968, 5.033712704795431], [-74.27249860583514, 5.033677990231783], [-74.27261609896293, 5.033633094114256], [-74.27267947648699, 5.033607196033733]]], "type": "MultiLineString"}}, {"type": "Feature", "properties": {"Orden": "Orden 4", "Longitud": 107.05589132667406, "SHAPE_Length": 107.05589132667406}, "geometry": {"coordinates": [[[-74.26622394496947, 5.037689508225659], [-74.266202122018, 5.037716790742588], [-74.26616277286884, 5.03778259865595], [-74.26611865537569, 5.0378615680867], [-74.26605783503751, 5.037934560312958], [-74.26588967363794, 5.038097307216941], [-74.26582646837518, 5.038176282117646], [-74.26574298727093, 5.038268421564655], [-74.26558246908387, 5.038405135898799]]], "type": "MultiLineString"}}, {"type": "Feature", "properties": {"Orden": "Orden 4", "Longitud": 569.8042097522267, "SHAPE_Length": 569.8042097522267}, "geometry": {"coordinates": [[[-74.26728014546003, 5.0368626955763345], [-74.26726159127031, 5.036890346452621], [-74.26724499591602, 5.036919222208274], [-74.2672304394539, 5.0369491835297895], [-74.26721799212012, 5.03698008586899], [-74.26720771396307, 5.0370117801383], [-74.2671996545732, 5.037044113425783], [-74.26719385283067, 5.037076929742037], [-74.26719033672434, 5.037110070762145], [-74.26718912322423, 5.037143376599127], [-74.26723783928865, 5.037289791211856], [-74.26736099383166, 5.037429004245582], [-74.26762730678092, 5.037572484053109], [-74.2677776406345, 5.037639912065762], [-74.26797021346007, 5.037736038615668], [-74.26813057138712, 5.037814948855551], [-74.26821003858286, 5.037865169794449], [-74.26824798440347, 5.037900329780033], [-74.2683231690703, 5.037995055484704], [-74.26834107568754, 5.038037399766411], [-74.2683940846852, 5.0381751993446935], [-74.26844995759083, 5.038322328186862], [-74.26846715042367, 5.038371133245358], [-74.26849866530547, 5.038440030490764], [-74.26854736355689, 5.038523997202812], [-74.26859319896985, 5.038609400890677], [-74.26860538048777, 5.038656770743147], [-74.26861827395659, 5.038688349479335], [-74.26861471125133, 5.038745773452536], [-74.26858681373909, 5.038805357605631], [-74.26853314632395, 5.0388584891964205], [-74.26850451988857, 5.0388785963800595], [-74.26843437843728, 5.038894407992533], [-74.268219643779, 5.038898060505129], [-74.2680729077799, 5.038896667291925], [-74.26800992197975, 5.038906734788218], [-74.26796054286953, 5.038939766816944], [-74.26786894257509, 5.039008702332585], [-74.26779739567394, 5.039116390404857], [-74.26772514932425, 5.0392807838958875], [-74.26770587463882, 5.039456647477315], [-74.2676901735398, 5.039617435490233], [-74.26767444738968, 5.039688500487517], [-74.2676737827413, 5.039865076066049], [-74.26766025700444, 5.0401184592762425], [-74.26765167659241, 5.040149326196015], [-74.26757228795425, 5.040369709319157], [-74.26755441232864, 5.040436468024383], [-74.2675537508609, 5.040621656429169], [-74.26755579182378, 5.0406723857085005]]], "type": "MultiLineString"}}, {"type": "Feature", "properties": {"Orden": "Orden 2", "Longitud": 291.22599705805885, "SHAPE_Length": 291.22599705805885}, "geometry": {"coordinates": [[[-74.27205076417349, 5.031555153586408], [-74.27200500095032, 5.03171164441681], [-74.27195495151145, 5.031892540716357], [-74.27194926705054, 5.032033228713697], [-74.27194219547941, 5.032327522324876], [-74.27193317680148, 5.032382555911006], [-74.2719219981938, 5.032437189469915], [-74.2719086770876, 5.032491337787312], [-74.27189323426698, 5.03254491640472], [-74.27187569381718, 5.032597841752998], [-74.27185608308825, 5.032650031284018], [-74.27183443267572, 5.032701403596516], [-74.27178793284385, 5.032788987920655], [-74.27163551343357, 5.032927565669816], [-74.27162464387744, 5.032935079556179], [-74.27161432742001, 5.032943340447082], [-74.27160461501187, 5.032952307542347], [-74.27159555462538, 5.03296193655285], [-74.27158719100954, 5.0329721799221865], [-74.27157956547211, 5.0329829870573874], [-74.27157271567557, 5.0329943045822345], [-74.27156667545061, 5.033006076601887], [-74.27156147462667, 5.033018244971786], [-74.27155713889694, 5.033030749594535], [-74.27155368966845, 5.033043528710339], [-74.27155114398295, 5.033056519201324], [-74.27154951441003, 5.033069656909937], [-74.27154880900038, 5.0330828769486], [-74.27154903123696, 5.033096114023387], [-74.27155018002054, 5.0331093027565466], [-74.27155224968106, 5.033122378010085], [-74.27155522999125, 5.0331352752039065], [-74.27155910623813, 5.03314793064143], [-74.27156385927101, 5.033160281816891], [-74.27156946562037, 5.033172267726831], [-74.271575897591, 5.033183829174084], [-74.27158312342169, 5.033194909055995], [-74.27159110741606, 5.033205452650552], [-74.27159981014819, 5.03321540788278], [-74.27176877902122, 5.033370399010845], [-74.27180458094524, 5.0334148915132095], [-74.27187332682058, 5.033518949768255], [-74.27188549869804, 5.033531148064092], [-74.27193133733519, 5.033628035255112], [-74.27198649079351, 5.03376009110626], [-74.27199009021005, 5.033827562436374], [-74.27195861612779, 5.0338957618919205]]], "type": "MultiLineString"}}, {"type": "Feature", "properties": {"Orden": "Orden 4", "Longitud": 64.78262835482555, "SHAPE_Length": 64.78262835482555}, "geometry": {"coordinates": [[[-74.26866276957007, 5.035766465528315], [-74.26881791167801, 5.035856925735658], [-74.26889237063808, 5.035917197914428], [-74.26889954596547, 5.035976054061347], [-74.26888217293876, 5.036056245385792], [-74.26880741499387, 5.036187078258374], [-74.2687980748551, 5.036202550514188]]], "type": "MultiLineString"}}, {"type": "Feature", "properties": {"Orden": "Orden 4", "Longitud": 23.507031166901093, "SHAPE_Length": 23.507031166901093}, "geometry": {"coordinates": [[[-74.27164490952518, 5.034040129753841], [-74.27166492763, 5.034186135748779], [-74.27166044268236, 5.034251293012862]]], "type": "MultiLineString"}}, {"type": "Feature", "properties": {"Orden": "Orden 4", "Longitud": 55.290926810359224, "SHAPE_Length": 55.290926810359224}, "geometry": {"coordinates": [[[-74.26600915418037, 5.037494332853085], [-74.26601048614322, 5.037380665100948], [-74.26599376121874, 5.037301714546246], [-74.2659555704814, 5.037246695311553], [-74.26590305887116, 5.037174931575054], [-74.26578612177205, 5.0370816538653465]]], "type": "MultiLineString"}}, {"type": "Feature", "properties": {"Orden": "Orden 4", "Longitud": 62.617654407477154, "SHAPE_Length": 62.617654407477154}, "geometry": {"coordinates": [[[-74.2687980748551, 5.036202550514188], [-74.26874932175082, 5.036283310617412], [-74.26871356073788, 5.036380939882136], [-74.26871501693641, 5.036464202497973], [-74.26878804843643, 5.036538830354738], [-74.2689255128268, 5.0366550711374]]], "type": "MultiLineString"}}]}